{
 "cells": [
  {
   "cell_type": "markdown",
   "metadata": {},
   "source": [
    "<img src=\"../images/airplane-symbol.jpg\" style=\"float: left; margin: 20px;\" width=\"50\" height=\"50\"> \n",
    "#  Predicting Flight Delays (<i>a Proof-of-Concept</i>)\n",
    "\n",
    "Author: Solomon Heng\n",
    "\n",
    "---"
   ]
  },
  {
   "cell_type": "markdown",
   "metadata": {},
   "source": [
    "# (1) Extracting METAR data for KATL\n",
    "\n",
    "## Processes covered in this notebook:\n",
    "1. [Importing METAR txt](#(1)-Importing-METAR-txt)\n",
    "2. [Extracting Date info](#(2)-Extracting-Date-info)\n",
    "3. [Extracting METAR data](#(3)-Extracting-METAR-data)\n",
    "4. [Combining METAR and date](#(4)-Combining-METAR-and-date)\n",
    "5. [Exporting the weather data](#(5)-Exporting-the-weather-data)"
   ]
  },
  {
   "cell_type": "code",
   "execution_count": 1,
   "metadata": {},
   "outputs": [],
   "source": [
    "import pandas as pd\n",
    "import numpy as np\n",
    "import re"
   ]
  },
  {
   "cell_type": "markdown",
   "metadata": {},
   "source": [
    "---\n",
    "### (1) Importing METAR txt\n",
    "\n",
    "Importing the METAR txt data scraped from https://www.ogimet.com/\n",
    "\n",
    "_The scraping of the data is done using API calls on the relevant webpage_\n",
    "\n",
    "---"
   ]
  },
  {
   "cell_type": "code",
   "execution_count": 2,
   "metadata": {},
   "outputs": [],
   "source": [
    "f = open('../datasets/Metar KATL.txt', 'r')"
   ]
  },
  {
   "cell_type": "code",
   "execution_count": 3,
   "metadata": {},
   "outputs": [],
   "source": [
    "met = []\n",
    "\n",
    "for i in f:\n",
    "    met.append(i)"
   ]
  },
  {
   "cell_type": "code",
   "execution_count": 4,
   "metadata": {
    "scrolled": true
   },
   "outputs": [
    {
     "data": {
      "text/plain": [
       "['KATL,2015,01,01,00,52,METAR KATL 010052Z 33005KT 10SM FEW200 SCT250 05/01 A3037 RMK AO2 SLP289 T00500006=\\n',\n",
       " 'KATL,2015,01,01,01,52,METAR KATL 010152Z 31004KT 10SM FEW250 04/00 A3037 RMK AO2 SLP290 T00440000=\\n',\n",
       " 'KATL,2015,01,01,02,52,METAR KATL 010252Z 00000KT 10SM FEW250 04/00 A3036 RMK AO2 SLP285 T00440000 58001=\\n',\n",
       " 'KATL,2015,01,01,03,52,METAR KATL 010352Z 32005KT 10SM FEW250 03/M01 A3037 RMK AO2 SLP289 T00331006=\\n',\n",
       " 'KATL,2015,01,01,04,52,METAR KATL 010452Z 32006KT 10SM BKN200 03/M01 A3035 RMK AO2 SLP283 T00281011 401060028=\\n',\n",
       " 'KATL,2015,01,01,05,52,METAR KATL 010552Z 33004KT 10SM BKN200 03/M02 A3034 RMK AO2 SLP280 T00281017 10061 20028 58005=\\n',\n",
       " 'KATL,2015,01,01,06,52,METAR KATL 010652Z 32006KT 10SM FEW200 SCT250 02/M02 A3035 RMK AO2 SLP281 T00221017=\\n',\n",
       " 'KATL,2015,01,01,07,52,METAR KATL 010752Z 33005KT 10SM FEW250 02/M02 A3034 RMK AO2 SLP280 T00171022=\\n',\n",
       " 'KATL,2015,01,01,08,52,METAR KATL 010852Z 00000KT 10SM FEW200 02/M03 A3032 RMK AO2 SLP274 T00171033 58006=\\n',\n",
       " 'KATL,2015,01,01,09,52,METAR KATL 010952Z 33007KT 10SM FEW200 01/M03 A3031 RMK AO2 SLP270 T00111028=\\n',\n",
       " 'KATL,2015,01,01,10,52,METAR KATL 011052Z 31003KT 10SM FEW250 01/M03 A3030 RMK AO2 SLP268 T00061033=\\n',\n",
       " 'KATL,2015,01,01,11,52,METAR KATL 011152Z 31006KT 10SM FEW250 00/M03 A3032 RMK AO2 SLP276 T00001033 10028 20000 53000=\\n',\n",
       " 'KATL,2015,01,01,12,52,METAR KATL 011252Z 00000KT 10SM FEW150 SCT200 SCT250 00/M03 A3033 RMK AO2 SLP280 T00001033=\\n',\n",
       " 'KATL,2015,01,01,13,52,METAR KATL 011352Z 00000KT 10SM FEW150 SCT200 SCT250 03/M02 A3033 RMK AO2 SLP276 T00281022=\\n',\n",
       " 'KATL,2015,01,01,14,52,METAR KATL 011452Z 00000KT 10SM FEW150 SCT200 BKN250 06/M03 A3034 RMK AO2 SLP280 T00611028 53005=\\n',\n",
       " 'KATL,2015,01,01,15,52,METAR KATL 011552Z 31004KT 10SM FEW150 BKN230 08/M03 A3036 RMK AO2 SLP285 T00831028=\\n',\n",
       " 'KATL,2015,01,01,16,52,METAR KATL 011652Z VRB03KT 10SM FEW090 BKN230 10/M06 A3031 RMK AO2 SLP270 T01001061=\\n',\n",
       " 'KATL,2015,01,01,17,52,METAR KATL 011752Z 26003KT 10SM BKN065 BKN230 12/M06 A3028 RMK AO2 SLP258 T01171061 10122 20000 58020=\\n',\n",
       " 'KATL,2015,01,01,18,52,METAR KATL 011852Z 29004KT 10SM BKN065 BKN230 13/M04 A3027 RMK AO2 SLP254 T01331039=\\n',\n",
       " 'KATL,2015,01,01,19,52,METAR KATL 011952Z 30003KT 10SM BKN065 BKN230 14/M03 A3025 RMK AO2 SLP247 T01391033=\\n',\n",
       " 'KATL,2015,01,01,20,52,METAR KATL 012052Z VRB03KT 10SM BKN065 OVC230 13/M03 A3026 RMK AO2 SLP250 T01331028 55008=\\n',\n",
       " 'KATL,2015,01,01,21,52,METAR KATL 012152Z 28005KT 10SM BKN065 OVC230 12/M01 A3026 RMK AO2 SLP253 T01221011=\\n',\n",
       " 'KATL,2015,01,01,22,52,METAR KATL 012252Z 30006KT 10SM FEW065 BKN150 OVC200 12/M01 A3027 RMK AO2 SLP254 VIRGA SW T01171011=\\n',\n",
       " 'KATL,2015,01,01,23,52,METAR KATL 012352Z 00000KT 10SM BKN070 BKN130 BKN200 11/M01 A3028 RMK AO2 SLP258 VIRGA SW-W T01111011 10144 20111 53007=\\n',\n",
       " 'KATL,2015,01,02,00,52,METAR KATL 020052Z 33007KT 10SM -RA FEW070 BKN100 OVC120 10/01 A3031 RMK AO2 RAB20 SLP270 P0000 T01000006=\\n',\n",
       " 'KATL,2015,01,02,01,52,METAR KATL 020152Z 33007KT 10SM -RA BKN090 OVC110 08/01 A3033 RMK AO2 SLP275 P0000 T00830006=\\n',\n",
       " 'KATL,2015,01,02,02,52,METAR KATL 020252Z 34004KT 10SM -RA BKN085 OVC100 07/03 A3035 RMK AO2 SLP282 P0001 60001 T00720028 51023=\\n',\n",
       " 'KATL,2015,01,02,03,52,METAR KATL 020352Z 34005KT 10SM -RA BKN085 OVC100 06/02 A3033 RMK AO2 SLP276 P0004 T00610022=\\n',\n",
       " 'KATL,2015,01,02,04,52,METAR KATL 020452Z 35006KT 10SM -RA FEW070 BKN090 OVC140 06/02 A3031 RMK AO2 SLP268 P0002 T00610022 401440000=\\n',\n",
       " 'KATL,2015,01,02,05,52,METAR KATL 020552Z 03005KT 10SM FEW100 BKN150 OVC200 07/03 A3027 RMK AO2 RAE09 SLP254 P0000 60007 T00670033 10117 20061 58024=\\n',\n",
       " 'KATL,2015,01,02,06,52,METAR KATL 020652Z 00000KT 10SM SCT090 BKN180 OVC250 07/03 A3027 RMK AO2 SLP251 T00670028=\\n',\n",
       " 'KATL,2015,01,02,07,52,METAR KATL 020752Z 00000KT 10SM -RA BKN090 OVC180 07/04 A3026 RMK AO2 RAB49 SLP248 PCPN VRY LGT P0000 T00670039=\\n',\n",
       " 'KATL,2015,01,02,08,52,METAR KATL 020852Z 00000KT 10SM -RA FEW050 BKN085 BKN110 OVC180 07/05 A3027 RMK AO2 RAE21B43 SLP252 P0000 60000 T00670050 55002=\\n',\n",
       " 'KATL,2015,01,02,09,52,METAR KATL 020952Z 00000KT 10SM SCT055 BKN080 OVC110 07/05 A3026 RMK AO2 RAE46 SLP249 P0000 T00670050=\\n',\n",
       " 'KATL,2015,01,02,10,52,METAR KATL 021052Z 00000KT 9SM -RA BKN065 OVC110 07/05 A3027 RMK AO2 RAB11E20B36 SLP253 P0000 T00670050=\\n',\n",
       " 'KATL,2015,01,02,11,52,METAR KATL 021152Z 20003KT 6SM -RA BR SCT085 OVC110 07/05 A3025 RMK AO2 SLP247 P0003 60003 70010 T00670050 10072 20061 58005=\\n',\n",
       " 'KATL,2015,01,02,12,52,METAR KATL 021252Z 30004KT 6SM -RA BR BKN050 BKN085 OVC110 07/06 A3029 RMK AO2 RAE18B46 SLP261 P0000 T00720056=\\n',\n",
       " 'KATL,2015,01,02,13,52,METAR KATL 021352Z 15003KT 8SM -RA FEW008 SCT055 BKN100 OVC200 07/06 A3028 RMK AO2 SLP260 PCPN VRY LGT P0005 T00720061=\\n',\n",
       " 'KATL,2015,01,02,14,52,METAR KATL 021452Z 33006KT 9SM FEW008 SCT110 BKN130 OVC180 08/06 A3032 RMK AO2 RAE1353B21E35 SLP272 VIRGA OHD-NE-SE P0000 60005 T00830061 51022=\\n',\n",
       " 'KATL,2015,01,02,15,52,METAR KATL 021552Z 04004KT 10SM -RA FEW050 SCT090 BKN110 OVC150 09/06 A3033 RMK AO2 RAB02E24B51 SLP273 P0001 T00940061=\\n',\n",
       " 'KATL,2015,01,02,16,52,METAR KATL 021652Z COR 00000KT 6SM -RA BR FEW020 SCT050 OVC100 08/07 A3032 RMK AO2 SLP273 P0002 T00830072=\\n',\n",
       " 'KATL,2015,01,02,17,52,METAR KATL 021752Z 00000KT 4SM -RA BR FEW020 BKN030 OVC100 09/07 A3029 RMK AO2 SLP260 P0006 60014 T00890072 10094 20067 58012=\\n',\n",
       " 'KATL,2015,01,02,18,45,SPECI KATL 021845Z 09005KT 6SM -RA BR BKN014 BKN065 OVC110 09/07 A3025 RMK AO2 P0001=\\n',\n",
       " 'KATL,2015,01,02,18,52,METAR KATL 021852Z 06003KT 6SM -RA BR SCT007 BKN014 OVC110 09/07 A3027 RMK AO2 SLP252 P0001 T00940072=\\n',\n",
       " 'KATL,2015,01,02,19,22,SPECI KATL 021922Z 33007KT 2 1/2SM +RA BR SCT005 OVC014 09/08 A3029 RMK AO2 P0005=\\n',\n",
       " 'KATL,2015,01,02,19,47,SPECI KATL 021947Z 04004KT 2SM R09R/3500VP6000FT +RA BR FEW007 BKN016 OVC040 09/07 A3029 RMK AO2 TWR VIS 2 1/2 P0017=\\n',\n",
       " 'KATL,2015,01,02,19,52,METAR KATL 021952Z 04006KT 2SM R09R/4000VP6000FT +RA BR FEW007 BKN016 OVC040 09/07 A3028 RMK AO2 TWR VIS 2 1/2 SLP258 P0023 T00890072=\\n',\n",
       " 'KATL,2015,01,02,20,34,SPECI KATL 022034Z 07010KT 3SM -RA BR BKN014 BKN050 OVC095 09/07 A3025 RMK AO2 SFC VIS 5 PRESFR P0011=\\n',\n",
       " 'KATL,2015,01,02,20,52,METAR KATL 022052Z 03007KT 3SM -RA BR SCT006 BKN014 OVC090 09/07 A3029 RMK AO2 SFC VIS 5 PRESRR SLP263 P0012 60036 T00890072 51009=\\n',\n",
       " 'KATL,2015,01,02,21,30,SPECI KATL 022130Z 05007KT 3SM -RA BR SCT005 BKN022 OVC045 09/07 A3028 RMK AO2 SFC VIS 6 P0001=\\n',\n",
       " 'KATL,2015,01,02,21,52,METAR KATL 022152Z 07006KT 3SM BR SCT008 OVC022 09/07 A3029 RMK AO2 SFC VIS 6 RAE39 SLP260 P0001 T00890067=\\n',\n",
       " 'KATL,2015,01,02,22,52,METAR KATL 022252Z 11004KT 6SM -RA BR FEW006 BKN020 OVC060 09/07 A3029 RMK AO2 RAB03 SLP261 P0001 T00890072=\\n',\n",
       " 'KATL,2015,01,02,23,26,SPECI KATL 022326Z 09004KT 6SM -RA BR FEW005 SCT018 OVC060 09/07 A3028 RMK AO2 P0001=\\n',\n",
       " 'KATL,2015,01,02,23,52,METAR KATL 022352Z 00000KT 8SM -RA FEW005 SCT010 OVC060 09/08 A3029 RMK AO2 SLP262 P0001 60039 T00890078 10094 20083 55001=\\n',\n",
       " 'KATL,2015,01,03,00,52,METAR KATL 030052Z 11006KT 4SM -RA BR SCT004 BKN010 OVC080 09/08 A3027 RMK AO2 SLP254 P0016 T00890078=\\n',\n",
       " 'KATL,2015,01,03,00,57,SPECI KATL 030057Z 12005KT 2SM -RA BR BKN004 BKN010 OVC080 09/08 A3027 RMK AO2 SFC VIS 6 P0000=\\n',\n",
       " 'KATL,2015,01,03,01,52,METAR KATL 030152Z 14006KT 2SM RA BR SCT004 BKN008 OVC050 09/07 A3029 RMK AO2 SFC VIS 3 SLP262 P0013 T00890072=\\n',\n",
       " 'KATL,2015,01,03,02,52,METAR KATL 030252Z 13006KT 2SM -RA BR BKN004 OVC015 08/07 A3028 RMK AO2 SFC VIS 5 SLP258 CIG 002V005 P0010 60039 T00830072 56003=\\n',\n",
       " 'KATL,2015,01,03,03,00,SPECI KATL 030300Z 13006KT 1SM -RA BR BKN004 OVC015 09/08 A3028 RMK AO2 SFC VIS 5 CIG 002V005 P0000=\\n',\n",
       " 'KATL,2015,01,03,03,18,SPECI KATL 030318Z 13007KT 5SM BR FEW003 SCT015 OVC050 09/08 A3028 RMK AO2 RAE18 P0000=\\n',\n",
       " 'KATL,2015,01,03,03,52,METAR KATL 030352Z 12006KT 10SM FEW003 SCT015 OVC040 09/07 A3028 RMK AO2 RAE18 SLP257 P0000 T00890072=\\n',\n",
       " 'KATL,2015,01,03,04,52,METAR KATL 030452Z 11006KT 10SM FEW015 BKN035 OVC060 09/07 A3027 RMK AO2 SLP253 T00890072 400940061=\\n',\n",
       " 'KATL,2015,01,03,05,08,SPECI KATL 030508Z 11007KT 10SM BKN015 BKN035 OVC050 09/07 A3027 RMK AO2=\\n',\n",
       " 'KATL,2015,01,03,05,52,METAR KATL 030552Z 10005KT 10SM BKN012 OVC040 09/07 A3027 RMK AO2 SLP252 60039 T00940072 10094 20083 57005=\\n',\n",
       " 'KATL,2015,01,03,06,52,METAR KATL 030652Z 12007KT 10SM OVC010 09/07 A3026 RMK AO2 SLP248 T00940072=\\n',\n",
       " 'KATL,2015,01,03,07,11,SPECI KATL 030711Z 11008KT 10SM OVC009 09/07 A3025 RMK AO2=\\n',\n",
       " 'KATL,2015,01,03,07,52,METAR KATL 030752Z 11006KT 4SM BR OVC005 09/08 A3024 RMK AO2 SLP244 T00890078=\\n',\n",
       " 'KATL,2015,01,03,08,01,SPECI KATL 030801Z 10007KT 2SM -DZ BR OVC004 09/08 A3025 RMK AO2 DZB00 P0000=\\n',\n",
       " 'KATL,2015,01,03,08,22,SPECI KATL 030822Z 10007KT 1 1/2SM -DZ BR OVC004 09/08 A3024 RMK AO2 DZB00 CIG 003V005 P0000=\\n',\n",
       " 'KATL,2015,01,03,08,35,SPECI KATL 030835Z 10008KT 2 1/2SM -RA BR OVC004 09/08 A3024 RMK AO2 DZB00E33RAB33 CIG 003V005 P0001=\\n',\n",
       " 'KATL,2015,01,03,08,52,METAR KATL 030852Z 10006KT 2 1/2SM -DZ BR OVC004 09/08 A3024 RMK AO2 DZB00E33B52RAB33E52 SLP243 CIG 003V005 P0001 60001 T00890078 56009=\\n',\n",
       " 'KATL,2015,01,03,09,19,SPECI KATL 030919Z 12007KT 3SM -DZ BR OVC004 09/08 A3023 RMK AO2 DZE0859B19RAB0859E18 CIG 003V005 P0000=\\n',\n",
       " 'KATL,2015,01,03,09,47,SPECI KATL 030947Z 11008KT 1/2SM -DZ BR OVC003 09/08 A3022 RMK AO2 SFC VIS 2 DZE0859B19RAB0859E18 TWRINC P0001=\\n',\n",
       " 'KATL,2015,01,03,09,52,METAR KATL 030952Z 11009KT 1/2SM -DZ BR OVC003 09/08 A3022 RMK AO2 SFC VIS 2 DZE0859B19RAB0859E18 SLP236 TWRINC P0001 T00940083=\\n',\n",
       " 'KATL,2015,01,03,10,52,METAR KATL 031052Z 10008KT 1/2SM R09R/3500VP6000FT -DZ BR VV002 09/08 A3023 RMK AO2 SFC VIS 3/4 SLP237 TWRINC P0000 T00940083=\\n',\n",
       " 'KATL,2015,01,03,11,52,METAR KATL 031152Z 09009KT 1/2SM -DZ BR OVC003 09/09 A3023 RMK AO2 SFC VIS 1 3/4 SLP237 TWRINC P0001 60003 70095 T00940089 10094 20089 56005=\\n',\n",
       " 'KATL,2015,01,03,12,52,METAR KATL 031252Z 11007KT 1/2SM -DZ BR OVC003 10/09 A3024 RMK AO2 SFC VIS 4 DZE1154B48RAB1154E48 SLP241 TWRINC P0000 T01000089=\\n',\n",
       " 'KATL,2015,01,03,13,37,SPECI KATL 031337Z 11008KT 1/2SM R09R/6000VP6000FT -DZ BR OVC003 10/09 A3024 RMK AO2 SFC VIS 1 1/4 P0000=\\n',\n",
       " 'KATL,2015,01,03,13,52,METAR KATL 031352Z 11008KT 1/2SM -DZ BR OVC003 10/09 A3024 RMK AO2 SFC VIS 1 1/4 RAB42E52 SLP244 P0000 T01000089=\\n',\n",
       " 'KATL,2015,01,03,14,52,METAR KATL 031452Z 10009KT 1/2SM -DZ BR OVC003 10/09 A3025 RMK AO2 SFC VIS 1 1/2 SLP245 TWRINC P0001 60001 T01000094 51008=\\n',\n",
       " 'KATL,2015,01,03,15,52,METAR KATL 031552Z 12010KT 1/2SM R09R/3500V4500FT -RA FG OVC002 11/10 A3024 RMK AO2 DZE49RAB49 SLP242 P0000 T01060100=\\n',\n",
       " 'KATL,2015,01,03,16,52,METAR KATL 031652Z 12009KT 1/2SM -RA BR OVC003 11/10 A3021 RMK AO2 SFC VIS 1 3/4 RAE15B49DZB16E49 SLP233 TWRINC P0000 T01110100=\\n',\n",
       " 'KATL,2015,01,03,17,52,METAR KATL 031752Z 12008KT 1/2SM -DZ BR OVC003 11/11 A3019 RMK AO2 SFC VIS 2 RAE08DZB49 SLP223 TWRINC P0001 60002 T01110106 10111 20094 58021=\\n',\n",
       " 'KATL,2015,01,03,18,52,METAR KATL 031852Z 11008KT 1/2SM BR OVC002 12/11 A3016 RMK AO2 SFC VIS 1 3/4 DZE22 SLP213 TWRINC P0000 T01170111=\\n',\n",
       " 'KATL,2015,01,03,19,52,METAR KATL 031952Z 11006KT 1/2SM R09R/4000V5000FT -DZ BR OVC002 12/11 A3014 RMK AO2 SFC VIS 3/4 DZB04 SLP208 P0000 T01170111=\\n',\n",
       " 'KATL,2015,01,03,20,52,METAR KATL 032052Z 11005KT 1/2SM R09R/5000V6000FT -DZ BR OVC002 12/12 A3013 RMK AO2 SFC VIS 1 SLP203 P0001 60001 T01220117 56019=\\n',\n",
       " 'KATL,2015,01,03,21,52,METAR KATL 032152Z 09006KT 1/2SM R09R/4500VP6000FT -RA FG VV002 12/12 A3014 RMK AO2 DZE40RAB40 SLP206 P0000 T01220117=\\n',\n",
       " 'KATL,2015,01,03,22,52,METAR KATL 032252Z 10007KT 1/2SM R09R/4000VP6000FT -DZ BR VV002 12/12 A3012 RMK AO2 SFC VIS 3/4 SLP200 RAE33DZB33 P0001 T01220117=\\n',\n",
       " 'KATL,2015,01,03,23,52,METAR KATL 032352Z 11008KT 1/2SM R09R/3000V4500FT FG VV002 12/12 A3012 RMK AO2 DZE48 SLP199 P0000 60002 T01220117 10122 20111 58003=\\n',\n",
       " 'KATL,2015,01,04,00,52,METAR KATL 040052Z 12007KT 1/2SM R09R/2200V3500FT FG VV002 12/12 A3011 RMK AO2 SLP198 T01220117=\\n',\n",
       " 'KATL,2015,01,04,01,52,METAR KATL 040152Z 13006KT 1/2SM R09R/2400V2800FT FG VV002 13/12 A3012 RMK AO2 SLP199 T01280122=\\n',\n",
       " 'KATL,2015,01,04,02,19,SPECI KATL 040219Z 14006KT 1/2SM R09R/1800V2200FT FG VV002 13/12 A3010 RMK AO2=\\n',\n",
       " 'KATL,2015,01,04,02,28,SPECI KATL 040228Z 14006KT 1/2SM R09R/1800V3500FT FG VV002 13/13 A3010 RMK AO2=\\n',\n",
       " 'KATL,2015,01,04,02,52,METAR KATL 040252Z 14007KT 1/2SM R09R/1800V2200FT FG VV002 13/13 A3011 RMK AO2 SLP196 T01280128 58003=\\n',\n",
       " 'KATL,2015,01,04,03,15,SPECI KATL 040315Z 11004KT 1/2SM R09R/2000V3000FT -RA FG VV002 13/13 A3010 RMK AO2 RAB0256 P0002=\\n',\n",
       " 'KATL,2015,01,04,03,52,METAR KATL 040352Z 13006KT 3/4SM RA BR BKN002 OVC005 14/13 A3008 RMK AO2 SFC VIS 2 1/2 RAB0256 SLP187 P0008 T01390133=\\n',\n",
       " 'KATL,2015,01,04,04,52,METAR KATL 040452Z 18008KT 3/4SM R09R/5000VP6000FT BR OVC002 16/16 A3008 RMK AO2 RAE20 SLP186 P0001 T01610156 401610089=\\n',\n",
       " 'KATL,2015,01,04,05,12,SPECI KATL 040512Z 20007KT 1SM BR BKN003 OVC008 17/17 A3008 RMK AO2 SFC VIS 3=\\n',\n",
       " 'KATL,2015,01,04,05,21,SPECI KATL 040521Z 20008KT 3SM BR OVC006 18/17 A3008 RMK AO2 SFC VIS 5=\\n',\n",
       " 'KATL,2015,01,04,05,52,METAR KATL 040552Z 20008KT 6SM BR BKN007 OVC018 18/17 A3008 RMK AO2 RAB28E37 SLP183 P0001 60010 T01780172 10178 20122 56010=\\n',\n",
       " 'KATL,2015,01,04,06,52,METAR KATL 040652Z 17005KT 6SM BR BKN007 BKN012 OVC019 18/17 A3007 RMK AO2 SLP182 CIG 006V010 T01780172=\\n',\n",
       " 'KATL,2015,01,04,07,52,METAR KATL 040752Z 17006KT 6SM BR BKN007 BKN016 OVC024 18/17 A3006 RMK AO2 SLP178 T01780172=\\n',\n",
       " 'KATL,2015,01,04,08,52,METAR KATL 040852Z 16005KT 5SM -RA BR BKN007 BKN019 OVC120 18/17 A3004 RMK AO2 RAB49 SLP170 P0000 60000 T01780167 58012=\\n',\n",
       " 'KATL,2015,01,04,09,11,SPECI KATL 040911Z 17005KT 5SM -RA BR SCT007 BKN018 OVC024 18/17 A3004 RMK AO2 P0000=\\n',\n",
       " 'KATL,2015,01,04,09,26,SPECI KATL 040926Z 16005KT 3SM RA BR BKN007 OVC018 18/17 A3003 RMK AO2 P0002=\\n',\n",
       " 'KATL,2015,01,04,09,52,METAR KATL 040952Z 13004KT 5SM -RA BR BKN006 OVC018 18/17 A3002 RMK AO2 SLP162 P0005 T01780172=\\n',\n",
       " 'KATL,2015,01,04,10,12,SPECI KATL 041012Z VRB06G19KT 1/2SM R09R/2200VP6000FT +RA FG BKN006 OVC015 18/17 A3003 RMK AO2 P0005=\\n',\n",
       " 'KATL,2015,01,04,10,16,SPECI KATL 041016Z 28015G21KT 1SM R09R/2200VP6000FT +TSRA BR BKN004 BKN008CB OVC018 18/17 A3001 RMK AO2 TSB16 OCNL LTGIC OHD-ALQDS TS OHD-ALQDS MOV NE P0033=\\n',\n",
       " 'KATL,2015,01,04,10,29,SPECI KATL 041029Z 25010G21KT 7SM -TSRA SCT004 BKN011CB OVC025 19/17 A3002 RMK AO2 TSB16 OCNL LTGICCG NE & SE-SW TS NE & VC SE-SW MOV NE P0064=\\n',\n",
       " 'KATL,2015,01,04,10,42,SPECI KATL 041042Z 28020G29KT 1/2SM R09R/2600VP6000FT +TSRA FG BKN005 BKN015CB OVC025 18/17 A3006 RMK AO2 PK WND 30029/1042 TSB16 PRESRR OCNL LTGICCG ALQDS TS ALQDS MOV NE P0079 $=\\n',\n",
       " 'KATL,2015,01,04,10,52,METAR KATL 041052Z 24012G20KT 2SM +TSRA BR FEW005 SCT019CB OVC027 17/15 A3005 RMK AO2 PK WND 30029/1042 TSB16 SLP173 OCNL LTGICCG OHD-NE-SE-S TS OHD-NE-SE-S MOV NE P0117 T01670150 $=\\n',\n",
       " 'KATL,2015,01,04,11,01,SPECI KATL 041101Z 24007KT 4SM TSRA BR SCT005 BKN029CB OVC075 17/15 A3005 RMK AO2 FRQ LTGICCG NE-SE-S TS NE-SE-S MOV NE P0003 $=\\n',\n",
       " 'KATL,2015,01,04,11,07,SPECI KATL 041107Z 21006KT 6SM TSRA BR SCT005 SCT029CB OVC080 17/16 A3005 RMK AO2 OCNL LTGICCG NE-SE-S TS VC NE-SE-S MOV NE P0005 $=\\n',\n",
       " 'KATL,2015,01,04,11,20,SPECI KATL 041120Z 20007KT 4SM RA BR BKN006 BKN026 OVC090 17/16 A3005 RMK AO2 TSE20 TS MOV E P0010 $=\\n',\n",
       " 'KATL,2015,01,04,11,46,SPECI KATL 041146Z 20009KT 4SM RA BR FEW005 OVC080 16/15 A3006 RMK AO2 TSE20 TS MOV E P0021 $=\\n',\n",
       " 'KATL,2015,01,04,11,52,METAR KATL 041152Z 20007KT 4SM RA BR FEW005 SCT045 OVC080 16/15 A3006 RMK AO2 TSE20 SLP176 TS MOV E P0022 60144 70158 T01610150 10189 20161 50013 $=\\n',\n",
       " 'KATL,2015,01,04,12,52,METAR KATL 041252Z 19005KT 5SM -RA BR FEW005 BKN075 OVC090 16/15 A3006 RMK AO2 SLP179 P0012 T01560150 $=\\n',\n",
       " 'KATL,2015,01,04,13,17,SPECI KATL 041317Z 16009KT 5SM -RA BR BKN007 BKN080 OVC095 16/15 A3005 RMK AO2 P0003 $=\\n',\n",
       " 'KATL,2015,01,04,13,28,SPECI KATL 041328Z 17007KT 2SM -RA BR BKN005 BKN080 OVC095 16/15 A3006 RMK AO2 SFC VIS 6 CIG 003V007 TWRINC P0003 $=\\n',\n",
       " 'KATL,2015,01,04,13,52,METAR KATL 041352Z 20007KT 2SM -RA BR BKN005 BKN075 OVC100 16/15 A3008 RMK AO2 SFC VIS 4 SLP183 CIG 003V007 TWRINC P0006 T01560150 $=\\n',\n",
       " 'KATL,2015,01,04,14,01,SPECI KATL 041401Z 18008KT 5SM -RA BR BKN005 BKN045 OVC110 16/15 A3006 RMK AO2 P0000 $=\\n',\n",
       " 'KATL,2015,01,04,14,11,SPECI KATL 041411Z 18008KT 6SM -RA BR FEW005 BKN045 OVC100 16/15 A3007 RMK AO2 P0001 $=\\n',\n",
       " 'KATL,2015,01,04,14,48,SPECI KATL 041448Z 20008KT 10SM FEW005 BKN010 BKN032 16/15 A3008 RMK AO2 RAE21 P0001 $=\\n',\n",
       " 'KATL,2015,01,04,14,52,METAR KATL 041452Z 19008KT 10SM SCT005 BKN009 BKN034 16/15 A3007 RMK AO2 RAE21 SLP179 P0001 60019 T01610150 50001 $=\\n',\n",
       " 'KATL,2015,01,04,15,44,SPECI KATL 041544Z 23005KT 8SM -RA FEW008 OVC012 16/15 A3007 RMK AO2 RAB37 P0000 $=\\n',\n",
       " 'KATL,2015,01,04,15,52,METAR KATL 041552Z 25005KT 8SM -RA SCT008 OVC012 16/15 A3007 RMK AO2 RAB37 SLP181 P0000 T01610150 $=\\n',\n",
       " 'KATL,2015,01,04,15,59,SPECI KATL 041559Z 24006KT 9SM -RA BKN008 OVC012 16/15 A3008 RMK AO2 P0000 $=\\n',\n",
       " 'KATL,2015,01,04,16,43,SPECI KATL 041643Z 24010KT 10SM SCT006 BKN011 OVC160 16/14 A3007 RMK AO2 RAE10 P0000 $=\\n',\n",
       " 'KATL,2015,01,04,16,52,METAR KATL 041652Z 24008KT 10SM FEW008 SCT013 OVC160 16/14 A3007 RMK AO2 RAE10 SLP179 P0000 T01610144 $=\\n',\n",
       " 'KATL,2015,01,04,17,52,METAR KATL 041752Z 24010KT 10SM BKN018 BKN033 BKN150 17/14 A3006 RMK AO2 SLP176 60019 T01670139 10167 20156 58000=\\n',\n",
       " 'KATL,2015,01,04,18,37,SPECI KATL 041837Z 25008KT 10SM SCT023 BKN200 18/13 A3007 RMK AO2=\\n',\n",
       " 'KATL,2015,01,04,18,52,METAR KATL 041852Z 24009G17KT 10SM FEW020 SCT033 BKN200 18/13 A3006 RMK AO2 SLP175 T01780128=\\n',\n",
       " 'KATL,2015,01,04,19,52,METAR KATL 041952Z 26013G21KT 10SM SCT023 BKN200 17/11 A3008 RMK AO2 SLP182 T01670111=\\n',\n",
       " 'KATL,2015,01,04,20,52,METAR KATL 042052Z 26012G21KT 10SM FEW035 SCT150 BKN250 16/04 A3012 RMK AO2 PK WND 29027/2026 SLP197 T01560044 53019=\\n',\n",
       " 'KATL,2015,01,04,21,52,METAR KATL 042152Z 27014G19KT 10SM FEW032 BKN250 14/06 A3016 RMK AO2 SLP210 T01390056=\\n',\n",
       " 'KATL,2015,01,04,22,52,METAR KATL 042252Z 29016G20KT 10SM FEW037 BKN180 OVC250 13/05 A3020 RMK AO2 SLP226 T01280050=\\n',\n",
       " 'KATL,2015,01,04,23,52,METAR KATL 042352Z 30015G20KT 10SM FEW030 BKN180 OVC250 10/03 A3024 RMK AO2 SLP238 T01000033 10183 20100 51038=\\n',\n",
       " 'KATL,2015,01,05,00,33,SPECI KATL 050033Z 30009KT 10SM BKN029 OVC250 09/04 A3026 RMK AO2=\\n',\n",
       " 'KATL,2015,01,05,00,52,METAR KATL 050052Z 31014G21KT 10SM BKN027 OVC250 09/03 A3027 RMK AO2 SLP251 T00890028=\\n',\n",
       " 'KATL,2015,01,05,01,24,SPECI KATL 050124Z 29015G21KT 10SM SCT029 OVC230 08/02 A3028 RMK AO2=\\n',\n",
       " 'KATL,2015,01,05,01,52,METAR KATL 050152Z 29013G18KT 10SM FEW029 OVC230 08/02 A3030 RMK AO2 SLP263 T00780017=\\n',\n",
       " 'KATL,2015,01,05,02,52,METAR KATL 050252Z 29013G19KT 10SM FEW029 OVC230 07/02 A3031 RMK AO2 SLP266 T00720017 51024=\\n',\n",
       " 'KATL,2015,01,05,03,52,METAR KATL 050352Z 29014G20KT 10SM FEW030 BKN240 07/02 A3033 RMK AO2 SLP272 T00670022=\\n',\n",
       " 'KATL,2015,01,05,04,52,METAR KATL 050452Z 30015G20KT 10SM FEW030 BKN240 07/02 A3033 RMK AO2 SLP273 T00670022 401890067=\\n',\n",
       " 'KATL,2015,01,05,05,52,METAR KATL 050552Z 31013G21KT 10SM FEW030 SCT050 OVC250 06/01 A3034 RMK AO2 SLP276 T00610011 10100 20061 51009=\\n',\n",
       " 'KATL,2015,01,05,06,24,SPECI KATL 050624Z 32015G20KT 10SM BKN028 BKN250 06/01 A3034 RMK AO2=\\n',\n",
       " 'KATL,2015,01,05,06,47,SPECI KATL 050647Z 32011G19KT 10SM BKN030 BKN250 06/02 A3034 RMK AO2=\\n',\n",
       " 'KATL,2015,01,05,06,52,METAR KATL 050652Z 32011KT 10SM BKN030 BKN250 06/02 A3035 RMK AO2 SLP276 T00610017=\\n',\n",
       " 'KATL,2015,01,05,07,52,METAR KATL 050752Z 32011G18KT 10SM FEW030 BKN250 06/01 A3036 RMK AO2 SLP281 T00560011=\\n',\n",
       " 'KATL,2015,01,05,08,49,SPECI KATL 050849Z 33015KT 10SM BKN026 BKN250 05/01 A3036 RMK AO2=\\n',\n",
       " 'KATL,2015,01,05,08,52,METAR KATL 050852Z 33014KT 10SM BKN026 BKN250 05/01 A3036 RMK AO2 SLP283 T00500006 51007=\\n',\n",
       " 'KATL,2015,01,05,09,52,METAR KATL 050952Z 33019G29KT 10SM BKN024 04/M01 A3037 RMK AO2 PK WND 32029/0945 SLP288 BKN024 V SCT T00441011=\\n',\n",
       " 'KATL,2015,01,05,10,52,METAR KATL 051052Z 33014G21KT 10SM BKN024 04/M01 A3040 RMK AO2 PK WND 32028/1010 SLP298 T00441011=\\n',\n",
       " 'KATL,2015,01,05,11,05,SPECI KATL 051105Z 34013G21KT 10SM SCT024 04/M01 A3040 RMK AO2 SCT024 V BKN=\\n',\n",
       " 'KATL,2015,01,05,11,52,METAR KATL 051152Z COR 33013KT 10SM FEW024 04/M02 A3041 RMK AO2 SLP304 70019 T00391017 10061 20039 53018=\\n',\n",
       " 'KATL,2015,01,05,12,52,METAR KATL 051252Z 34012KT 10SM FEW024 SCT200 BKN250 03/M02 A3045 RMK AO2 SLP317 T00281022=\\n',\n",
       " 'KATL,2015,01,05,13,52,METAR KATL 051352Z 33010G21KT 10SM FEW200 BKN250 03/M02 A3048 RMK AO2 SLP327 T00331022=\\n',\n",
       " 'KATL,2015,01,05,14,52,METAR KATL 051452Z 33014G22KT 10SM BKN250 04/M03 A3052 RMK AO2 SLP341 T00391033 53035=\\n',\n",
       " 'KATL,2015,01,05,15,52,METAR KATL 051552Z 32014KT 10SM FEW250 04/M04 A3053 RMK AO2 SLP344 T00441044=\\n',\n",
       " 'KATL,2015,01,05,16,52,METAR KATL 051652Z 34010KT 10SM FEW250 06/M04 A3051 RMK AO2 SLP338 T00611044=\\n',\n",
       " 'KATL,2015,01,05,17,52,METAR KATL 051752Z 33013G20KT 10SM FEW250 07/M04 A3048 RMK AO2 SLP328 T00671044 10072 20028 58012=\\n',\n",
       " 'KATL,2015,01,05,18,52,METAR KATL 051852Z 33012KT 10SM SCT250 08/M05 A3047 RMK AO2 SLP322 T00781050=\\n',\n",
       " 'KATL,2015,01,05,19,52,METAR KATL 051952Z 32009KT 10SM SCT250 08/M06 A3046 RMK AO2 SLP318 T00831061=\\n',\n",
       " 'KATL,2015,01,05,20,52,METAR KATL 052052Z 33010KT 10SM SCT250 09/M07 A3045 RMK AO2 SLP315 T00891072 56011=\\n',\n",
       " 'KATL,2015,01,05,21,52,METAR KATL 052152Z 34008KT 10SM BKN250 08/M07 A3045 RMK AO2 SLP317 T00831072=\\n',\n",
       " 'KATL,2015,01,05,22,52,METAR KATL 052252Z 33008KT 10SM FEW200 BKN250 06/M07 A3045 RMK AO2 SLP315 T00611067=\\n',\n",
       " 'KATL,2015,01,05,23,52,METAR KATL 052352Z 33008KT 10SM FEW200 BKN250 05/M06 A3044 RMK AO2 SLP315 T00501056 10089 20050 58002=\\n',\n",
       " 'KATL,2015,01,06,00,52,METAR KATL 060052Z 34008KT 10SM FEW200 BKN250 04/M06 A3042 RMK AO2 SLP310 T00391056=\\n',\n",
       " 'KATL,2015,01,06,01,52,METAR KATL 060152Z 35006KT 10SM BKN250 03/M06 A3042 RMK AO2 SLP307 T00331061=\\n',\n",
       " 'KATL,2015,01,06,02,52,METAR KATL 060252Z 02006KT 10SM BKN250 03/M06 A3041 RMK AO2 SLP304 T00331056 56011=\\n',\n",
       " 'KATL,2015,01,06,03,52,METAR KATL 060352Z 33004KT 10SM BKN250 03/M06 A3041 RMK AO2 SLP303 T00281061=\\n',\n",
       " 'KATL,2015,01,06,04,52,METAR KATL 060452Z 31005KT 10SM BKN250 01/M05 A3040 RMK AO2 SLP302 T00111050 400890011=\\n',\n",
       " 'KATL,2015,01,06,05,52,METAR KATL 060552Z 00000KT 10SM BKN250 01/M05 A3038 RMK AO2 SLP295 T00061050 10050 20006 58009=\\n',\n",
       " 'KATL,2015,01,06,06,52,METAR KATL 060652Z 30003KT 10SM SCT250 01/M06 A3037 RMK AO2 SLP292 T00111056=\\n',\n",
       " 'KATL,2015,01,06,07,52,METAR KATL 060752Z 00000KT 10SM SCT250 00/M05 A3037 RMK AO2 SLP290 T00001050=\\n',\n",
       " 'KATL,2015,01,06,08,52,METAR KATL 060852Z 00000KT 10SM FEW250 00/M05 A3036 RMK AO2 SLP286 T00001050 58007=\\n',\n",
       " 'KATL,2015,01,06,09,52,METAR KATL 060952Z 00000KT 10SM FEW250 M01/M05 A3034 RMK AO2 SLP283 T10111050=\\n',\n",
       " 'KATL,2015,01,06,10,52,METAR KATL 061052Z 29004KT 10SM FEW250 M01/M05 A3035 RMK AO2 SLP287 T10111050=\\n',\n",
       " 'KATL,2015,01,06,11,52,METAR KATL 061152Z 28006KT 10SM CLR M01/M06 A3035 RMK AO2 SLP286 T10111056 10011 21011 56002=\\n',\n",
       " 'KATL,2015,01,06,12,52,METAR KATL 061252Z 27005KT 10SM FEW250 M01/M06 A3035 RMK AO2 SLP288 T10061061=\\n',\n",
       " 'KATL,2015,01,06,13,52,METAR KATL 061352Z 28007KT 10SM FEW250 03/M04 A3035 RMK AO2 SLP286 T00281044=\\n',\n",
       " 'KATL,2015,01,06,14,52,METAR KATL 061452Z 27011G19KT 10SM FEW250 06/M04 A3035 RMK AO2 SLP285 T00561039 50001=\\n',\n",
       " 'KATL,2015,01,06,15,52,METAR KATL 061552Z 29008KT 10SM FEW250 08/M03 A3033 RMK AO2 SLP275 T00781033=\\n',\n",
       " 'KATL,2015,01,06,16,52,METAR KATL 061652Z 30015G23KT 10SM FEW250 11/M06 A3030 RMK AO2 SLP265 T01061056=\\n',\n",
       " 'KATL,2015,01,06,17,52,METAR KATL 061752Z 29012G20KT 10SM FEW250 11/M04 A3027 RMK AO2 SLP254 T01111044 10111 21011 58029=\\n',\n",
       " 'KATL,2015,01,06,18,52,METAR KATL 061852Z 31017G20KT 10SM FEW250 12/M05 A3025 RMK AO2 SLP248 T01171050=\\n',\n",
       " 'KATL,2015,01,06,19,52,METAR KATL 061952Z 30013G21KT 10SM FEW250 12/M03 A3024 RMK AO2 SLP245 T01171033=\\n',\n",
       " 'KATL,2015,01,06,20,52,METAR KATL 062052Z 28011KT 10SM SCT250 12/M02 A3024 RMK AO2 SLP244 T01171022 56010=\\n',\n",
       " 'KATL,2015,01,06,21,52,METAR KATL 062152Z 27009KT 10SM BKN250 11/M02 A3022 RMK AO2 SLP241 T01111022=\\n',\n",
       " 'KATL,2015,01,06,22,52,METAR KATL 062252Z 28007KT 10SM FEW250 09/M02 A3022 RMK AO2 SLP238 T00941022=\\n',\n",
       " 'KATL,2015,01,06,23,52,METAR KATL 062352Z 30006KT 10SM FEW250 09/M02 A3023 RMK AO2 SLP243 T00891022 10122 20089 55002=\\n',\n",
       " 'KATL,2015,01,07,00,52,METAR KATL 070052Z 31007KT 10SM FEW250 08/M02 A3024 RMK AO2 SLP246 T00781022=\\n',\n",
       " 'KATL,2015,01,07,01,52,METAR KATL 070152Z 30007KT 10SM FEW250 07/M02 A3023 RMK AO2 SLP244 T00671022=\\n',\n",
       " 'KATL,2015,01,07,02,52,METAR KATL 070252Z 31011KT 10SM FEW250 06/M03 A3023 RMK AO2 SLP241 T00611028 58000=\\n',\n",
       " 'KATL,2015,01,07,03,52,METAR KATL 070352Z 31010KT 10SM CLR 06/M03 A3023 RMK AO2 SLP241 T00561028=\\n',\n",
       " 'KATL,2015,01,07,04,52,METAR KATL 070452Z 31010KT 10SM CLR 05/M03 A3022 RMK AO2 SLP237 T00501028 401221011=\\n',\n",
       " 'KATL,2015,01,07,05,52,METAR KATL 070552Z 32004KT 10SM CLR 04/M03 A3022 RMK AO2 SLP236 T00391033 10089 20039 57004=\\n',\n",
       " 'KATL,2015,01,07,06,52,METAR KATL 070652Z 32007KT 10SM CLR 03/M04 A3022 RMK AO2 SLP238 T00331039=\\n',\n",
       " 'KATL,2015,01,07,07,52,METAR KATL 070752Z 31011KT 10SM FEW250 03/M04 A3023 RMK AO2 SLP241 T00281039=\\n',\n",
       " 'KATL,2015,01,07,08,52,METAR KATL 070852Z 33011KT 10SM FEW250 02/M04 A3022 RMK AO2 SLP239 T00171044 50002=\\n',\n",
       " 'KATL,2015,01,07,09,52,METAR KATL 070952Z 32012KT 10SM FEW250 01/M05 A3022 RMK AO2 SLP239 T00111050=\\n',\n",
       " 'KATL,2015,01,07,10,52,METAR KATL 071052Z 31012KT 10SM FEW250 01/M05 A3021 RMK AO2 SLP237 T00061050=\\n',\n",
       " 'KATL,2015,01,07,11,52,METAR KATL 071152Z 31011KT 10SM FEW150 00/M05 A3023 RMK AO2 SLP243 T00001050 10039 20000 53003=\\n',\n",
       " 'KATL,2015,01,07,12,52,METAR KATL 071252Z 31009KT 10SM FEW120 SCT250 00/M06 A3025 RMK AO2 SLP249 T00001056=\\n',\n",
       " 'KATL,2015,01,07,13,52,METAR KATL 071352Z 32016G24KT 10SM FEW120 SCT200 BKN250 01/M06 A3026 RMK AO2 SLP255 T00111061=\\n',\n",
       " 'KATL,2015,01,07,14,52,METAR KATL 071452Z 32013G22KT 10SM BKN130 BKN250 02/M08 A3027 RMK AO2 PK WND 33029/1413 SLP259 T00171078 51014=\\n',\n",
       " 'KATL,2015,01,07,15,52,METAR KATL 071552Z 33019G26KT 10SM FEW100 BKN130 BKN250 02/M07 A3027 RMK AO2 PK WND 34026/1548 SLP258 T00221067=\\n',\n",
       " 'KATL,2015,01,07,16,52,METAR KATL 071652Z 32019KT 10SM FEW100 BKN120 BKN250 03/M07 A3025 RMK AO2 SLP251 T00281067=\\n',\n",
       " 'KATL,2015,01,07,17,52,METAR KATL 071752Z 31017G23KT 10SM FEW100 BKN130 BKN250 03/M08 A3024 RMK AO2 PK WND 32027/1720 SLP246 T00281078 10028 20000 58013=\\n',\n",
       " 'KATL,2015,01,07,18,52,METAR KATL 071852Z 32018KT 10SM FEW045 SCT120 BKN150 BKN250 04/M07 A3021 RMK AO2 SLP238 T00391072=\\n',\n",
       " 'KATL,2015,01,07,19,52,METAR KATL 071952Z 34018G26KT 10SM FEW050 SCT085 SCT170 04/M08 A3025 RMK AO2 PK WND 35027/1932 SLP250 T00391078=\\n',\n",
       " 'KATL,2015,01,07,20,52,METAR KATL 072052Z 33023G29KT 10SM FEW055 BKN075 BKN085 BKN170 01/M10 A3030 RMK AO2 PK WND 33029/2050 SLP269 T00111100 53020=\\n',\n",
       " 'KATL,2015,01,07,21,52,METAR KATL 072152Z 34024G29KT 10SM FEW050 BKN085 BKN250 00/M11 A3034 RMK AO2 PK WND 32034/2058 SLP284 T00001111=\\n',\n",
       " 'KATL,2015,01,07,22,52,METAR KATL 072252Z 33027G33KT 10SM FEW045 SCT090 BKN110 M01/M13 A3038 RMK AO2 PK WND 34035/2239 SLP299 T10111133=\\n',\n",
       " 'KATL,2015,01,07,23,52,METAR KATL 072352Z 33023G29KT 10SM FEW045 BKN130 M02/M14 A3043 RMK AO2 PK WND 33037/2301 SLP315 T10221139 10044 21022 53042=\\n',\n",
       " 'KATL,2015,01,08,00,52,METAR KATL 080052Z 35022G30KT 10SM FEW130 M04/M15 A3049 RMK AO2 PK WND 33032/0026 SLP337 T10441150=\\n',\n",
       " 'KATL,2015,01,08,01,52,METAR KATL 080152Z 33023G29KT 10SM CLR M07/M17 A3054 RMK AO2 PK WND 33036/0056 SLP354 T10671172=\\n',\n",
       " 'KATL,2015,01,08,02,52,METAR KATL 080252Z 35018G28KT 10SM CLR M07/M18 A3055 RMK AO2 PK WND 34029/0221 SLP359 T10721183 51041=\\n',\n",
       " 'KATL,2015,01,08,03,52,METAR KATL 080352Z 34016G25KT 10SM CLR M08/M19 A3056 RMK AO2 PK WND 36026/0332 SLP364 T10831189=\\n',\n",
       " 'KATL,2015,01,08,04,52,METAR KATL 080452Z 34015G22KT 10SM CLR M09/M18 A3057 RMK AO2 SLP366 T10891183 400501089=\\n',\n",
       " 'KATL,2015,01,08,05,52,METAR KATL 080552Z 33012G18KT 10SM CLR M09/M18 A3058 RMK AO2 SLP369 T10941183 11022 21094 51010=\\n',\n",
       " 'KATL,2015,01,08,06,52,METAR KATL 080652Z 35014G21KT 10SM CLR M10/M18 A3058 RMK AO2 SLP368 T11001183=\\n',\n",
       " 'KATL,2015,01,08,07,52,METAR KATL 080752Z 35015KT 10SM CLR M10/M18 A3058 RMK AO2 SLP369 T11001183=\\n',\n",
       " 'KATL,2015,01,08,08,52,METAR KATL 080852Z 36011KT 10SM CLR M11/M18 A3058 RMK AO2 SLP369 T11061183 56001=\\n',\n",
       " 'KATL,2015,01,08,09,52,METAR KATL 080952Z 34008KT 10SM CLR M11/M18 A3056 RMK AO2 SLP365 T11111183=\\n',\n",
       " 'KATL,2015,01,08,10,52,METAR KATL 081052Z 33008KT 10SM CLR M11/M18 A3057 RMK AO2 SLP367 T11111183=\\n',\n",
       " 'KATL,2015,01,08,11,52,METAR KATL 081152Z 35007KT 10SM CLR M12/M18 A3057 RMK AO2 SLP367 T11171178 11094 21117 56003=\\n',\n",
       " 'KATL,2015,01,08,12,52,METAR KATL 081252Z 03008KT 10SM FEW250 M11/M18 A3055 RMK AO2 SLP362 T11111183=\\n',\n",
       " 'KATL,2015,01,08,13,52,METAR KATL 081352Z 04007KT 10SM FEW250 M10/M18 A3056 RMK AO2 SLP367 T11001178 $=\\n',\n",
       " 'KATL,2015,01,08,14,52,METAR KATL 081452Z 07006KT 10SM FEW250 M08/M18 A3057 RMK AO2 SLP370 T10781183 53001=\\n',\n",
       " 'KATL,2015,01,08,15,52,METAR KATL 081552Z 11007KT 10SM FEW250 M07/M18 A3056 RMK AO2 SLP368 T10671183=\\n',\n",
       " 'KATL,2015,01,08,16,52,METAR KATL 081652Z 08006KT 10SM FEW250 M04/M19 A3052 RMK AO2 SLP351 T10441189=\\n',\n",
       " 'KATL,2015,01,08,17,52,METAR KATL 081752Z 13006KT 10SM FEW250 M03/M19 A3048 RMK AO2 SLP337 T10281189 11022 21117 58030=\\n',\n",
       " 'KATL,2015,01,08,18,52,METAR KATL 081852Z 15007KT 10SM FEW250 M02/M19 A3044 RMK AO2 SLP324 T10171189=\\n',\n",
       " 'KATL,2015,01,08,19,52,METAR KATL 081952Z VRB04KT 10SM FEW250 M01/M18 A3046 RMK AO2 SLP331 T10061183=\\n',\n",
       " 'KATL,2015,01,08,20,52,METAR KATL 082052Z VRB03KT 10SM FEW250 00/M18 A3044 RMK AO2 SLP324 T00001183 56012=\\n',\n",
       " 'KATL,2015,01,08,21,52,METAR KATL 082152Z 16003KT 10SM FEW250 00/M19 A3043 RMK AO2 SLP321 T00001189=\\n',\n",
       " 'KATL,2015,01,08,22,52,METAR KATL 082252Z 13004KT 10SM CLR M01/M18 A3041 RMK AO2 SLP313 T10061178=\\n',\n",
       " 'KATL,2015,01,08,23,52,METAR KATL 082352Z 12003KT 10SM CLR M01/M17 A3040 RMK AO2 SLP312 T10111167 10006 21028 56013=\\n',\n",
       " 'KATL,2015,01,09,00,52,METAR KATL 090052Z 15005KT 10SM CLR M02/M15 A3040 RMK AO2 SLP311 T10221150=\\n',\n",
       " 'KATL,2015,01,09,01,52,METAR KATL 090152Z 17006KT 10SM CLR M03/M16 A3039 RMK AO2 SLP307 T10331156=\\n',\n",
       " 'KATL,2015,01,09,02,52,METAR KATL 090252Z 18005KT 10SM SCT200 M03/M17 A3037 RMK AO2 SLP300 T10281167 58010=\\n',\n",
       " 'KATL,2015,01,09,03,52,METAR KATL 090352Z 18003KT 10SM SCT200 M04/M16 A3035 RMK AO2 SLP293 T10391161=\\n',\n",
       " 'KATL,2015,01,09,04,52,METAR KATL 090452Z 00000KT 10SM FEW200 M04/M16 A3034 RMK AO2 SLP290 T10391156 400061117=\\n',\n",
       " 'KATL,2015,01,09,05,52,METAR KATL 090552Z 15005KT 10SM FEW200 M05/M14 A3031 RMK AO2 SLP278 T10501139 11011 21050 58021=\\n',\n",
       " 'KATL,2015,01,09,06,52,METAR KATL 090652Z 30003KT 10SM FEW200 M04/M16 A3034 RMK AO2 SLP287 T10391156=\\n',\n",
       " 'KATL,2015,01,09,07,52,METAR KATL 090752Z 00000KT 10SM FEW200 M05/M15 A3034 RMK AO2 SLP289 T10501150=\\n',\n",
       " 'KATL,2015,01,09,08,52,METAR KATL 090852Z 00000KT 10SM FEW200 M05/M14 A3032 RMK AO2 SLP278 T10501144 50002=\\n',\n",
       " 'KATL,2015,01,09,09,52,METAR KATL 090952Z 27003KT 10SM FEW200 M06/M14 A3031 RMK AO2 SLP276 T10561139=\\n',\n",
       " 'KATL,2015,01,09,10,52,METAR KATL 091052Z 27006KT 10SM FEW250 M05/M14 A3030 RMK AO2 SLP273 T10501144=\\n',\n",
       " 'KATL,2015,01,09,11,52,METAR KATL 091152Z 27005KT 10SM FEW250 M06/M14 A3030 RMK AO2 SLP275 T10561139 11039 21056 55004 $=\\n',\n",
       " 'KATL,2015,01,09,12,52,METAR KATL 091252Z 27005KT 10SM FEW250 M06/M14 A3031 RMK AO2 SLP277 T10561139=\\n',\n",
       " 'KATL,2015,01,09,13,52,METAR KATL 091352Z 27008KT 10SM FEW250 M03/M13 A3032 RMK AO2 SLP282 T10281133=\\n',\n",
       " 'KATL,2015,01,09,14,52,METAR KATL 091452Z 29009KT 10SM FEW250 M01/M14 A3033 RMK AO2 SLP284 T10061139 53010=\\n',\n",
       " 'KATL,2015,01,09,15,52,METAR KATL 091552Z 32012G16KT 10SM FEW250 01/M14 A3034 RMK AO2 SLP287 T00111144=\\n',\n",
       " 'KATL,2015,01,09,16,52,METAR KATL 091652Z 32011KT 10SM FEW180 BKN250 03/M14 A3032 RMK AO2 SLP279 T00281144=\\n',\n",
       " 'KATL,2015,01,09,17,52,METAR KATL 091752Z 32010G17KT 10SM FEW150 BKN230 BKN250 04/M13 A3029 RMK AO2 SLP267 T00391133 10044 21056 58016=\\n',\n",
       " 'KATL,2015,01,09,18,52,METAR KATL 091852Z 33011KT 10SM SCT160 BKN230 05/M12 A3027 RMK AO2 SLP260 T00501117=\\n',\n",
       " 'KATL,2015,01,09,19,52,METAR KATL 091952Z 31008KT 10SM SCT150 BKN200 OVC250 04/M11 A3027 RMK AO2 SLP261 T00441106=\\n',\n",
       " 'KATL,2015,01,09,20,52,METAR KATL 092052Z 30011KT 10SM SCT150 BKN200 OVC250 04/M10 A3027 RMK AO2 SLP261 T00441100 56005=\\n',\n",
       " 'KATL,2015,01,09,21,52,METAR KATL 092152Z 30010KT 10SM FEW150 BKN180 BKN250 04/M09 A3029 RMK AO2 SLP268 T00391094=\\n',\n",
       " 'KATL,2015,01,09,22,52,METAR KATL 092252Z 32009KT 10SM FEW150 BKN200 BKN250 02/M11 A3031 RMK AO2 SLP275 T00221106=\\n',\n",
       " 'KATL,2015,01,09,23,52,METAR KATL 092352Z 30007KT 10SM BKN200 BKN250 02/M10 A3034 RMK AO2 SLP285 T00171100 10050 20017 53021=\\n',\n",
       " 'KATL,2015,01,10,00,52,METAR KATL 100052Z 29007KT 10SM BKN200 BKN250 01/M10 A3034 RMK AO2 SLP288 T00111100=\\n',\n",
       " 'KATL,2015,01,10,01,52,METAR KATL 100152Z 31007KT 10SM SCT200 BKN250 01/M10 A3035 RMK AO2 SLP288 T00061100=\\n',\n",
       " 'KATL,2015,01,10,02,52,METAR KATL 100252Z 31007KT 10SM SCT200 BKN250 00/M10 A3035 RMK AO2 SLP289 T00001100 51006=\\n',\n",
       " 'KATL,2015,01,10,03,52,METAR KATL 100352Z 33007KT 10SM FEW200 SCT250 M01/M11 A3036 RMK AO2 SLP291 T10061106=\\n',\n",
       " 'KATL,2015,01,10,04,52,METAR KATL 100452Z 33010KT 10SM FEW200 SCT250 M01/M12 A3037 RMK AO2 SLP292 T10061117 400501056=\\n',\n",
       " 'KATL,2015,01,10,05,52,METAR KATL 100552Z 34013G21KT 10SM FEW250 M01/M12 A3038 RMK AO2 SLP297 T10111122 10017 21011 53009=\\n',\n",
       " 'KATL,2015,01,10,06,52,METAR KATL 100652Z 34010G19KT 10SM CLR M02/M13 A3039 RMK AO2 SLP301 T10171128=\\n',\n",
       " 'KATL,2015,01,10,07,52,METAR KATL 100752Z 33012KT 10SM CLR M03/M14 A3040 RMK AO2 SLP304 T10281139=\\n',\n",
       " 'KATL,2015,01,10,08,52,METAR KATL 100852Z 34012KT 10SM CLR M03/M15 A3041 RMK AO2 SLP307 T10331150 51008=\\n',\n",
       " 'KATL,2015,01,10,09,52,METAR KATL 100952Z 34011KT 10SM CLR M04/M16 A3042 RMK AO2 SLP312 T10391156=\\n',\n",
       " 'KATL,2015,01,10,10,52,METAR KATL 101052Z 34009G18KT 10SM CLR M05/M16 A3043 RMK AO2 SLP318 T10501161=\\n',\n",
       " 'KATL,2015,01,10,11,52,METAR KATL 101152Z 34011KT 10SM CLR M06/M16 A3044 RMK AO2 SLP321 T10561156 11011 21056 51012=\\n',\n",
       " 'KATL,2015,01,10,12,52,METAR KATL 101252Z 34009KT 10SM CLR M06/M16 A3045 RMK AO2 SLP324 T10611156=\\n',\n",
       " 'KATL,2015,01,10,13,52,METAR KATL 101352Z 34006KT 10SM FEW250 M05/M15 A3048 RMK AO2 SLP333 T10501150=\\n',\n",
       " 'KATL,2015,01,10,14,52,METAR KATL 101452Z 01004KT 10SM FEW250 M02/M14 A3051 RMK AO2 SLP345 T10221144 53024=\\n',\n",
       " 'KATL,2015,01,10,15,52,METAR KATL 101552Z VRB03KT 10SM FEW250 01/M14 A3052 RMK AO2 SLP346 T00111144=\\n',\n",
       " 'KATL,2015,01,10,16,52,METAR KATL 101652Z 13003KT 10SM FEW250 03/M14 A3049 RMK AO2 SLP336 T00281144=\\n',\n",
       " 'KATL,2015,01,10,17,52,METAR KATL 101752Z 00000KT 10SM SCT250 04/M14 A3047 RMK AO2 SLP327 T00441139 10050 21061 58015=\\n',\n",
       " 'KATL,2015,01,10,18,52,METAR KATL 101852Z 00000KT 10SM BKN250 06/M14 A3045 RMK AO2 SLP319 T00561139=\\n',\n",
       " 'KATL,2015,01,10,19,52,METAR KATL 101952Z 00000KT 10SM BKN250 07/M13 A3044 RMK AO2 SLP315 T00671133=\\n',\n",
       " 'KATL,2015,01,10,20,52,METAR KATL 102052Z 15003KT 10SM BKN250 07/M13 A3043 RMK AO2 SLP314 T00721133 56011=\\n',\n",
       " 'KATL,2015,01,10,21,52,METAR KATL 102152Z 10004KT 10SM SCT250 08/M13 A3045 RMK AO2 SLP320 T00781133=\\n',\n",
       " 'KATL,2015,01,10,22,52,METAR KATL 102252Z 11004KT 10SM FEW200 SCT250 07/M13 A3045 RMK AO2 SLP322 T00671128=\\n',\n",
       " 'KATL,2015,01,10,23,52,METAR KATL 102352Z 11004KT 10SM FEW200 SCT250 05/M12 A3047 RMK AO2 SLP329 T00501122 10083 20039 53012=\\n',\n",
       " 'KATL,2015,01,11,00,52,METAR KATL 110052Z 09005KT 10SM FEW200 SCT250 03/M12 A3048 RMK AO2 SLP332 T00331117=\\n',\n",
       " 'KATL,2015,01,11,01,52,METAR KATL 110152Z 10005KT 10SM FEW200 SCT250 03/M12 A3049 RMK AO2 SLP335 T00281117=\\n',\n",
       " 'KATL,2015,01,11,02,52,METAR KATL 110252Z 08006KT 10SM FEW200 SCT250 01/M11 A3050 RMK AO2 SLP340 T00111106 53010=\\n',\n",
       " 'KATL,2015,01,11,03,52,METAR KATL 110352Z 09006KT 10SM FEW200 SCT250 01/M11 A3050 RMK AO2 SLP338 T00061106=\\n',\n",
       " 'KATL,2015,01,11,04,52,METAR KATL 110452Z 09006KT 10SM FEW200 SCT250 00/M10 A3049 RMK AO2 SLP334 T00001100 400831061=\\n',\n",
       " 'KATL,2015,01,11,05,52,METAR KATL 110552Z 09006KT 10SM SCT250 M01/M10 A3050 RMK AO2 SLP336 T10061100 10050 21006 55001=\\n',\n",
       " 'KATL,2015,01,11,06,52,METAR KATL 110652Z 08008KT 10SM SCT250 01/M10 A3050 RMK AO2 SLP336 T00061100=\\n',\n",
       " 'KATL,2015,01,11,07,52,METAR KATL 110752Z 10005KT 10SM BKN250 M01/M11 A3051 RMK AO2 SLP338 T10061106=\\n',\n",
       " 'KATL,2015,01,11,08,52,METAR KATL 110852Z 07009KT 10SM BKN250 M01/M10 A3051 RMK AO2 SLP338 T10061100 51003=\\n',\n",
       " 'KATL,2015,01,11,09,52,METAR KATL 110952Z 08008KT 10SM FEW028 SCT250 M01/M10 A3050 RMK AO2 SLP336 T10111100=\\n',\n",
       " 'KATL,2015,01,11,10,52,METAR KATL 111052Z 09007KT 10SM FEW028 SCT250 M02/M10 A3050 RMK AO2 SLP337 T10171100=\\n',\n",
       " 'KATL,2015,01,11,11,49,SPECI KATL 111149Z 08008KT 10SM BKN020 00/M10 A3050 RMK AO2=\\n',\n",
       " 'KATL,2015,01,11,11,52,METAR KATL 111152Z 07008KT 10SM BKN020 00/M10 A3050 RMK AO2 SLP336 T00001100 10006 21017 56004=\\n',\n",
       " 'KATL,2015,01,11,12,47,SPECI KATL 111247Z 09008KT 10SM BKN014 BKN021 01/M10 A3051 RMK AO2=\\n',\n",
       " 'KATL,2015,01,11,12,52,METAR KATL 111252Z 08006KT 10SM BKN014 OVC021 01/M10 A3051 RMK AO2 SLP339 T00061100=\\n',\n",
       " 'KATL,2015,01,11,13,52,METAR KATL 111352Z 08009KT 10SM OVC014 02/M09 A3051 RMK AO2 SLP339 T00171094=\\n',\n",
       " 'KATL,2015,01,11,14,52,METAR KATL 111452Z 10008KT 10SM OVC015 03/M09 A3052 RMK AO2 SLP343 T00331094 52007=\\n',\n",
       " 'KATL,2015,01,11,15,52,METAR KATL 111552Z 08012KT 020V090 10SM OVC015 05/M09 A3052 RMK AO2 SLP344 T00501089=\\n',\n",
       " 'KATL,2015,01,11,16,52,METAR KATL 111652Z 09010KT 10SM OVC015 06/M07 A3049 RMK AO2 SLP334 T00561072=\\n',\n",
       " 'KATL,2015,01,11,17,20,SPECI KATL 111720Z 08013KT 10SM OVC014 06/M06 A3047 RMK AO2=\\n',\n",
       " 'KATL,2015,01,11,17,52,METAR KATL 111752Z 08014KT 10SM OVC014 06/M06 A3045 RMK AO2 SLP319 T00611061 10061 20000 58023=\\n',\n",
       " 'KATL,2015,01,11,18,52,METAR KATL 111852Z 08011KT 10SM OVC014 06/M05 A3043 RMK AO2 SLP312 T00611050=\\n',\n",
       " 'KATL,2015,01,11,19,15,SPECI KATL 111915Z 09011KT 10SM OVC016 07/M04 A3042 RMK AO2=\\n',\n",
       " 'KATL,2015,01,11,19,52,METAR KATL 111952Z 07010KT 10SM OVC016 07/M04 A3041 RMK AO2 SLP306 T00721044=\\n',\n",
       " 'KATL,2015,01,11,20,52,METAR KATL 112052Z 09009KT 10SM OVC016 07/M04 A3041 RMK AO2 SLP305 T00671039 56013=\\n',\n",
       " 'KATL,2015,01,11,21,52,METAR KATL 112152Z 10010KT 10SM OVC015 07/M02 A3041 RMK AO2 SLP305 T00671022=\\n',\n",
       " 'KATL,2015,01,11,22,35,SPECI KATL 112235Z 09011KT 10SM OVC013 06/M02 A3041 RMK AO2=\\n',\n",
       " 'KATL,2015,01,11,22,52,METAR KATL 112252Z 08011KT 10SM -RA OVC013 06/M02 A3042 RMK AO2 RAB47 SLP308 PCPN VRY LGT P0000 T00561017=\\n',\n",
       " 'KATL,2015,01,11,23,52,METAR KATL 112352Z 09012KT 10SM -RA OVC011 05/M01 A3041 RMK AO2 RAE29B49 SLP308 P0000 60000 T00501006 10072 20050 53002=\\n',\n",
       " 'KATL,2015,01,12,00,52,METAR KATL 120052Z 09011KT 8SM -RA OVC010 04/00 A3043 RMK AO2 SLP313 P0000 T00390000=\\n',\n",
       " 'KATL,2015,01,12,01,52,METAR KATL 120152Z 08008KT 4SM RA BR OVC009 03/02 A3044 RMK AO2 SLP317 P0007 T00330017=\\n',\n",
       " 'KATL,2015,01,12,02,52,METAR KATL 120252Z 10007KT 6SM -RA BR OVC006 03/02 A3042 RMK AO2 RAE25B42DZB25E42 SLP310 CIG 005V007 P0001 60008 T00330017 50003=\\n',\n",
       " 'KATL,2015,01,12,03,10,SPECI KATL 120310Z 10008KT 2SM -RA BR OVC004 03/02 A3042 RMK AO2 SFC VIS 4 RAE0254B10DZB0255E10 P0000=\\n',\n",
       " 'KATL,2015,01,12,03,28,SPECI KATL 120328Z 08006KT 1SM -RA BR OVC004 03/02 A3041 RMK AO2 SFC VIS 3 RAE0254B10DZB0255E10 TWRINC P0000=\\n',\n",
       " 'KATL,2015,01,12,03,52,METAR KATL 120352Z 08008KT 1SM -DZ BR OVC003 03/02 A3040 RMK AO2 SFC VIS 2 1/2 RAE0254B10E44DZB0255E10B44 SLP301 TWRINC P0000 T00330022=\\n',\n",
       " 'KATL,2015,01,12,04,18,SPECI KATL 120418Z 09008KT 1/2SM -DZ BR OVC002 03/02 A3038 RMK AO2 SFC VIS 1 1/4 TWRINC P0000=\\n',\n",
       " 'KATL,2015,01,12,04,52,METAR KATL 120452Z 08007KT 1/2SM -DZ BR OVC002 03/02 A3037 RMK AO2 SFC VIS 1 1/4 SLP290 TWRINC P0000 T00330022 400721017=\\n',\n",
       " 'KATL,2015,01,12,05,52,METAR KATL 120552Z 08008KT 1/2SM R09R/3500V4500FT -DZ FG OVC002 04/03 A3034 RMK AO2 SLP281 RAB19E37DZE19B37 PCPN VRY LGT P0000 60008 T00390028 10050 20033 58026=\\n',\n",
       " 'KATL,2015,01,12,06,52,METAR KATL 120652Z 08009KT 1/2SM R09R/4000V5000FT -DZ BR OVC002 04/03 A3033 RMK AO2 SFC VIS 3/4 DZE26B48RAB26E48 SLP275 P0001 T00390028=\\n',\n",
       " 'KATL,2015,01,12,07,52,METAR KATL 120752Z 09008KT 1/2SM R09R/2600V3000FT -DZ FG OVC002 04/03 A3031 RMK AO2 SLP267 PCPN VRY LGT P0000 T00390033=\\n',\n",
       " 'KATL,2015,01,12,08,25,SPECI KATL 120825Z 08006KT 1/4SM R09R/2000V2200FT -DZ FG OVC002 04/03 A3030 RMK AO2 TWR VIS 1/2 P0000=\\n',\n",
       " 'KATL,2015,01,12,08,52,METAR KATL 120852Z 08006KT 1/4SM R09R/2000V2200FT -DZ FG VV002 04/03 A3030 RMK AO2 TWR VIS 1/2 SLP265 PCPN VRY LGT P0000 60001 T00390033 56015=\\n',\n",
       " 'KATL,2015,01,12,09,06,SPECI KATL 120906Z 08008KT 1/4SM R09R/2200V2400FT -DZ FG VV002 04/03 A3030 RMK AO2 TWR VIS 1/2 PCPN VRY LGT P0000=\\n',\n",
       " 'KATL,2015,01,12,09,52,METAR KATL 120952Z 08006KT 1/4SM R09R/2800V3500FT -DZ FG VV002 04/03 A3028 RMK AO2 TWR VIS 1/2 SLP260 PCPN VRY LGT P0000 T00390033=\\n',\n",
       " 'KATL,2015,01,12,10,26,SPECI KATL 121026Z 09008KT 1/2SM R09R/3000V4000FT -DZ FG OVC002 04/03 A3028 RMK AO2 PCPN VRY LGT P0000=\\n',\n",
       " 'KATL,2015,01,12,10,52,METAR KATL 121052Z 09007KT 1/2SM R09R/3500V4000FT -DZ FG VV002 04/03 A3028 RMK AO2 SLP259 RAB23E31DZE23B31 PCPN VRY LGT P0001 T00390033=\\n',\n",
       " 'KATL,2015,01,12,11,52,METAR KATL 121152Z 08006KT 1/2SM R09R/4000VP6000FT -DZ FG VV002 04/04 A3026 RMK AO2 SLP255 PCPN VRY LGT P0000 60002 70010 T00440039 10044 20033 56011=\\n',\n",
       " 'KATL,2015,01,12,12,52,METAR KATL 121252Z 09006KT 1/2SM R09R/2200V3000FT FG OVC002 05/04 A3026 RMK AO2 DZE51 SLP253 P0000 T00500044=\\n',\n",
       " 'KATL,2015,01,12,13,12,SPECI KATL 121312Z 10003KT 1/4SM R09R/2400V3000FT FG VV002 05/04 A3027 RMK AO2 TWR VIS 1/2=\\n',\n",
       " 'KATL,2015,01,12,13,39,SPECI KATL 121339Z 10006KT 1/4SM R09R/1800V2200FT FG VV002 05/04 A3026 RMK AO2 TWR VIS 1/2=\\n',\n",
       " 'KATL,2015,01,12,13,52,METAR KATL 121352Z 09008KT 1/4SM R09R/1800V2200FT FG VV002 05/04 A3026 RMK AO2 TWR VIS 1/2 SLP253 T00500044=\\n',\n",
       " 'KATL,2015,01,12,14,06,SPECI KATL 121406Z 09005KT 1/4SM R09R/1800V2800FT FG VV002 06/04 A3026 RMK AO2 TWR VIS 1/2=\\n',\n",
       " 'KATL,2015,01,12,14,30,SPECI KATL 121430Z 08005KT 1/2SM R09R/2600V3500FT FG VV003 06/05 A3027 RMK AO2=\\n',\n",
       " 'KATL,2015,01,12,14,47,SPECI KATL 121447Z 11005KT 1/4SM R09R/2000V2800FT FG VV003 06/05 A3028 RMK AO2 TWR VIS 1/2=\\n',\n",
       " 'KATL,2015,01,12,14,52,METAR KATL 121452Z 11004KT 1/4SM R09R/1800V2800FT FG VV003 06/05 A3028 RMK AO2 TWR VIS 1/2 SLP259 60000 T00560050 50006=\\n',\n",
       " 'KATL,2015,01,12,15,12,SPECI KATL 121512Z 11004KT 1/4SM R09R/1800V2200FT FG VV003 06/06 A3027 RMK AO2 TWR VIS 1/2=\\n',\n",
       " 'KATL,2015,01,12,15,52,METAR KATL 121552Z 09006KT 1/4SM R09R/1800V2200FT FG VV003 07/06 A3027 RMK AO2 TWR VIS 1/2 SLP256 T00670056=\\n',\n",
       " 'KATL,2015,01,12,16,01,SPECI KATL 121601Z 09005KT 1/4SM R09R/1800V2400FT FG VV003 07/06 A3026 RMK AO2 TWR VIS 1/2=\\n',\n",
       " 'KATL,2015,01,12,16,52,METAR KATL 121652Z 08005KT 1/4SM R09R/1600V2600FT FG VV003 07/07 A3023 RMK AO2 TWR VIS 1/2 SLP242 T00720067=\\n',\n",
       " 'KATL,2015,01,12,17,05,SPECI KATL 121705Z 10004KT 1/4SM R09R/1600V2000FT FG VV003 07/07 A3023 RMK AO2 TWR VIS 1/2=\\n',\n",
       " 'KATL,2015,01,12,17,29,SPECI KATL 121729Z 11003KT 1/4SM R09R/1800V3000FT FG VV003 07/07 A3022 RMK AO2 TWR VIS 1/2=\\n',\n",
       " 'KATL,2015,01,12,17,52,METAR KATL 121752Z 11003KT 1/2SM R09R/2200V3500FT FG VV003 07/07 A3022 RMK AO2 SLP238 60000 T00720067 10078 20044 58020=\\n',\n",
       " 'KATL,2015,01,12,18,04,SPECI KATL 121804Z 13003KT 1/4SM R09R/2600V3500FT FG VV003 07/07 A3021 RMK AO2 TWR VIS 1/2=\\n',\n",
       " 'KATL,2015,01,12,18,39,SPECI KATL 121839Z 00000KT 1/4SM R09R/1400V2000FT FG VV003 07/07 A3019 RMK AO2 TWR VIS 1/2=\\n',\n",
       " 'KATL,2015,01,12,18,52,METAR KATL 121852Z 10003KT 1/4SM R09R/1400V1800FT FG VV003 08/07 A3018 RMK AO2 TWR VIS 1/2 SLP224 T00780067=\\n',\n",
       " 'KATL,2015,01,12,19,52,METAR KATL 121952Z 12007KT 1/4SM R09R/1600V2000FT FG VV003 08/07 A3015 RMK AO2 TWR VIS 1/2 SLP214 T00830072=\\n',\n",
       " 'KATL,2015,01,12,20,52,METAR KATL 122052Z 12004KT 1/4SM R09R/1200V1400FT FG VV003 08/08 A3017 RMK AO2 TWR VIS 1/2 SLP220 T00830078 55017=\\n',\n",
       " 'KATL,2015,01,12,21,52,METAR KATL 122152Z 10003KT 1/4SM R09R/1400V1600FT FG VV003 08/08 A3016 RMK AO2 TWR VIS 1/2 SLP219 TWRINC T00830078=\\n',\n",
       " 'KATL,2015,01,12,22,52,METAR KATL 122252Z 12003KT 1/2SM R09R/2000V2600FT FG VV003 08/08 A3017 RMK AO2 SLP221 T00830078=\\n',\n",
       " 'KATL,2015,01,12,23,14,SPECI KATL 122314Z 00000KT 1/2SM R09R/2400V6000FT BR OVC003 08/08 A3017 RMK AO2 SFC VIS 1=\\n',\n",
       " 'KATL,2015,01,12,23,52,METAR KATL 122352Z 00000KT 1/2SM BR OVC004 08/08 A3016 RMK AO2 SFC VIS 1 1/4 SLP218 CIG 002V006 T00830078 10083 20072 58001=\\n',\n",
       " 'KATL,2015,01,13,00,52,METAR KATL 130052Z 00000KT 1/2SM BR OVC003 08/08 A3017 RMK AO2 SFC VIS 1 3/4 RAB02E23 SLP222 CIG 002V005 P0000 T00830078=\\n',\n",
       " 'KATL,2015,01,13,01,15,SPECI KATL 130115Z 00000KT 1 1/2SM BR OVC004 08/08 A3017 RMK AO2 SFC VIS 2 1/2 CIG 002V006=\\n',\n",
       " 'KATL,2015,01,13,01,52,METAR KATL 130152Z 00000KT 2SM BR BKN005 OVC020 08/08 A3018 RMK AO2 SFC VIS 4 SLP225 CIG 002V007 T00830078=\\n',\n",
       " 'KATL,2015,01,13,02,20,SPECI KATL 130220Z 00000KT 3SM BR BKN005 OVC040 08/08 A3019 RMK AO2 CIG 002V007=\\n',\n",
       " 'KATL,2015,01,13,02,52,METAR KATL 130252Z 31005KT 3SM BR FEW003 BKN009 OVC035 09/08 A3019 RMK AO2 SLP228 60000 T00890078 53010=\\n',\n",
       " 'KATL,2015,01,13,03,45,SPECI KATL 130345Z 32006KT 5SM BR FEW003 SCT030 OVC050 09/08 A3019 RMK AO2=\\n',\n",
       " 'KATL,2015,01,13,03,52,METAR KATL 130352Z 31007KT 6SM BR FEW003 BKN050 OVC200 09/08 A3019 RMK AO2 SLP226 T00890078=\\n',\n",
       " 'KATL,2015,01,13,04,04,SPECI KATL 130404Z 31005KT 4SM BR BKN005 BKN050 OVC200 08/08 A3019 RMK AO2 CIG 003V007=\\n',\n",
       " 'KATL,2015,01,13,04,25,SPECI KATL 130425Z 30004KT 1 1/2SM BR BKN004 OVC050 08/08 A3018 RMK AO2 SFC VIS 4 CIG 002V006=\\n',\n",
       " 'KATL,2015,01,13,04,52,METAR KATL 130452Z 28005KT 1 1/2SM BR OVC004 09/08 A3018 RMK AO2 SFC VIS 5 SLP223 CIG 002V006 T00890078 400890033=\\n',\n",
       " 'KATL,2015,01,13,05,52,METAR KATL 130552Z 32007KT 1 1/2SM R09R/5000V6000FT BR OVC003 09/08 A3016 RMK AO2 SLP217 CIG 002V004 60000 T00890078 10089 20083 58010=\\n',\n",
       " 'KATL,2015,01,13,06,52,METAR KATL 130652Z 33010KT 1 1/2SM BR OVC003 09/08 A3014 RMK AO2 SFC VIS 3 SLP211 T00940083=\\n',\n",
       " 'KATL,2015,01,13,07,52,METAR KATL 130752Z 34005KT 1 1/2SM BR OVC003 09/08 A3017 RMK AO2 SFC VIS 5 SLP218 T00890078=\\n',\n",
       " 'KATL,2015,01,13,08,52,METAR KATL 130852Z 35006KT 1 1/2SM BR OVC003 08/07 A3017 RMK AO2 SFC VIS 2 SLP221 T00830072 53004=\\n',\n",
       " 'KATL,2015,01,13,09,38,SPECI KATL 130938Z 31005KT 3/4SM R09R/4500V6000FT BR VV002 08/07 A3019 RMK AO2 TWR VIS 1 1/2=\\n',\n",
       " 'KATL,2015,01,13,09,52,METAR KATL 130952Z 30007KT 3/4SM R09R/2800V3500FT BR VV002 08/07 A3019 RMK AO2 SLP226 T00780072=\\n',\n",
       " 'KATL,2015,01,13,10,52,METAR KATL 131052Z 31009KT 1/2SM R09R/2400V5500FT FG VV002 07/07 A3019 RMK AO2 TWR VIS 3/4 SLP228 DZB0955E28 P0000 T00720067=\\n',\n",
       " 'KATL,2015,01,13,11,52,METAR KATL 131152Z 33007KT 3/4SM R09R/5500VP6000FT BR OVC002 07/06 A3021 RMK AO2 SFC VIS 1 1/4 SLP235 60000 T00670061 10094 20067 53013=\\n',\n",
       " 'KATL,2015,01,13,12,52,METAR KATL 131252Z 32008KT 3/4SM R09R/5500VP6000FT BR OVC002 06/06 A3023 RMK AO2 SFC VIS 1 SLP240 T00610056=\\n',\n",
       " 'KATL,2015,01,13,13,52,METAR KATL 131352Z 35009KT 3/4SM R09R/2600VP6000FT BR OVC002 06/05 A3025 RMK AO2 SLP248 T00610050=\\n',\n",
       " 'KATL,2015,01,13,14,52,METAR KATL 131452Z 34008KT 3/4SM R09R/5000VP6000FT BR OVC003 06/05 A3026 RMK AO2 SFC VIS 1 1/4 SLP252 T00560050 51017=\\n',\n",
       " 'KATL,2015,01,13,15,30,SPECI KATL 131530Z 33006KT 3/4SM BR BCFG OVC004 06/05 A3028 RMK AO2 SFC VIS 3=\\n',\n",
       " 'KATL,2015,01,13,15,52,METAR KATL 131552Z 33007KT 3/4SM R09R/5500VP6000FT -DZ BR OVC004 06/05 A3028 RMK AO2 SFC VIS 1 1/2 DZB50 SLP259 P0000 T00610050=\\n',\n",
       " 'KATL,2015,01,13,16,52,METAR KATL 131652Z 35006KT 3/4SM R09R/5000VP6000FT -DZ BR OVC004 07/06 A3026 RMK AO2 SFC VIS 1 SLP252 P0000 T00670056=\\n',\n",
       " 'KATL,2015,01,13,17,52,METAR KATL 131752Z 32005KT 3/4SM R09R/5500VP6000FT -DZ BR OVC004 07/06 A3024 RMK AO2 SFC VIS 1 1/4 SLP245 P0000 60000 T00670056 10067 20056 58007=\\n',\n",
       " 'KATL,2015,01,13,18,52,METAR KATL 131852Z 33005KT 3/4SM R09R/4000V5000FT -DZ BR OVC003 07/06 A3023 RMK AO2 SLP241 P0000 T00670056=\\n',\n",
       " 'KATL,2015,01,13,19,52,METAR KATL 131952Z 30004KT 3/4SM R09R/5000VP6000FT -DZ BR OVC004 07/06 A3023 RMK AO2 SFC VIS 1 1/2 SLP240 P0000 T00720061=\\n',\n",
       " 'KATL,2015,01,13,20,52,METAR KATL 132052Z 34007KT 3/4SM R09R/6000VP6000FT -DZ BR OVC004 07/06 A3023 RMK AO2 SFC VIS 1 1/2 SLP241 P0001 60001 T00720061 56004=\\n',\n",
       " 'KATL,2015,01,13,21,29,SPECI KATL 132129Z 31005KT 1SM -DZ BR OVC005 07/06 A3024 RMK AO2 SFC VIS 2 P0000=\\n',\n",
       " 'KATL,2015,01,13,21,52,METAR KATL 132152Z 34004KT 1SM -DZ BR OVC005 07/06 A3024 RMK AO2 SFC VIS 2 SLP245 P0000 T00670056=\\n',\n",
       " 'KATL,2015,01,13,22,52,METAR KATL 132252Z 08003KT 1SM -DZ BR OVC004 07/06 A3023 RMK AO2 SFC VIS 2 SLP240 CIG 003V006 P0000 T00720061=\\n',\n",
       " 'KATL,2015,01,13,23,52,METAR KATL 132352Z 34005KT 1SM -RA BR OVC004 07/06 A3025 RMK AO2 SFC VIS 1 3/4 DZE48RAB48 SLP249 CIG 002V006 P0001 60002 T00670056 10072 20067 53007=\\n',\n",
       " 'KATL,2015,01,14,00,52,METAR KATL 140052Z 07012G16KT 1 3/4SM -RA BR BKN005 OVC015 07/06 A3026 RMK AO2 SFC VIS 2 SLP253 CIG 003V007 P0004 T00720056=\\n',\n",
       " 'KATL,2015,01,14,01,52,METAR KATL 140152Z 09008KT 1 3/4SM -DZ BR BKN005 OVC015 07/05 A3028 RMK AO2 SFC VIS 2 RAE36DZB36 SLP259 CIG 003V007 P0000 T00670050=\\n',\n",
       " 'KATL,2015,01,14,02,52,METAR KATL 140252Z 06013KT 2 1/2SM -RA BR BKN005 OVC015 06/04 A3028 RMK AO2 DZE03RAB03 SLP258 CIG 003V007 P0001 60005 T00560044 50009=\\n',\n",
       " 'KATL,2015,01,14,03,52,METAR KATL 140352Z 07010KT 2 1/2SM -DZ BR BKN006 OVC015 05/04 A3029 RMK AO2 RAE28DZB28 SLP262 CIG 004V008 P0000 T00500039=\\n',\n",
       " 'KATL,2015,01,14,04,52,METAR KATL 140452Z 06011KT 2 1/2SM -DZ BR BKN006 OVC015 05/03 A3028 RMK AO2 SLP259 CIG 004V008 P0000 T00500033 400940050=\\n',\n",
       " 'KATL,2015,01,14,05,52,METAR KATL 140552Z 08010KT 2 1/2SM -DZ BR BKN006 OVC015 04/03 A3027 RMK AO2 SFC VIS 3 SLP255 CIG 004V008 P0000 60005 T00440033 10078 20044 58003=\\n',\n",
       " 'KATL,2015,01,14,06,52,METAR KATL 140652Z 07009KT 2 1/2SM -DZ BR BKN006 OVC015 04/03 A3026 RMK AO2 SFC VIS 4 SLP253 CIG 004V008 P0000 T00440033=\\n',\n",
       " 'KATL,2015,01,14,07,52,METAR KATL 140752Z 08006KT 2 1/2SM -DZ BR OVC005 04/03 A3027 RMK AO2 SFC VIS 5 SLP254 CIG 004V008 P0000 T00440033=\\n',\n",
       " 'KATL,2015,01,14,08,20,SPECI KATL 140820Z 08009KT 2 1/2SM BR BKN007 OVC011 04/03 A3026 RMK AO2 SFC VIS 6 DZE06 CIG 004V009 P0000=\\n',\n",
       " 'KATL,2015,01,14,08,52,METAR KATL 140852Z 09006KT 2 1/2SM BR OVC006 04/03 A3026 RMK AO2 SFC VIS 6 DZE06 SLP251 CIG 004V008 P0000 60000 T00440028 58004=\\n',\n",
       " 'KATL,2015,01,14,09,46,SPECI KATL 140946Z 07006KT 2 1/2SM -DZ BR OVC004 04/03 A3024 RMK AO2 SFC VIS 4 DZB25 P0000=\\n',\n",
       " 'KATL,2015,01,14,09,52,METAR KATL 140952Z 07005KT 2 1/2SM -DZ BR OVC004 04/03 A3024 RMK AO2 SFC VIS 4 DZB25 SLP245 TWRINC P0000 T00390028=\\n',\n",
       " 'KATL,2015,01,14,10,48,SPECI KATL 141048Z 08007KT 2 1/2SM BR BKN005 OVC010 04/03 A3025 RMK AO2 SFC VIS 6 DZE03 CIG 004V007 P0000=\\n',\n",
       " 'KATL,2015,01,14,10,52,METAR KATL 141052Z 08007KT 2 1/2SM BR BKN005 OVC010 04/03 A3025 RMK AO2 SFC VIS 6 DZE03 SLP247 CIG 004V007 P0000 T00390028=\\n',\n",
       " 'KATL,2015,01,14,11,26,SPECI KATL 141126Z 07005KT 1SM BR BKN004 OVC010 04/03 A3025 RMK AO2 SFC VIS 5 CIG 003V006 TWRINC=\\n',\n",
       " 'KATL,2015,01,14,11,52,METAR KATL 141152Z 05006KT 1SM BR BKN004 OVC008 04/03 A3025 RMK AO2 SFC VIS 5 SLP249 CIG 003V006 TWRINC 60000 70007 T00390028 10044 20039 55001=\\n',\n",
       " 'KATL,2015,01,14,12,04,SPECI KATL 141204Z 06006KT 5SM BR BKN004 OVC010 04/03 A3026 RMK AO2=\\n',\n",
       " 'KATL,2015,01,14,12,52,METAR KATL 141252Z 05009KT 4SM BR BKN005 OVC012 04/02 A3026 RMK AO2 SLP252 T00390022=\\n',\n",
       " 'KATL,2015,01,14,13,50,SPECI KATL 141350Z 02008KT 2SM BR BKN006 OVC012 04/03 A3027 RMK AO2 SFC VIS 3=\\n',\n",
       " 'KATL,2015,01,14,13,52,METAR KATL 141352Z 02007KT 1SM BR BKN006 OVC012 04/03 A3027 RMK AO2 SFC VIS 2 1/2 SLP256 T00440028=\\n',\n",
       " 'KATL,2015,01,14,14,29,SPECI KATL 141429Z 04008KT 2SM -DZ BR OVC007 04/02 A3028 RMK AO2 SFC VIS 4 DZB22 P0000=\\n',\n",
       " 'KATL,2015,01,14,14,52,METAR KATL 141452Z 04005KT 2SM -DZ BR OVC007 04/03 A3029 RMK AO2 SFC VIS 4 DZB22 SLP263 P0000 60000 T00440028 53012=\\n',\n",
       " 'KATL,2015,01,14,15,52,METAR KATL 141552Z COR 35004KT 2SM BR OVC008 05/03 A3028 RMK AO2 SFC VIS 5 DZE49 SLP261 P0000 T00500028=\\n',\n",
       " 'KATL,2015,01,14,16,32,SPECI KATL 141632Z 00000KT 2SM HZ OVC010 06/02 A3027 RMK AO2 SFC VIS 6=\\n',\n",
       " 'KATL,2015,01,14,16,52,METAR KATL 141652Z 36004KT 8SM OVC010 06/03 A3026 RMK AO2 SLP252 T00560028=\\n',\n",
       " 'KATL,2015,01,14,17,52,METAR KATL 141752Z 29005KT 6SM BR OVC010 06/03 A3025 RMK AO2 SLP248 60000 T00560033 10056 20039 58014=\\n',\n",
       " 'KATL,2015,01,14,18,20,SPECI KATL 141820Z 34004KT 6SM BR BKN008 BKN010 OVC013 06/03 A3023 RMK AO2=\\n',\n",
       " 'KATL,2015,01,14,18,52,METAR KATL 141852Z 33004KT 7SM FEW008 BKN010 OVC012 06/03 A3021 RMK AO2 SLP236 T00610033=\\n',\n",
       " 'KATL,2015,01,14,19,52,METAR KATL 141952Z 34006KT 10SM OVC013 07/03 A3019 RMK AO2 SLP228 T00670028=\\n',\n",
       " 'KATL,2015,01,14,20,52,METAR KATL 142052Z 29005KT 10SM OVC013 07/03 A3019 RMK AO2 SLP229 T00670033 55018=\\n',\n",
       " 'KATL,2015,01,14,21,52,METAR KATL 142152Z 31003KT 10SM OVC015 07/03 A3020 RMK AO2 SLP232 T00670028=\\n',\n",
       " 'KATL,2015,01,14,22,52,METAR KATL 142252Z 30005KT 10SM OVC020 07/02 A3020 RMK AO2 SLP232 T00670022=\\n',\n",
       " 'KATL,2015,01,14,23,17,SPECI KATL 142317Z 33008KT 10SM SCT020 BKN250 06/02 A3020 RMK AO2=\\n',\n",
       " 'KATL,2015,01,14,23,52,METAR KATL 142352Z 32006KT 10SM BKN020 BKN250 06/02 A3021 RMK AO2 SLP234 T00560017 10067 20050 51005=\\n',\n",
       " 'KATL,2015,01,15,00,52,METAR KATL 150052Z 31004KT 10SM SCT018 BKN250 04/01 A3020 RMK AO2 SLP234 T00440011=\\n',\n",
       " 'KATL,2015,01,15,01,52,METAR KATL 150152Z 00000KT 10SM BKN250 04/01 A3020 RMK AO2 SLP231 T00440011=\\n',\n",
       " 'KATL,2015,01,15,02,52,METAR KATL 150252Z 00000KT 10SM FEW015 BKN250 03/01 A3019 RMK AO2 SLP232 T00330011 57004=\\n',\n",
       " 'KATL,2015,01,15,03,52,METAR KATL 150352Z 31003KT 10SM BKN250 03/01 A3019 RMK AO2 SLP230 T00330011=\\n',\n",
       " 'KATL,2015,01,15,04,52,METAR KATL 150452Z 27004KT 10SM BKN250 03/01 A3020 RMK AO2 SLP231 T00280006 400670022=\\n',\n",
       " 'KATL,2015,01,15,05,52,METAR KATL 150552Z 30005KT 9SM BKN250 02/00 A3019 RMK AO2 SLP230 T00170000 10056 20017 58002=\\n',\n",
       " 'KATL,2015,01,15,06,52,METAR KATL 150652Z 31003KT 9SM FEW200 BKN250 01/00 A3019 RMK AO2 SLP229 T00110000=\\n',\n",
       " 'KATL,2015,01,15,07,52,METAR KATL 150752Z 31004KT 8SM SCT200 BKN250 01/00 A3018 RMK AO2 SLP228 T00110000=\\n',\n",
       " 'KATL,2015,01,15,08,52,METAR KATL 150852Z 00000KT 9SM SCT200 OVC250 01/M01 A3016 RMK AO2 SLP220 T00111006 58009=\\n',\n",
       " 'KATL,2015,01,15,09,52,METAR KATL 150952Z 00000KT 9SM FEW150 BKN200 OVC250 01/M01 A3014 RMK AO2 SLP215 T00061006=\\n',\n",
       " 'KATL,2015,01,15,10,52,METAR KATL 151052Z 36004KT 9SM FEW150 BKN200 OVC250 01/M01 A3014 RMK AO2 SLP214 T00111006=\\n',\n",
       " 'KATL,2015,01,15,11,35,SPECI KATL 151135Z 02004KT 8SM FEW005 SCT150 OVC200 02/00 A3014 RMK AO2=\\n',\n",
       " 'KATL,2015,01,15,11,46,SPECI KATL 151146Z 06003KT 6SM BR SCT004 BKN007 BKN150 OVC200 02/00 A3014 RMK AO2=\\n',\n",
       " 'KATL,2015,01,15,11,52,METAR KATL 151152Z 00000KT 3SM BR BKN004 BKN007 BKN150 OVC200 02/00 A3015 RMK AO2 SFC VIS 6 SLP215 T00170000 10017 20006 55005=\\n',\n",
       " 'KATL,2015,01,15,11,54,SPECI KATL 151154Z 05003KT 1 1/2SM BR BKN004 BKN007 BKN150 OVC200 02/00 A3015 RMK AO2 SFC VIS 5 TWRINC=\\n',\n",
       " 'KATL,2015,01,15,12,12,SPECI KATL 151212Z 06005KT 1SM BR BKN003 BKN150 OVC200 01/M01 A3014 RMK AO2 SFC VIS 4 CIG 002V005 TWRINC=\\n',\n",
       " 'KATL,2015,01,15,12,20,SPECI KATL 151220Z 06005KT 1/4SM BR BKN003 BKN150 OVC200 01/00 A3014 RMK AO2 SFC VIS 3 CIG 002V005 TWRINC=\\n',\n",
       " 'KATL,2015,01,15,12,52,METAR KATL 151252Z 04005KT 1/4SM BR OVC003 01/00 A3015 RMK AO2 SFC VIS 2 1/2 SLP219 VIS N-E 1 CIG 002V004 TWRINC T00110000=\\n',\n",
       " 'KATL,2015,01,15,13,40,SPECI KATL 151340Z 28003KT 1SM BR BKN004 OVC150 01/00 A3019 RMK AO2 SFC VIS 2 CIG 003V005 TWRINC=\\n',\n",
       " 'KATL,2015,01,15,13,52,METAR KATL 151352Z 00000KT 1SM BR BKN003 BKN140 OVC200 01/00 A3019 RMK AO2 SFC VIS 2 SLP230 CIG 002V004 T00110000=\\n',\n",
       " 'KATL,2015,01,15,14,24,SPECI KATL 151424Z 32004KT 1/2SM BR OVC003 01/00 A3021 RMK AO2 SFC VIS 2=\\n',\n",
       " 'KATL,2015,01,15,14,52,METAR KATL 151452Z 32003KT 1/2SM R09R/5500VP6000FT BR BCFG BKN004 BKN010 OVC150 02/01 A3022 RMK AO2 SFC VIS 1 1/2 SLP241 T00170006 53024=\\n',\n",
       " 'KATL,2015,01,15,15,00,SPECI KATL 151500Z 00000KT 1SM R09R/6000VP6000FT BR BCFG BKN004 BKN008 OVC150 02/01 A3022 RMK AO2 SFC VIS 2=\\n',\n",
       " 'KATL,2015,01,15,15,15,SPECI KATL 151515Z 00000KT 1 1/2SM BR BCFG BKN004 BKN010 OVC100 02/01 A3021 RMK AO2 SFC VIS 2=\\n',\n",
       " 'KATL,2015,01,15,15,50,SPECI KATL 151550Z 00000KT 2SM BR FEW005 SCT010 OVC100 02/01 A3021 RMK AO2 SFC VIS 4=\\n',\n",
       " 'KATL,2015,01,15,15,52,METAR KATL 151552Z 00000KT 2SM BR FEW005 SCT010 OVC100 02/01 A3021 RMK AO2 SFC VIS 4 SLP238 T00220011=\\n',\n",
       " 'KATL,2015,01,15,16,52,METAR KATL 151652Z 00000KT 2 1/2SM BR FEW005 BKN070 OVC100 03/01 A3019 RMK AO2 SFC VIS 5 SLP230 VIRGA OHD & ALQDS T00280011=\\n',\n",
       " 'KATL,2015,01,15,17,52,METAR KATL 151752Z 19003KT 2 1/2SM -RA BR FEW010 BKN060 OVC100 03/01 A3016 RMK AO2 SFC VIS 5 RAB1659E10B35 SLP222 P0000 60000 T00330011 10033 20011 58018=\\n',\n",
       " 'KATL,2015,01,15,18,52,METAR KATL 151852Z 28004KT 2 1/2SM -RA BR FEW008 BKN060 OVC100 03/02 A3015 RMK AO2 SFC VIS 4 SLP216 P0003 T00330017=\\n',\n",
       " 'KATL,2015,01,15,19,52,METAR KATL 151952Z 28006KT 2 1/2SM -RA BR FEW005 BKN050 OVC060 03/02 A3015 RMK AO2 SLP219 P0007 T00330022=\\n',\n",
       " 'KATL,2015,01,15,20,04,SPECI KATL 152004Z 27005KT 2 1/2SM -RA BR SCT005 BKN040 OVC060 03/02 A3015 RMK AO2 SFC VIS 3 P0000=\\n',\n",
       " 'KATL,2015,01,15,20,52,METAR KATL 152052Z 26006KT 2 1/2SM -RA BR SCT005 BKN050 OVC070 03/02 A3015 RMK AO2 SFC VIS 3 SLP216 P0010 60020 T00330017 56006=\\n',\n",
       " 'KATL,2015,01,15,21,02,SPECI KATL 152102Z 26004KT 2 1/2SM -RA BR SCT005 BKN026 OVC055 03/02 A3014 RMK AO2 SFC VIS 4 P0000=\\n',\n",
       " 'KATL,2015,01,15,21,08,SPECI KATL 152108Z 25005KT 2 1/2SM -RA BR BKN005 BKN026 OVC055 03/02 A3013 RMK AO2 SFC VIS 5 P0001=\\n',\n",
       " 'KATL,2015,01,15,21,19,SPECI KATL 152119Z 27004KT 2 1/2SM -RA BR SCT005 SCT026 OVC065 03/02 A3012 RMK AO2 SFC VIS 4 SCT005 V BKN P0001=\\n',\n",
       " 'KATL,2015,01,15,21,52,METAR KATL 152152Z 30006KT 2 1/2SM -RA BR BKN006 BKN025 OVC070 03/02 A3013 RMK AO2 SFC VIS 5 SLP210 CIG 004V008 P0003 T00330022=\\n',\n",
       " 'KATL,2015,01,15,22,52,METAR KATL 152252Z 31005KT 3SM BR BKN006 OVC070 03/02 A3013 RMK AO2 SFC VIS 5 RAE06 SLP211 CIG 004V008 P0000 T00330022=\\n',\n",
       " 'KATL,2015,01,15,23,20,SPECI KATL 152320Z 30003KT 6SM BR SCT006 BKN040 OVC070 03/02 A3013 RMK AO2 SCT006 V BKN=\\n',\n",
       " 'KATL,2015,01,15,23,52,METAR KATL 152352Z 30006KT 6SM BR SCT006 BKN032 OVC045 03/02 A3015 RMK AO2 PRESRR SLP217 SCT006 V BKN 60023 T00330022 10039 20028 53001=\\n',\n",
       " 'KATL,2015,01,16,00,07,SPECI KATL 160007Z 31006KT 6SM BR BKN008 BKN015 OVC035 03/02 A3015 RMK AO2=\\n',\n",
       " 'KATL,2015,01,16,00,19,SPECI KATL 160019Z 31006KT 6SM BR SCT007 BKN013 OVC040 03/02 A3015 RMK AO2=\\n',\n",
       " 'KATL,2015,01,16,00,52,METAR KATL 160052Z 30006KT 7SM SCT007 OVC040 03/02 A3015 RMK AO2 SLP217 SCT007 V BKN T00330017=\\n',\n",
       " 'KATL,2015,01,16,01,52,METAR KATL 160152Z 31008KT 6SM BR BKN007 OVC040 03/02 A3015 RMK AO2 RAB0057E13 SLP218 CIG 005V010 P0000 T00330017=\\n',\n",
       " 'KATL,2015,01,16,02,52,METAR KATL 160252Z 32010KT 6SM BR SCT007 OVC040 03/01 A3016 RMK AO2 SLP221 SCT007 V BKN 60000 T00280011 53004=\\n',\n",
       " 'KATL,2015,01,16,03,23,SPECI KATL 160323Z 31010KT 6SM BR BKN008 OVC040 03/01 A3016 RMK AO2 CIG 006V010=\\n',\n",
       " 'KATL,2015,01,16,03,52,METAR KATL 160352Z 31007KT 6SM BR BKN008 OVC040 03/01 A3017 RMK AO2 SLP223 CIG 006V010 T00280011=\\n',\n",
       " 'KATL,2015,01,16,04,18,SPECI KATL 160418Z 31008KT 6SM BR SCT008 OVC040 03/01 A3017 RMK AO2=\\n',\n",
       " 'KATL,2015,01,16,04,52,METAR KATL 160452Z 31006KT 6SM BR SCT008 OVC045 03/01 A3016 RMK AO2 SLP221 SCT008 V BKN T00280011 400390006=\\n',\n",
       " 'KATL,2015,01,16,05,21,SPECI KATL 160521Z 31007KT 6SM BR BKN008 OVC040 03/01 A3015 RMK AO2=\\n',\n",
       " 'KATL,2015,01,16,05,52,METAR KATL 160552Z 30011KT 7SM BKN008 BKN040 02/01 A3014 RMK AO2 SLP215 60000 T00220006 10033 20022 58006=\\n',\n",
       " 'KATL,2015,01,16,06,40,SPECI KATL 160640Z 31010G18KT 10SM BKN011 02/M01 A3014 RMK AO2=\\n',\n",
       " 'KATL,2015,01,16,06,52,METAR KATL 160652Z 31012KT 10SM BKN011 02/M01 A3014 RMK AO2 SLP214 T00171006=\\n',\n",
       " 'KATL,2015,01,16,07,34,SPECI KATL 160734Z 32011KT 8SM BKN008 02/M01 A3014 RMK AO2 CIG 007V010=\\n',\n",
       " 'KATL,2015,01,16,07,52,METAR KATL 160752Z 32014KT 7SM BKN008 02/M01 A3014 RMK AO2 SLP216 CIG 007V010 T00171006=\\n',\n",
       " 'KATL,2015,01,16,08,52,METAR KATL 160852Z 32010KT 8SM BKN009 02/M01 A3014 RMK AO2 SLP214 CIG 008V011 T00171006 58001=\\n',\n",
       " 'KATL,2015,01,16,09,28,SPECI KATL 160928Z 32008KT 10SM SCT011 01/M01 A3015 RMK AO2=\\n',\n",
       " 'KATL,2015,01,16,09,52,METAR KATL 160952Z 32010KT 10SM FEW011 01/M01 A3014 RMK AO2 SLP213 T00111011=\\n',\n",
       " 'KATL,2015,01,16,10,52,METAR KATL 161052Z 32009KT 10SM CLR 01/M02 A3014 RMK AO2 SLP214 T00061017=\\n',\n",
       " 'KATL,2015,01,16,11,52,METAR KATL 161152Z 32013KT 10SM CLR 01/M02 A3016 RMK AO2 SLP221 70023 T00061022 10022 20000 53007=\\n',\n",
       " 'KATL,2015,01,16,12,52,METAR KATL 161252Z 32008KT 10SM CLR 00/M03 A3017 RMK AO2 SLP226 T00001028=\\n',\n",
       " 'KATL,2015,01,16,13,52,METAR KATL 161352Z 32009KT 10SM CLR 01/M02 A3019 RMK AO2 SLP232 T00111022=\\n',\n",
       " 'KATL,2015,01,16,14,52,METAR KATL 161452Z 33008KT 10SM CLR 03/M02 A3021 RMK AO2 SLP238 T00331022 53018=\\n',\n",
       " 'KATL,2015,01,16,15,52,METAR KATL 161552Z 33011KT 10SM CLR 06/M02 A3022 RMK AO2 SLP241 T00561017=\\n',\n",
       " 'KATL,2015,01,16,16,52,METAR KATL 161652Z 31008KT 10SM CLR 07/M01 A3022 RMK AO2 SLP239 T00721011=\\n',\n",
       " 'KATL,2015,01,16,17,52,METAR KATL 161752Z 33010KT 10SM CLR 09/M01 A3019 RMK AO2 SLP227 T00941011 10100 20000 58009=\\n',\n",
       " 'KATL,2015,01,16,18,52,METAR KATL 161852Z 32012G18KT 10SM CLR 11/M02 A3016 RMK AO2 SLP218 T01061017=\\n',\n",
       " 'KATL,2015,01,16,19,52,METAR KATL 161952Z 33014KT 10SM CLR 12/M02 A3015 RMK AO2 SLP215 T01171022=\\n',\n",
       " 'KATL,2015,01,16,20,52,METAR KATL 162052Z 34009KT 10SM FEW250 12/M03 A3015 RMK AO2 SLP216 T01171033 55010=\\n',\n",
       " 'KATL,2015,01,16,21,52,METAR KATL 162152Z 32011KT 10SM FEW250 11/M03 A3015 RMK AO2 SLP215 T01111033=\\n',\n",
       " 'KATL,2015,01,16,22,52,METAR KATL 162252Z 32008KT 10SM FEW250 09/M02 A3015 RMK AO2 SLP216 T00891022=\\n',\n",
       " 'KATL,2015,01,16,23,52,METAR KATL 162352Z 30008KT 10SM FEW250 07/M02 A3017 RMK AO2 SLP222 T00721017 10117 20072 53003=\\n',\n",
       " 'KATL,2015,01,17,00,52,METAR KATL 170052Z 31004KT 10SM SCT250 07/M02 A3019 RMK AO2 SLP229 T00671017=\\n',\n",
       " 'KATL,2015,01,17,01,52,METAR KATL 170152Z 23003KT 10SM SCT250 05/M02 A3020 RMK AO2 SLP232 T00501017=\\n',\n",
       " 'KATL,2015,01,17,02,52,METAR KATL 170252Z 30003KT 10SM BKN250 06/M02 A3020 RMK AO2 SLP233 T00561017 51013=\\n',\n",
       " 'KATL,2015,01,17,03,52,METAR KATL 170352Z 33003KT 10SM BKN250 04/M02 A3020 RMK AO2 SLP234 T00441017=\\n',\n",
       " 'KATL,2015,01,17,04,52,METAR KATL 170452Z 34004KT 10SM BKN250 04/M02 A3021 RMK AO2 SLP235 T00391017 401170000=\\n',\n",
       " 'KATL,2015,01,17,05,52,METAR KATL 170552Z 33003KT 10SM BKN250 03/M02 A3021 RMK AO2 SLP234 T00331017 10078 20033 50001=\\n',\n",
       " 'KATL,2015,01,17,06,52,METAR KATL 170652Z 28003KT 10SM SCT250 03/M02 A3020 RMK AO2 SLP233 T00281017=\\n',\n",
       " 'KATL,2015,01,17,07,52,METAR KATL 170752Z 00000KT 10SM SCT250 02/M02 A3021 RMK AO2 SLP233 T00221017=\\n',\n",
       " 'KATL,2015,01,17,08,52,METAR KATL 170852Z 00000KT 10SM SCT250 02/M02 A3021 RMK AO2 SLP235 T00171017 53001=\\n',\n",
       " 'KATL,2015,01,17,09,52,METAR KATL 170952Z 00000KT 10SM SCT250 00/M02 A3021 RMK AO2 SLP234 T00001022=\\n',\n",
       " 'KATL,2015,01,17,10,52,METAR KATL 171052Z 00000KT 10SM SCT250 00/M02 A3022 RMK AO2 SLP239 T00001022=\\n',\n",
       " 'KATL,2015,01,17,11,52,METAR KATL 171152Z 00000KT 10SM BKN250 00/M03 A3022 RMK AO2 SLP242 T00001028 10039 21011 53004=\\n',\n",
       " 'KATL,2015,01,17,12,52,METAR KATL 171252Z 09005KT 10SM FEW200 SCT250 01/M02 A3024 RMK AO2 SLP246 T00111022=\\n',\n",
       " 'KATL,2015,01,17,13,52,METAR KATL 171352Z 09005KT 10SM FEW200 BKN250 02/M01 A3026 RMK AO2 SLP253 T00221011=\\n',\n",
       " 'KATL,2015,01,17,14,52,METAR KATL 171452Z 09005KT 10SM SCT200 BKN250 04/M01 A3027 RMK AO2 SLP257 T00391006 53016=\\n',\n",
       " 'KATL,2015,01,17,15,52,METAR KATL 171552Z 13006KT 10SM FEW200 SCT250 07/00 A3027 RMK AO2 SLP256 T00720000=\\n',\n",
       " 'KATL,2015,01,17,16,52,METAR KATL 171652Z 14005KT 10SM SCT200 BKN250 11/M01 A3027 RMK AO2 SLP253 T01061006=\\n',\n",
       " 'KATL,2015,01,17,17,52,METAR KATL 171752Z 17010KT 10SM SCT250 13/01 A3023 RMK AO2 SLP240 T01280006 10128 20000 58013=\\n',\n",
       " 'KATL,2015,01,17,18,52,METAR KATL 171852Z 18011G17KT 10SM SCT250 14/M01 A3020 RMK AO2 SLP229 T01391006=\\n',\n",
       " 'KATL,2015,01,17,19,52,METAR KATL 171952Z 17006KT 10SM BKN250 14/M01 A3017 RMK AO2 SLP219 T01441006=\\n',\n",
       " 'KATL,2015,01,17,20,52,METAR KATL 172052Z 15008KT 10SM BKN200 BKN250 15/M03 A3015 RMK AO2 SLP213 T01501028 56027=\\n',\n",
       " 'KATL,2015,01,17,21,52,METAR KATL 172152Z 16008KT 10SM SCT200 BKN250 14/M03 A3013 RMK AO2 SLP206 T01441028=\\n',\n",
       " 'KATL,2015,01,17,22,52,METAR KATL 172252Z 17008KT 10SM SCT180 SCT250 13/M03 A3014 RMK AO2 SLP210 VIRGA DSNT NE-E ACC DSNT NE-SE T01331028=\\n',\n",
       " 'KATL,2015,01,17,23,52,METAR KATL 172352Z 19003KT 10SM FEW200 12/M02 A3015 RMK AO2 SLP214 T01171022 10156 20117 55001=\\n',\n",
       " 'KATL,2015,01,18,00,52,METAR KATL 180052Z 13003KT 10SM FEW200 11/M01 A3014 RMK AO2 SLP211 T01061006=\\n',\n",
       " 'KATL,2015,01,18,01,52,METAR KATL 180152Z 16004KT 10SM CLR 08/00 A3014 RMK AO2 SLP212 T00830000=\\n',\n",
       " 'KATL,2015,01,18,02,52,METAR KATL 180252Z COR 15004KT 10SM FEW032 09/01 A3013 RMK AO2 SLP209 T00890006 58004=\\n',\n",
       " 'KATL,2015,01,18,03,52,METAR KATL 180352Z 14003KT 10SM SCT031 08/02 A3013 RMK AO2 SLP205 T00830017=\\n',\n",
       " 'KATL,2015,01,18,04,52,METAR KATL 180452Z 16005KT 10SM FEW032 07/02 A3011 RMK AO2 SLP198 T00670022 401561011=\\n',\n",
       " 'KATL,2015,01,18,05,14,SPECI KATL 180514Z 17004KT 10SM BKN027 07/02 A3011 RMK AO2=\\n',\n",
       " 'KATL,2015,01,18,05,52,METAR KATL 180552Z 17004KT 10SM BKN024 07/03 A3010 RMK AO2 SLP194 T00670028 10117 20067 56012=\\n',\n",
       " 'KATL,2015,01,18,06,38,SPECI KATL 180638Z 00000KT 10SM SCT022 06/03 A3009 RMK AO2=\\n',\n",
       " 'KATL,2015,01,18,06,52,METAR KATL 180652Z 00000KT 10SM FEW022 06/03 A3009 RMK AO2 SLP189 T00610033=\\n',\n",
       " 'KATL,2015,01,18,07,52,METAR KATL 180752Z 21004KT 10SM FEW120 05/03 A3008 RMK AO2 SLP189 T00500028=\\n',\n",
       " 'KATL,2015,01,18,08,52,METAR KATL 180852Z 19003KT 10SM SCT038 04/02 A3006 RMK AO2 SLP181 T00440022 58012=\\n',\n",
       " 'KATL,2015,01,18,09,52,METAR KATL 180952Z 23005KT 10SM BKN036 04/02 A3004 RMK AO2 SLP174 T00440022=\\n',\n",
       " 'KATL,2015,01,18,10,19,SPECI KATL 181019Z 24007KT 10SM BKN028 BKN039 BKN049 06/03 A3004 RMK AO2=\\n',\n",
       " 'KATL,2015,01,18,10,52,METAR KATL 181052Z 23006KT 10SM BKN026 BKN032 BKN055 06/03 A3004 RMK AO2 SLP175 T00610028=\\n',\n",
       " 'KATL,2015,01,18,11,19,SPECI KATL 181119Z 23007KT 10SM FEW028 BKN041 BKN060 06/03 A3004 RMK AO2=\\n',\n",
       " 'KATL,2015,01,18,11,52,METAR KATL 181152Z 22004KT 10SM FEW041 SCT060 06/03 A3004 RMK AO2 SLP176 T00610033 10067 20039 56006=\\n',\n",
       " 'KATL,2015,01,18,12,52,METAR KATL 181252Z 25006KT 10SM FEW075 SCT250 06/03 A3005 RMK AO2 SLP180 T00560033=\\n',\n",
       " 'KATL,2015,01,18,13,52,METAR KATL 181352Z 28011KT 10SM CLR 08/04 A3007 RMK AO2 SLP185 T00780039=\\n',\n",
       " 'KATL,2015,01,18,14,52,METAR KATL 181452Z 29009KT 10SM CLR 09/03 A3009 RMK AO2 SLP192 T00940033 53017=\\n',\n",
       " 'KATL,2015,01,18,15,52,METAR KATL 181552Z 29014KT 10SM CLR 12/01 A3010 RMK AO2 SLP193 T01220006=\\n',\n",
       " 'KATL,2015,01,18,16,52,METAR KATL 181652Z 31018G29KT 10SM FEW050 SCT250 13/M03 A3009 RMK AO2 PK WND 29029/1645 SLP192 T01331028=\\n',\n",
       " 'KATL,2015,01,18,17,52,METAR KATL 181752Z 29018G25KT 10SM FEW040 SCT250 15/M03 A3007 RMK AO2 SLP183 T01501033 10150 20044 58007=\\n',\n",
       " 'KATL,2015,01,18,18,52,METAR KATL 181852Z 31023G29KT 10SM FEW040 SCT250 15/M05 A3005 RMK AO2 PK WND 31029/1852 SLP176 T01501050=\\n',\n",
       " 'KATL,2015,01,18,19,52,METAR KATL 181952Z 29015G27KT 10SM FEW040 SCT250 15/M06 A3005 RMK AO2 PK WND 31030/1853 SLP177 T01501056=\\n',\n",
       " 'KATL,2015,01,18,20,52,METAR KATL 182052Z 28019G25KT 10SM CLR 15/M06 A3007 RMK AO2 SLP183 T01501056 55001=\\n',\n",
       " 'KATL,2015,01,18,21,52,METAR KATL 182152Z 30015G21KT 10SM CLR 14/M07 A3008 RMK AO2 PK WND 29026/2058 SLP189 T01391067=\\n',\n",
       " 'KATL,2015,01,18,22,52,METAR KATL 182252Z 28010KT 10SM CLR 12/M06 A3009 RMK AO2 SLP193 T01171061=\\n',\n",
       " 'KATL,2015,01,18,23,52,METAR KATL 182352Z 27005KT 10SM CLR 10/M07 A3011 RMK AO2 SLP198 T01001067 10156 20100 52014=\\n',\n",
       " 'KATL,2015,01,19,00,52,METAR KATL 190052Z 27005KT 10SM CLR 09/M06 A3012 RMK AO2 SLP202 T00891061=\\n',\n",
       " 'KATL,2015,01,19,01,52,METAR KATL 190152Z 26004KT 10SM CLR 08/M06 A3012 RMK AO2 SLP203 T00831061=\\n',\n",
       " 'KATL,2015,01,19,02,52,METAR KATL 190252Z 28006KT 10SM CLR 07/M06 A3013 RMK AO2 SLP204 T00721056 51006=\\n',\n",
       " 'KATL,2015,01,19,03,52,METAR KATL 190352Z 25004KT 10SM CLR 08/M06 A3013 RMK AO2 SLP206 T00781056=\\n',\n",
       " 'KATL,2015,01,19,04,52,METAR KATL 190452Z 26004KT 10SM CLR 07/M06 A3013 RMK AO2 SLP203 T00721056 401560039=\\n',\n",
       " 'KATL,2015,01,19,05,52,METAR KATL 190552Z 28006KT 10SM CLR 07/M06 A3013 RMK AO2 SLP205 T00671056 10100 20061 51002=\\n',\n",
       " 'KATL,2015,01,19,06,52,METAR KATL 190652Z 28008KT 10SM CLR 06/M05 A3014 RMK AO2 SLP207 T00561050=\\n',\n",
       " 'KATL,2015,01,19,07,52,METAR KATL 190752Z 26007KT 10SM FEW250 07/M05 A3014 RMK AO2 SLP207 T00671050=\\n',\n",
       " 'KATL,2015,01,19,08,52,METAR KATL 190852Z 27006KT 10SM FEW250 06/M05 A3013 RMK AO2 SLP204 T00561050 58001=\\n',\n",
       " 'KATL,2015,01,19,09,52,METAR KATL 190952Z 26003KT 10SM FEW250 06/M05 A3013 RMK AO2 SLP203 T00561050=\\n',\n",
       " 'KATL,2015,01,19,10,52,METAR KATL 191052Z 27006KT 10SM SCT250 04/M05 A3013 RMK AO2 SLP206 T00441050=\\n',\n",
       " 'KATL,2015,01,19,11,52,METAR KATL 191152Z 00000KT 10SM SCT250 04/M05 A3014 RMK AO2 SLP209 T00391050 10067 20033 53002=\\n',\n",
       " 'KATL,2015,01,19,12,52,METAR KATL 191252Z 00000KT 10SM FEW200 SCT250 02/M04 A3014 RMK AO2 SLP210 T00221039=\\n',\n",
       " 'KATL,2015,01,19,13,52,METAR KATL 191352Z 22003KT 10SM SCT250 06/M04 A3013 RMK AO2 SLP208 T00561039=\\n',\n",
       " 'KATL,2015,01,19,14,52,METAR KATL 191452Z 24005KT 10SM FEW200 SCT250 09/M04 A3015 RMK AO2 SLP212 T00891039 53004=\\n',\n",
       " 'KATL,2015,01,19,15,52,METAR KATL 191552Z 24009KT 10SM SCT250 14/M05 A3016 RMK AO2 SLP214 T01391050=\\n',\n",
       " 'KATL,2015,01,19,16,52,METAR KATL 191652Z 27009KT 10SM FEW150 SCT200 BKN250 16/M06 A3014 RMK AO2 SLP205 T01561061=\\n',\n",
       " 'KATL,2015,01,19,17,52,METAR KATL 191752Z 24010KT 10SM FEW150 SCT200 SCT250 16/M06 A3010 RMK AO2 SLP193 T01611056 10167 20022 58017=\\n',\n",
       " 'KATL,2015,01,19,18,52,METAR KATL 191852Z 25009KT 10SM FEW200 SCT250 18/M05 A3006 RMK AO2 SLP180 T01781050=\\n',\n",
       " 'KATL,2015,01,19,19,52,METAR KATL 191952Z 22010G18KT 10SM BKN250 18/M06 A3004 RMK AO2 SLP170 T01831061=\\n',\n",
       " 'KATL,2015,01,19,20,52,METAR KATL 192052Z 25007KT 10SM BKN250 18/M07 A3003 RMK AO2 SLP167 T01831067 56023=\\n',\n",
       " 'KATL,2015,01,19,21,52,METAR KATL 192152Z 24005KT 10SM BKN250 18/M07 A3002 RMK AO2 SLP166 T01831067=\\n',\n",
       " 'KATL,2015,01,19,22,52,METAR KATL 192252Z 24007KT 10SM BKN250 17/M07 A3002 RMK AO2 SLP167 T01721072=\\n',\n",
       " 'KATL,2015,01,19,23,52,METAR KATL 192352Z 23006KT 10SM BKN250 15/M07 A3003 RMK AO2 SLP170 T01501067 10189 20150 53000=\\n',\n",
       " 'KATL,2015,01,20,00,52,METAR KATL 200052Z 23005KT 10SM BKN250 13/M07 A3002 RMK AO2 SLP171 T01281067=\\n',\n",
       " 'KATL,2015,01,20,01,52,METAR KATL 200152Z 24005KT 10SM BKN250 12/M07 A3002 RMK AO2 SLP170 T01171067=\\n',\n",
       " 'KATL,2015,01,20,02,52,METAR KATL 200252Z 24005KT 10SM BKN250 11/M06 A3002 RMK AO2 SLP167 T01111056 58003=\\n',\n",
       " 'KATL,2015,01,20,03,52,METAR KATL 200352Z 24004KT 10SM SCT200 BKN250 11/M05 A3002 RMK AO2 SLP164 T01061050=\\n',\n",
       " 'KATL,2015,01,20,04,52,METAR KATL 200452Z 24006KT 10SM SCT200 BKN250 11/M04 A3001 RMK AO2 SLP162 T01111044 401890022=\\n',\n",
       " 'KATL,2015,01,20,05,52,METAR KATL 200552Z 24004KT 10SM SCT200 BKN250 10/M04 A3000 RMK AO2 SLP158 T01001044 10150 20094 58005=\\n',\n",
       " 'KATL,2015,01,20,06,52,METAR KATL 200652Z 25006KT 10SM BKN200 11/M04 A3000 RMK AO2 SLP157 T01111039=\\n',\n",
       " 'KATL,2015,01,20,07,52,METAR KATL 200752Z 23004KT 10SM BKN180 09/M03 A3000 RMK AO2 SLP158 T00891033=\\n',\n",
       " 'KATL,2015,01,20,08,52,METAR KATL 200852Z 25005KT 10SM BKN200 10/M02 A3000 RMK AO2 SLP155 T01001022 58002=\\n',\n",
       " 'KATL,2015,01,20,09,52,METAR KATL 200952Z 24005KT 10SM BKN200 09/00 A2999 RMK AO2 SLP155 T00940000=\\n',\n",
       " 'KATL,2015,01,20,10,52,METAR KATL 201052Z 24003KT 10SM BKN200 BKN250 08/01 A2999 RMK AO2 SLP156 T00830006=\\n',\n",
       " 'KATL,2015,01,20,11,52,METAR KATL 201152Z 22004KT 10SM SCT180 BKN220 07/01 A3001 RMK AO2 SLP163 T00720006 10111 20072 53005=\\n',\n",
       " 'KATL,2015,01,20,12,52,METAR KATL 201252Z 23004KT 10SM SCT180 BKN220 07/02 A3002 RMK AO2 SLP167 T00720017=\\n',\n",
       " 'KATL,2015,01,20,13,52,METAR KATL 201352Z 23003KT 10SM FEW150 SCT200 SCT250 08/02 A3003 RMK AO2 SLP169 T00830022=\\n',\n",
       " 'KATL,2015,01,20,14,52,METAR KATL 201452Z 25008KT 10SM FEW150 SCT250 11/03 A3004 RMK AO2 SLP174 T01060033 53010=\\n',\n",
       " 'KATL,2015,01,20,15,52,METAR KATL 201552Z 25009KT 10SM FEW150 SCT250 14/03 A3004 RMK AO2 SLP174 T01440033=\\n',\n",
       " 'KATL,2015,01,20,16,52,METAR KATL 201652Z 26007KT 10SM FEW150 BKN250 17/02 A3002 RMK AO2 SLP164 T01670022=\\n',\n",
       " 'KATL,2015,01,20,17,52,METAR KATL 201752Z 25008KT 10SM FEW150 BKN250 18/01 A2998 RMK AO2 SLP151 T01780011 10183 20072 58020=\\n',\n",
       " 'KATL,2015,01,20,18,52,METAR KATL 201852Z 24009KT 10SM BKN250 19/01 A2995 RMK AO2 SLP139 T01890006=\\n',\n",
       " 'KATL,2015,01,20,19,52,METAR KATL 201952Z VRB04KT 10SM BKN250 18/01 A2994 RMK AO2 SLP136 T01830011=\\n',\n",
       " 'KATL,2015,01,20,20,52,METAR KATL 202052Z 24004KT 10SM BKN250 18/02 A2993 RMK AO2 SLP134 T01830022 56016=\\n',\n",
       " 'KATL,2015,01,20,21,52,METAR KATL 202152Z 23006KT 10SM BKN250 18/02 A2994 RMK AO2 SLP136 T01830017=\\n',\n",
       " 'KATL,2015,01,20,22,52,METAR KATL 202252Z 22003KT 10SM SCT200 BKN250 17/01 A2994 RMK AO2 SLP139 T01670011=\\n',\n",
       " 'KATL,2015,01,20,23,52,METAR KATL 202352Z 23003KT 10SM SCT200 BKN250 14/01 A2996 RMK AO2 SLP146 T01440011 10194 20144 53008=\\n',\n",
       " 'KATL,2015,01,21,00,52,METAR KATL 210052Z 24004KT 10SM SCT200 BKN250 14/02 A2998 RMK AO2 SLP151 T01390022=\\n',\n",
       " 'KATL,2015,01,21,01,52,METAR KATL 210152Z 25005KT 10SM SCT200 BKN250 13/03 A2998 RMK AO2 SLP151 T01330028=\\n',\n",
       " 'KATL,2015,01,21,02,52,METAR KATL 210252Z 27003KT 10SM FEW200 BKN250 13/03 A2999 RMK AO2 SLP156 T01280028 51009=\\n',\n",
       " 'KATL,2015,01,21,03,52,METAR KATL 210352Z 27004KT 10SM FEW200 BKN250 12/03 A3000 RMK AO2 SLP158 T01220033=\\n',\n",
       " 'KATL,2015,01,21,04,52,METAR KATL 210452Z 26003KT 10SM FEW200 SCT250 11/03 A3000 RMK AO2 SLP157 T01060033 401940072=\\n',\n",
       " 'KATL,2015,01,21,05,52,METAR KATL 210552Z 28004KT 10SM FEW200 SCT250 11/04 A3000 RMK AO2 SLP156 T01110039 10144 20106 50003=\\n',\n",
       " 'KATL,2015,01,21,06,52,METAR KATL 210652Z 00000KT 10SM FEW200 SCT250 10/04 A2999 RMK AO2 SLP154 T01000039=\\n',\n",
       " 'KATL,2015,01,21,07,52,METAR KATL 210752Z 29003KT 10SM FEW250 10/04 A3000 RMK AO2 SLP158 T01000039=\\n',\n",
       " 'KATL,2015,01,21,08,52,METAR KATL 210852Z 29004KT 10SM FEW250 09/04 A3000 RMK AO2 SLP158 T00890039 53001=\\n',\n",
       " 'KATL,2015,01,21,09,52,METAR KATL 210952Z 29005KT 10SM CLR 09/03 A3001 RMK AO2 SLP159 T00890033=\\n',\n",
       " 'KATL,2015,01,21,10,52,METAR KATL 211052Z 32007KT 10SM CLR 07/03 A3002 RMK AO2 SLP165 T00670033=\\n',\n",
       " 'KATL,2015,01,21,11,52,METAR KATL 211152Z 32004KT 10SM CLR 07/03 A3004 RMK AO2 SLP172 T00670028 10117 20061 53013=\\n',\n",
       " 'KATL,2015,01,21,12,52,METAR KATL 211252Z 31007KT 10SM FEW250 06/02 A3006 RMK AO2 SLP182 T00560022=\\n',\n",
       " 'KATL,2015,01,21,13,52,METAR KATL 211352Z 32008KT 10SM FEW250 08/03 A3007 RMK AO2 SLP185 T00780028=\\n',\n",
       " 'KATL,2015,01,21,14,52,METAR KATL 211452Z 33010KT 10SM FEW250 11/02 A3010 RMK AO2 SLP194 T01110017 53021=\\n',\n",
       " 'KATL,2015,01,21,15,52,METAR KATL 211552Z 32009KT 10SM FEW250 13/02 A3013 RMK AO2 SLP202 T01330017=\\n',\n",
       " 'KATL,2015,01,21,16,52,METAR KATL 211652Z 31011KT 10SM FEW250 15/02 A3012 RMK AO2 SLP199 T01500017=\\n',\n",
       " 'KATL,2015,01,21,17,52,METAR KATL 211752Z 32009KT 10SM FEW250 16/01 A3010 RMK AO2 SLP191 T01610006 10161 20056 58002=\\n',\n",
       " 'KATL,2015,01,21,18,52,METAR KATL 211852Z 30014G17KT 10SM FEW250 17/00 A3008 RMK AO2 SLP183 T01670000=\\n',\n",
       " 'KATL,2015,01,21,19,52,METAR KATL 211952Z 33013KT 10SM FEW250 17/00 A3008 RMK AO2 SLP186 T01720000=\\n',\n",
       " 'KATL,2015,01,21,20,52,METAR KATL 212052Z 32008KT 10SM FEW250 17/M02 A3009 RMK AO2 SLP188 T01721017 55003=\\n',\n",
       " 'KATL,2015,01,21,21,52,METAR KATL 212152Z 32009KT 10SM FEW150 SCT200 BKN250 16/M02 A3009 RMK AO2 SLP188 T01611022=\\n',\n",
       " 'KATL,2015,01,21,22,52,METAR KATL 212252Z 32009KT 10SM FEW200 BKN250 14/M03 A3011 RMK AO2 SLP197 T01441028=\\n',\n",
       " 'KATL,2015,01,21,23,52,METAR KATL 212352Z 33006KT 10SM FEW200 BKN250 13/M02 A3013 RMK AO2 SLP203 T01281022 10178 20122 53012=\\n',\n",
       " 'KATL,2015,01,22,00,52,METAR KATL 220052Z 32005KT 10SM FEW200 BKN250 12/M02 A3015 RMK AO2 SLP211 T01171022=\\n',\n",
       " 'KATL,2015,01,22,01,52,METAR KATL 220152Z 32008KT 10SM SCT250 10/M02 A3015 RMK AO2 SLP214 T01001017=\\n',\n",
       " 'KATL,2015,01,22,02,52,METAR KATL 220252Z 31007KT 10SM SCT250 08/M02 A3018 RMK AO2 SLP221 T00831017 53017=\\n',\n",
       " 'KATL,2015,01,22,03,52,METAR KATL 220352Z 32007KT 10SM SCT250 08/M02 A3018 RMK AO2 SLP221 T00781022=\\n',\n",
       " 'KATL,2015,01,22,04,52,METAR KATL 220452Z 32006KT 10SM SCT250 07/M03 A3020 RMK AO2 SLP226 T00721033 401780056=\\n',\n",
       " 'KATL,2015,01,22,05,52,METAR KATL 220552Z 33007KT 10SM SCT250 06/M03 A3019 RMK AO2 SLP223 T00611033 10128 20056 50003=\\n',\n",
       " 'KATL,2015,01,22,06,52,METAR KATL 220652Z 32004KT 10SM FEW200 SCT250 07/M03 A3020 RMK AO2 SLP228 T00671033=\\n',\n",
       " 'KATL,2015,01,22,07,52,METAR KATL 220752Z 35008KT 10SM FEW200 SCT250 05/M03 A3021 RMK AO2 SLP231 T00501033=\\n',\n",
       " 'KATL,2015,01,22,08,52,METAR KATL 220852Z 33008KT 10SM SCT200 BKN250 06/M03 A3023 RMK AO2 SLP237 T00561033 53014=\\n',\n",
       " 'KATL,2015,01,22,09,52,METAR KATL 220952Z 33005KT 10SM BKN200 BKN250 04/M03 A3023 RMK AO2 SLP236 T00441028=\\n',\n",
       " 'KATL,2015,01,22,10,52,METAR KATL 221052Z 34008KT 10SM BKN200 BKN250 06/M03 A3024 RMK AO2 SLP242 T00561033=\\n',\n",
       " 'KATL,2015,01,22,11,52,METAR KATL 221152Z 32004KT 10SM BKN200 BKN250 06/M03 A3027 RMK AO2 SLP253 T00561028 10067 20044 53014=\\n',\n",
       " 'KATL,2015,01,22,12,52,METAR KATL 221252Z 02007KT 10SM BKN140 BKN200 OVC250 07/M03 A3026 RMK AO2 SLP251 VIRGA SE-SW T00671033=\\n',\n",
       " 'KATL,2015,01,22,13,52,METAR KATL 221352Z VRB04KT 10SM FEW110 BKN150 OVC200 08/M03 A3028 RMK AO2 SLP257 VIRGA W-N T00831028=\\n',\n",
       " 'KATL,2015,01,22,14,52,METAR KATL 221452Z 04009KT 10SM BKN100 BKN150 OVC200 11/M03 A3029 RMK AO2 SLP258 VIRGA OHD-SW-NW T01061028 53005=\\n',\n",
       " 'KATL,2015,01,22,15,52,METAR KATL 221552Z 11005KT 10SM BKN110 BKN150 BKN200 11/M03 A3030 RMK AO2 SLP261 VIRGA N-NE-E BINOVC DSNT E T01061028=\\n',\n",
       " 'KATL,2015,01,22,16,52,METAR KATL 221652Z 09004KT 10SM BKN100 BKN150 BKN200 11/M03 A3030 RMK AO2 SLP262 BINOVC DSNT E T01111033=\\n',\n",
       " 'KATL,2015,01,22,17,52,METAR KATL 221752Z 09004KT 10SM BKN100 BKN150 OVC200 12/M04 A3027 RMK AO2 SLP255 VIRGA N-NE T01171039 10117 20050 58004=\\n',\n",
       " 'KATL,2015,01,22,18,52,METAR KATL 221852Z 05003KT 10SM BKN110 BKN150 OVC200 12/M03 A3026 RMK AO2 SLP248 T01221033=\\n',\n",
       " 'KATL,2015,01,22,19,52,METAR KATL 221952Z 07003KT 10SM BKN110 BKN150 BKN200 12/M04 A3026 RMK AO2 SLP249 VIRGA DSNT SW BINOVC DSNT E T01221039=\\n',\n",
       " 'KATL,2015,01,22,20,52,METAR KATL 222052Z 04007KT 10SM BKN100 BKN150 BKN250 13/M04 A3025 RMK AO2 SLP245 T01281039 56009=\\n',\n",
       " 'KATL,2015,01,22,21,52,METAR KATL 222152Z 05006KT 10SM FEW100 SCT130 BKN150 BKN200 13/M04 A3024 RMK AO2 SLP243 VIRGA SW-NW T01281039=\\n',\n",
       " 'KATL,2015,01,22,22,52,METAR KATL 222252Z 04004KT 10SM BKN080 BKN100 OVC200 12/M04 A3025 RMK AO2 SLP245 VIRGA N-OHD-SW T01221039=\\n',\n",
       " 'KATL,2015,01,22,23,52,METAR KATL 222352Z 03007KT 10SM SCT080 BKN100 OVC150 12/M04 A3027 RMK AO2 SLP253 VIRGA NW-NE T01221039 10133 20111 53006=\\n',\n",
       " 'KATL,2015,01,23,00,52,METAR KATL 230052Z 36008KT 10SM BKN080 OVC110 12/M04 A3026 RMK AO2 SLP251 VIRGA NW-NE T01221039=\\n',\n",
       " 'KATL,2015,01,23,01,52,METAR KATL 230152Z 04004KT 10SM SCT080 BKN110 OVC150 12/M03 A3025 RMK AO2 SLP246 T01171033=\\n',\n",
       " 'KATL,2015,01,23,02,52,METAR KATL 230252Z 01006KT 10SM -RA BKN060 BKN080 OVC100 11/M02 A3026 RMK AO2 RAB49 SLP247 PCPN VRY LGT P0000 60000 T01111022 55004=\\n',\n",
       " 'KATL,2015,01,23,03,52,METAR KATL 230352Z 36007KT 10SM -RA BKN065 OVC080 09/02 A3027 RMK AO2 SLP252 P0000 T00890022=\\n',\n",
       " 'KATL,2015,01,23,04,52,METAR KATL 230452Z 05005KT 7SM -RA BKN055 OVC080 08/03 A3027 RMK AO2 SLP251 P0005 T00830033 401330044=\\n',\n",
       " 'KATL,2015,01,23,05,52,METAR KATL 230552Z 06010KT 7SM -RA BKN060 OVC080 07/04 A3023 RMK AO2 SLP237 P0007 60012 T00720039 10122 20072 58010=\\n',\n",
       " 'KATL,2015,01,23,06,52,METAR KATL 230652Z 10009KT 8SM -RA OVC075 07/04 A3021 RMK AO2 SLP231 P0004 T00670044=\\n',\n",
       " 'KATL,2015,01,23,07,52,METAR KATL 230752Z 10009KT 6SM -RA BR BKN050 OVC075 07/05 A3020 RMK AO2 SLP228 P0004 T00670050=\\n',\n",
       " 'KATL,2015,01,23,08,52,METAR KATL 230852Z 08008KT 4SM RA BR BKN048 OVC070 07/05 A3018 RMK AO2 SLP223 P0008 60016 T00670050 56014=\\n',\n",
       " 'KATL,2015,01,23,09,52,METAR KATL 230952Z 08009KT 3SM RA BR FEW006 OVC045 07/06 A3016 RMK AO2 SLP214 P0013 T00720056=\\n',\n",
       " 'KATL,2015,01,23,10,52,METAR KATL 231052Z 09011KT 3SM RA BR SCT005 BKN030 OVC042 07/06 A3014 RMK AO2 SLP209 P0018 T00720061=\\n',\n",
       " 'KATL,2015,01,23,11,13,SPECI KATL 231113Z 08015KT 3SM RA BR BKN006 BKN028 OVC040 08/06 A3014 RMK AO2 CIG 005V007 P0007=\\n',\n",
       " 'KATL,2015,01,23,11,52,METAR KATL 231152Z 09016KT 3SM RA BR BKN006 BKN012 OVC036 08/06 A3012 RMK AO2 SLP202 CIG 005V008 P0017 60064 70076 T00780061 10078 20067 56021=\\n',\n",
       " 'KATL,2015,01,23,12,52,METAR KATL 231252Z 10017G23KT 3SM -RA BR BKN006 BKN011 OVC030 08/06 A3009 RMK AO2 SLP191 CIG 005V008 P0007 T00780061=\\n',\n",
       " 'KATL,2015,01,23,13,52,METAR KATL 231352Z 10014G21KT 3SM -RA BR BKN006 OVC012 08/06 A3005 RMK AO2 SLP176 CIG 005V007 P0003 T00780061=\\n',\n",
       " 'KATL,2015,01,23,14,52,METAR KATL 231452Z 09017G21KT 4SM -RA BR BKN006 OVC008 08/07 A3003 RMK AO2 SLP169 P0002 60012 T00780067 56031=\\n',\n",
       " 'KATL,2015,01,23,15,52,METAR KATL 231552Z 08017KT 4SM -RA BR OVC006 08/06 A3001 RMK AO2 SLP163 P0002 T00780061=\\n',\n",
       " 'KATL,2015,01,23,16,31,SPECI KATL 231631Z 08018G23KT 2SM R09R/6000VP6000FT RA BR OVC006 07/06 A3001 RMK AO2 SFC VIS 2 1/2 P0000=\\n',\n",
       " 'KATL,2015,01,23,16,52,METAR KATL 231652Z 09020KT 2SM -RA BR BKN006 BKN008 OVC010 07/06 A3001 RMK AO2 SFC VIS 4 SLP165 P0005 T00670056=\\n',\n",
       " 'KATL,2015,01,23,17,52,METAR KATL 231752Z 08016G20KT 2SM -RA BR BKN006 BKN009 OVC012 07/05 A2998 RMK AO2 SFC VIS 3 SLP155 P0002 60021 T00670050 10078 20061 58015=\\n',\n",
       " 'KATL,2015,01,23,18,52,METAR KATL 231852Z 09015G20KT 2SM -RA BR BKN006 OVC010 06/04 A2991 RMK AO2 SFC VIS 2 1/2 PRESFR SLP132 P0002 T00610044=\\n',\n",
       " 'KATL,2015,01,23,19,22,SPECI KATL 231922Z 09016KT 3SM -RA BR BKN006 OVC010 06/04 A2989 RMK AO2 SFC VIS 4 P0001=\\n',\n",
       " 'KATL,2015,01,23,19,52,METAR KATL 231952Z 10012KT 3SM BR BKN006 OVC009 06/05 A2989 RMK AO2 SFC VIS 4 RAE32 SLP125 P0001 T00610050=\\n',\n",
       " 'KATL,2015,01,23,19,52,SPECI KATL 231952Z 10012KT 3SM BR BKN006 OVC009 06/05 A2989 RMK AO2 SFC VIS 4 RAE32 SLP125 P0001 T00610050=\\n',\n",
       " 'KATL,2015,01,23,20,04,SPECI KATL 232004Z 09013KT 2SM BR OVC004 06/04 A2988 RMK AO2 SFC VIS 4=\\n',\n",
       " 'KATL,2015,01,23,20,12,SPECI KATL 232012Z 08014KT 2SM -DZ BR OVC006 06/04 A2987 RMK AO2 SFC VIS 4 DZB11 P0000=\\n',\n",
       " 'KATL,2015,01,23,20,18,SPECI KATL 232018Z 09014KT 3/4SM -DZ BR OVC005 06/04 A2987 RMK AO2 SFC VIS 3 DZB11 P0000=\\n',\n",
       " 'KATL,2015,01,23,20,39,SPECI KATL 232039Z 08017KT 3/4SM -DZ BR OVC004 06/04 A2986 RMK AO2 SFC VIS 2 DZB11 P0000=\\n',\n",
       " 'KATL,2015,01,23,20,52,METAR KATL 232052Z 09012KT 3/4SM -DZ BR BKN004 OVC006 06/04 A2986 RMK AO2 SFC VIS 2 DZB11 SLP116 P0000 60003 T00560044 56038=\\n',\n",
       " 'KATL,2015,01,23,20,56,SPECI KATL 232056Z 08018G22KT 1/2SM -DZ BR BKN004 OVC006 06/04 A2986 RMK AO2 SFC VIS 2 P0000=\\n',\n",
       " 'KATL,2015,01,23,21,52,METAR KATL 232152Z 09012KT 1/2SM -DZ BR OVC004 06/04 A2985 RMK AO2 SFC VIS 1 1/2 DZE15B48RAB15E45 SLP113 P0001 T00560044=\\n',\n",
       " 'KATL,2015,01,23,22,52,METAR KATL 232252Z 09012KT 1/2SM -DZ BR OVC004 06/04 A2983 RMK AO2 SFC VIS 1 1/2 SLP107 CIG 003V005 P0000 T00560044=\\n',\n",
       " 'KATL,2015,01,23,23,52,METAR KATL 232352Z 08009KT 1/2SM -DZ BR OVC004 06/04 A2984 RMK AO2 SFC VIS 3 SLP109 P0000 60004 T00560044 10067 20056 55007=\\n',\n",
       " 'KATL,2015,01,24,00,52,METAR KATL 240052Z 08009KT 1/2SM -DZ BR OVC004 06/04 A2982 RMK AO2 SFC VIS 3 SLP101 P0000 T00560044=\\n',\n",
       " 'KATL,2015,01,24,01,52,METAR KATL 240152Z 10005KT 1SM -DZ BR OVC004 05/04 A2980 RMK AO2 SFC VIS 4 DZE08B52RAB08E52 SLP097 CIG 003V006 P0000 T00500044=\\n',\n",
       " 'KATL,2015,01,24,02,52,METAR KATL 240252Z 04006KT 1SM -RA BR OVC005 06/04 A2981 RMK AO2 SFC VIS 2 1/2 DZE13RAB13 SLP098 CIG 003V007 P0002 60002 T00560039 55011=\\n',\n",
       " 'KATL,2015,01,24,03,52,METAR KATL 240352Z 03008KT 2 1/2SM -RA BR BKN006 OVC015 06/04 A2979 RMK AO2 SFC VIS 5 SLP092 CIG 003V008 P0005 T00560044=\\n',\n",
       " 'KATL,2015,01,24,04,52,METAR KATL 240452Z 02006KT 2 1/2SM BR OVC005 06/04 A2977 RMK AO2 SFC VIS 5 RAE48 SLP084 CIG 004V007 P0001 T00560039 400780050=\\n',\n",
       " 'KATL,2015,01,24,05,52,METAR KATL 240552Z 01006KT 8SM BKN008 OVC015 05/04 A2974 RMK AO2 RAB00E39 SLP075 P0001 60009 T00500039 10056 20050 58022=\\n',\n",
       " 'KATL,2015,01,24,06,52,METAR KATL 240652Z 32003KT 6SM BR OVC005 05/04 A2972 RMK AO2 RAB08E17 SLP069 CIG 004V007 P0000 T00500039=\\n',\n",
       " 'KATL,2015,01,24,06,59,SPECI KATL 240659Z 33004KT 4SM BR OVC004 05/04 A2972 RMK AO2 CIG 003V007=\\n',\n",
       " 'KATL,2015,01,24,07,11,SPECI KATL 240711Z 31005KT 2 1/2SM -DZ BR OVC004 05/04 A2972 RMK AO2 DZB10 CIG 003V007 P0000=\\n',\n",
       " 'KATL,2015,01,24,07,32,SPECI KATL 240732Z 30005KT 3SM -DZ BR OVC004 05/04 A2972 RMK AO2 DZB10 CIG 003V007 P0000 $=\\n',\n",
       " 'KATL,2015,01,24,07,52,METAR KATL 240752Z 31007KT 3SM -DZ BR OVC004 05/04 A2973 RMK AO2 DZB10 SLP072 CIG 003V007 P0000 T00500039 $=\\n',\n",
       " 'KATL,2015,01,24,08,22,SPECI KATL 240822Z 29008KT 2SM -DZ BR OVC004 05/04 A2973 RMK AO2 CIG 003V007 P0000 $=\\n',\n",
       " 'KATL,2015,01,24,08,45,SPECI KATL 240845Z 28007KT 3SM -DZ BR OVC004 05/04 A2973 RMK AO2 CIG 003V007 P0000 $=\\n',\n",
       " 'KATL,2015,01,24,08,52,METAR KATL 240852Z 28007KT 3SM -DZ BR OVC004 05/04 A2973 RMK AO2 SLP072 CIG 003V007 P0000 60000 T00500039 55002 $=\\n',\n",
       " 'KATL,2015,01,24,09,52,METAR KATL 240952Z 29010KT 6SM BR OVC004 06/04 A2972 RMK AO2 DZE48 SLP069 CIG 003V007 P0000 T00560039 $=\\n',\n",
       " 'KATL,2015,01,24,10,52,METAR KATL 241052Z 29016G21KT 6SM -DZ BR BKN005 OVC011 06/04 A2974 RMK AO2 DZB48 SLP074 P0000 T00560044 $=\\n',\n",
       " 'KATL,2015,01,24,11,10,SPECI KATL 241110Z 29013G21KT 7SM SCT005 OVC011 06/04 A2975 RMK AO2 DZE10 P0000 $=\\n',\n",
       " 'KATL,2015,01,24,11,16,SPECI KATL 241116Z 29014G20KT 7SM -RA BKN007 OVC013 06/04 A2975 RMK AO2 DZE10RAB14 P0000 $=\\n',\n",
       " 'KATL,2015,01,24,11,49,SPECI KATL 241149Z 30012G25KT 7SM SCT008 OVC013 05/03 A2978 RMK AO2 DZE10RAB14E24 P0000 $=\\n',\n",
       " 'KATL,2015,01,24,11,52,METAR KATL 241152Z 31012KT 7SM SCT008 OVC013 05/03 A2978 RMK AO2 DZE10RAB14E24 SLP088 P0000 60000 70034 T00500028 10056 20050 53016 $=\\n',\n",
       " 'KATL,2015,01,24,12,16,SPECI KATL 241216Z 30018G25KT 7SM BKN008 OVC012 04/02 A2980 RMK AO2 $=\\n',\n",
       " 'KATL,2015,01,24,12,39,SPECI KATL 241239Z 30014G21KT 7SM FEW009 OVC012 04/02 A2982 RMK AO2 $=\\n',\n",
       " 'KATL,2015,01,24,12,52,METAR KATL 241252Z 31019G26KT 7SM FEW009 OVC012 04/02 A2982 RMK AO2 PK WND 30026/1252 SLP103 T00390017 $=\\n',\n",
       " 'KATL,2015,01,24,13,52,METAR KATL 241352Z 30018G24KT 9SM OVC013 03/01 A2984 RMK AO2 PK WND 32028/1334 SLP111 T00330011 $=\\n',\n",
       " 'KATL,2015,01,24,14,52,METAR KATL 241452Z 32016G27KT 10SM OVC015 04/00 A2988 RMK AO2 PK WND 31027/1448 SLP122 T00390000 51031 $=\\n',\n",
       " 'KATL,2015,01,24,15,35,SPECI KATL 241535Z 32018G23KT 10SM SCT019 04/00 A2991 RMK AO2 PK WND 33028/1520=\\n',\n",
       " 'KATL,2015,01,24,15,45,SPECI KATL 241545Z 31014G22KT 10SM BKN021 04/M01 A2989 RMK AO2 PK WND 33028/1520 BKN V SCT=\\n',\n",
       " 'KATL,2015,01,24,15,52,METAR KATL 241552Z 31012G20KT 10SM BKN021 04/00 A2989 RMK AO2 PK WND 33028/1520 SLP128 BKN V SCT T00440000=\\n',\n",
       " 'KATL,2015,01,24,16,27,SPECI KATL 241627Z 32016G25KT 10SM SCT021 06/M01 A2991 RMK AO2=\\n',\n",
       " 'KATL,2015,01,24,16,52,METAR KATL 241652Z 29012G19KT 10SM SCT021 06/M01 A2990 RMK AO2 SLP131 T00561006=\\n',\n",
       " 'KATL,2015,01,24,17,52,METAR KATL 241752Z 29018G23KT 10SM FEW024 07/M02 A2989 RMK AO2 SLP127 T00721017 10072 20033 50006=\\n',\n",
       " 'KATL,2015,01,24,18,52,METAR KATL 241852Z 31014G21KT 10SM FEW024 08/M02 A2988 RMK AO2 SLP123 T00831017=\\n',\n",
       " 'KATL,2015,01,24,19,52,METAR KATL 241952Z 30016G21KT 10SM FEW025 09/M03 A2989 RMK AO2 SLP124 T00891033=\\n',\n",
       " 'KATL,2015,01,24,20,52,METAR KATL 242052Z 30012G19KT 10SM CLR 09/M04 A2989 RMK AO2 SLP125 T00891039 55001=\\n',\n",
       " 'KATL,2015,01,24,21,52,METAR KATL 242152Z 29013KT 10SM CLR 09/M04 A2990 RMK AO2 SLP128 T00891044=\\n',\n",
       " 'KATL,2015,01,24,22,52,METAR KATL 242252Z 29010KT 10SM FEW250 08/M04 A2992 RMK AO2 SLP136 T00781044=\\n',\n",
       " 'KATL,2015,01,24,23,52,METAR KATL 242352Z 28005KT 10SM CLR 06/M04 A2994 RMK AO2 SLP144 T00561039 10094 20056 53017=\\n',\n",
       " 'KATL,2015,01,25,00,52,METAR KATL 250052Z 29006KT 10SM CLR 05/M04 A2994 RMK AO2 SLP142 T00501039=\\n',\n",
       " 'KATL,2015,01,25,01,52,METAR KATL 250152Z 26005KT 10SM CLR 04/M04 A2995 RMK AO2 SLP149 T00441039=\\n',\n",
       " 'KATL,2015,01,25,02,52,METAR KATL 250252Z 27005KT 10SM CLR 04/M03 A2996 RMK AO2 SLP151 T00391033 53005=\\n',\n",
       " 'KATL,2015,01,25,03,52,METAR KATL 250352Z 24004KT 10SM CLR 03/M03 A2997 RMK AO2 SLP156 T00281033=\\n',\n",
       " 'KATL,2015,01,25,04,52,METAR KATL 250452Z 25004KT 10SM CLR 03/M03 A2998 RMK AO2 SLP157 T00331028 400940028=\\n',\n",
       " 'KATL,2015,01,25,05,52,METAR KATL 250552Z 27003KT 10SM CLR 02/M03 A2997 RMK AO2 SLP152 T00221028 10061 20022 50003=\\n',\n",
       " 'KATL,2015,01,25,06,52,METAR KATL 250652Z 27004KT 10SM CLR 02/M03 A2996 RMK AO2 SLP150 T00221028=\\n',\n",
       " 'KATL,2015,01,25,07,52,METAR KATL 250752Z 25004KT 10SM CLR 01/M03 A2997 RMK AO2 SLP153 T00111028=\\n',\n",
       " 'KATL,2015,01,25,08,52,METAR KATL 250852Z 25003KT 10SM CLR 01/M03 A2995 RMK AO2 SLP146 T00061033 58006=\\n',\n",
       " 'KATL,2015,01,25,09,52,METAR KATL 250952Z 00000KT 10SM CLR 01/M03 A2995 RMK AO2 SLP147 T00111028=\\n',\n",
       " 'KATL,2015,01,25,10,52,METAR KATL 251052Z 00000KT 10SM CLR M01/M03 A2996 RMK AO2 SLP152 T10061033=\\n',\n",
       " 'KATL,2015,01,25,11,52,METAR KATL 251152Z 21004KT 10SM FEW200 00/M03 A2996 RMK AO2 SLP152 T00001028 10022 21006 50004=\\n',\n",
       " 'KATL,2015,01,25,12,52,METAR KATL 251252Z 21004KT 10SM FEW200 00/M03 A2996 RMK AO2 SLP152 T00001028=\\n',\n",
       " 'KATL,2015,01,25,13,52,METAR KATL 251352Z 22007KT 10SM FEW200 02/M02 A2995 RMK AO2 SLP150 T00221022=\\n',\n",
       " 'KATL,2015,01,25,14,52,METAR KATL 251452Z 22008KT 10SM FEW220 06/M01 A2994 RMK AO2 SLP144 T00561011 58005=\\n',\n",
       " 'KATL,2015,01,25,15,52,METAR KATL 251552Z 26008KT 10SM FEW250 09/00 A2993 RMK AO2 SLP141 T00940000=\\n',\n",
       " 'KATL,2015,01,25,16,52,METAR KATL 251652Z 22007KT 10SM FEW250 11/01 A2991 RMK AO2 SLP131 T01110006=\\n',\n",
       " 'KATL,2015,01,25,17,52,METAR KATL 251752Z 21010G20KT 10SM FEW250 13/M01 A2986 RMK AO2 SLP115 T01281006 10128 21006 58027=\\n',\n",
       " 'KATL,2015,01,25,18,52,METAR KATL 251852Z 21012G18KT 10SM CLR 14/M01 A2981 RMK AO2 SLP098 T01391011=\\n',\n",
       " 'KATL,2015,01,25,19,52,METAR KATL 251952Z 23011G20KT 10SM FEW250 15/M02 A2978 RMK AO2 SLP087 T01501022=\\n',\n",
       " 'KATL,2015,01,25,20,52,METAR KATL 252052Z 21011KT 10SM FEW150 SCT250 15/M01 A2975 RMK AO2 SLP077 T01501011 56036=\\n',\n",
       " 'KATL,2015,01,25,21,52,METAR KATL 252152Z 21008G18KT 10SM FEW140 SCT200 SCT250 15/M01 A2974 RMK AO2 SLP073 T01501006=\\n',\n",
       " 'KATL,2015,01,25,22,52,METAR KATL 252252Z 19008G16KT 10SM SCT130 SCT200 SCT250 13/M01 A2974 RMK AO2 SLP075 T01331006=\\n',\n",
       " 'KATL,2015,01,25,23,52,METAR KATL 252352Z 19008KT 10SM SCT095 BKN120 BKN200 BKN250 13/M01 A2976 RMK AO2 SLP083 T01281006 10156 20128 53004=\\n',\n",
       " 'KATL,2015,01,26,00,52,METAR KATL 260052Z 20007KT 10SM SCT075 BKN095 OVC130 12/00 A2977 RMK AO2 SLP086 T01170000=\\n',\n",
       " 'KATL,2015,01,26,01,52,METAR KATL 260152Z 20006KT 10SM SCT080 BKN120 BKN200 BKN250 11/00 A2975 RMK AO2 SLP079 T01110000=\\n',\n",
       " 'KATL,2015,01,26,02,52,METAR KATL 260252Z 21005KT 10SM BKN055 BKN075 BKN100 OVC130 11/01 A2975 RMK AO2 SLP075 VIRGA SW-NW T01060006 58005=\\n',\n",
       " 'KATL,2015,01,26,03,12,SPECI KATL 260312Z 25012G21KT 6SM -RA BKN046 OVC075 11/03 A2977 RMK AO2 RAB01 P0000=\\n',\n",
       " 'KATL,2015,01,26,03,52,METAR KATL 260352Z 02009KT 7SM -RA FEW016 BKN034 OVC065 08/06 A2974 RMK AO2 RAB01 PRESFR SLP071 P0003 T00830056=\\n',\n",
       " 'KATL,2015,01,26,04,52,METAR KATL 260452Z 21003KT 10SM FEW034 SCT070 SCT110 SCT250 06/05 A2975 RMK AO2 RAE01 SLP075 P0000 T00610050 401561006=\\n',\n",
       " 'KATL,2015,01,26,05,22,SPECI KATL 260522Z 24005KT 10SM BKN026 BKN070 BKN110 BKN250 06/05 A2975 RMK AO2=\\n',\n",
       " 'KATL,2015,01,26,05,43,SPECI KATL 260543Z 25006KT 10SM SCT024 BKN085 OVC120 07/05 A2974 RMK AO2=\\n',\n",
       " 'KATL,2015,01,26,05,52,METAR KATL 260552Z 25007KT 10SM FEW024 BKN090 BKN130 BKN250 07/05 A2974 RMK AO2 SLP072 60003 T00720050 10128 20056 56002=\\n',\n",
       " 'KATL,2015,01,26,06,52,METAR KATL 260652Z 27012KT 10SM FEW024 SCT080 BKN095 BKN130 07/04 A2973 RMK AO2 SLP068 T00720044=\\n',\n",
       " 'KATL,2015,01,26,07,50,SPECI KATL 260750Z 28014G18KT 10SM BKN027 BKN080 07/04 A2973 RMK AO2=\\n',\n",
       " 'KATL,2015,01,26,07,52,METAR KATL 260752Z 28011G18KT 10SM BKN028 BKN080 07/04 A2973 RMK AO2 SLP068 T00670044=\\n',\n",
       " 'KATL,2015,01,26,08,20,SPECI KATL 260820Z 27010KT 10SM BKN031 06/04 A2974 RMK AO2=\\n',\n",
       " 'KATL,2015,01,26,08,52,METAR KATL 260852Z 26008KT 10SM FEW022 06/03 A2974 RMK AO2 SLP070 T00610033 55001=\\n',\n",
       " 'KATL,2015,01,26,09,11,SPECI KATL 260911Z 27008KT 10SM BKN028 06/04 A2974 RMK AO2=\\n',\n",
       " 'KATL,2015,01,26,09,52,METAR KATL 260952Z 26008KT 10SM BKN018 BKN028 07/04 A2974 RMK AO2 SLP072 T00670039=\\n',\n",
       " 'KATL,2015,01,26,10,05,SPECI KATL 261005Z 26007KT 10SM SCT018 SCT025 BKN035 07/04 A2974 RMK AO2=\\n',\n",
       " 'KATL,2015,01,26,10,17,SPECI KATL 261017Z 26008KT 10SM BKN018 BKN035 07/04 A2975 RMK AO2 BKN018 V SCT=\\n',\n",
       " 'KATL,2015,01,26,10,52,METAR KATL 261052Z 27007KT 10SM BKN018 BKN029 07/04 A2975 RMK AO2 SLP075 BKN018 V SCT T00670039=\\n',\n",
       " 'KATL,2015,01,26,11,52,METAR KATL 261152Z 29012G18KT 10SM BKN017 BKN026 OVC032 07/04 A2977 RMK AO2 SLP082 70003 T00670039 10078 20056 53010=\\n',\n",
       " 'KATL,2015,01,26,12,52,METAR KATL 261252Z 29010G18KT 9SM OVC015 07/03 A2978 RMK AO2 SLP085 T00670033=\\n',\n",
       " 'KATL,2015,01,26,13,29,SPECI KATL 261329Z 28012G18KT 8SM OVC014 07/04 A2979 RMK AO2=\\n',\n",
       " 'KATL,2015,01,26,13,52,METAR KATL 261352Z 29013KT 8SM -DZ OVC014 07/04 A2980 RMK AO2 DZB46 SLP094 PCPN VRY LGT P0000 T00670039=\\n',\n",
       " 'KATL,2015,01,26,14,03,SPECI KATL 261403Z 29013KT 3SM -RA BR BKN014 OVC022 06/04 A2981 RMK AO2 SFC VIS 4 DZE03RAB03 PCPN VRY LGT P0000=\\n',\n",
       " 'KATL,2015,01,26,14,39,SPECI KATL 261439Z 30012G17KT 2SM -RA BR SCT007 OVC014 06/04 A2982 RMK AO2 SFC VIS 2 1/2 DZE03RAB03 P0000=\\n',\n",
       " 'KATL,2015,01,26,14,46,SPECI KATL 261446Z 30011KT 2SM -RA BR BKN009 OVC016 06/04 A2982 RMK AO2 SFC VIS 3 DZE03RAB03 CIG 006V011 P0001=\\n',\n",
       " 'KATL,2015,01,26,14,52,METAR KATL 261452Z 30010KT 2SM BR BKN009 OVC016 06/04 A2982 RMK AO2 SFC VIS 5 DZE03RAB03E50 SLP101 CIG 007V011 P0001 60001 T00610044 53018=\\n',\n",
       " 'KATL,2015,01,26,14,59,SPECI KATL 261459Z 29013G19KT 8SM -DZ FEW009 BKN013 OVC017 06/04 A2983 RMK AO2 DZB58 P0000=\\n',\n",
       " 'KATL,2015,01,26,15,52,METAR KATL 261552Z 31017G24KT 10SM FEW015 SCT028 BKN040 07/03 A2985 RMK AO2 PK WND 31027/1540 DZB1458E08RAB08E15 SLP111 P0000 T00670028=\\n',\n",
       " 'KATL,2015,01,26,16,22,SPECI KATL 261622Z 30020G26KT 10SM BKN023 BKN030 OVC040 07/02 A2986 RMK AO2 PK WND 30026/1622=\\n',\n",
       " 'KATL,2015,01,26,16,52,METAR KATL 261652Z 29016G19KT 10SM FEW015 BKN020 OVC030 06/03 A2986 RMK AO2 PK WND 31027/1629 RAB42E52 SLP114 P0000 T00610028=\\n',\n",
       " 'KATL,2015,01,26,17,52,METAR KATL 261752Z 32015G21KT 10SM SCT018 BKN020 OVC030 06/01 A2985 RMK AO2 SLP111 60001 T00610011 10072 20056 50008=\\n',\n",
       " 'KATL,2015,01,26,18,52,METAR KATL 261852Z 32015G27KT 10SM FEW020 BKN028 OVC033 05/00 A2985 RMK AO2 PK WND 33029/1834 SLP112 T00500000=\\n',\n",
       " 'KATL,2015,01,26,19,30,SPECI KATL 261930Z 31015KT 10SM BKN012 BKN018 OVC026 04/01 A2986 RMK AO2=\\n',\n",
       " 'KATL,2015,01,26,19,52,METAR KATL 261952Z 29016G23KT 10SM FEW012 BKN014 OVC030 03/00 A2987 RMK AO2 SLP119 T00330000=\\n',\n",
       " 'KATL,2015,01,26,20,11,SPECI KATL 262011Z 29017G20KT 10SM FEW012 BKN016 OVC020 04/M01 A2987 RMK AO2=\\n',\n",
       " 'KATL,2015,01,26,20,52,METAR KATL 262052Z 31018G22KT 10SM FEW012 BKN020 OVC030 04/M01 A2987 RMK AO2 SLP120 T00391011 52008=\\n',\n",
       " 'KATL,2015,01,26,21,52,METAR KATL 262152Z 32012G21KT 10SM BKN028 04/M02 A2988 RMK AO2 SLP123 T00391022=\\n',\n",
       " 'KATL,2015,01,26,22,52,METAR KATL 262252Z 31017G22KT 10SM BKN026 03/M02 A2989 RMK AO2 SLP128 T00331022=\\n',\n",
       " 'KATL,2015,01,26,23,52,METAR KATL 262352Z 31011KT 10SM BKN028 BKN250 03/M03 A2992 RMK AO2 SLP136 T00281028 10067 20028 53016=\\n',\n",
       " 'KATL,2015,01,27,00,03,SPECI KATL 270003Z 30009KT 10SM SCT028 BKN250 03/M03 A2992 RMK AO2=\\n',\n",
       " 'KATL,2015,01,27,00,52,METAR KATL 270052Z 30010KT 10SM FEW028 SCT120 BKN200 02/M03 A2993 RMK AO2 SLP140 T00221028=\\n',\n",
       " 'KATL,2015,01,27,01,52,METAR KATL 270152Z 30009KT 10SM FEW075 SCT150 02/M03 A2994 RMK AO2 SLP145 T00221028=\\n',\n",
       " 'KATL,2015,01,27,02,52,METAR KATL 270252Z 30007KT 10SM SCT075 BKN100 BKN150 02/M02 A2992 RMK AO2 SLP136 T00221022 58001=\\n',\n",
       " 'KATL,2015,01,27,03,52,METAR KATL 270352Z 30006KT 10SM FEW070 BKN085 02/M03 A2991 RMK AO2 SLP133 T00171028=\\n',\n",
       " 'KATL,2015,01,27,04,52,METAR KATL 270452Z 31008KT 10SM FEW090 01/M03 A2991 RMK AO2 SLP136 T00111028 400780011=\\n',\n",
       " 'KATL,2015,01,27,05,52,METAR KATL 270552Z 30008KT 10SM CLR 01/M03 A2990 RMK AO2 SLP132 T00111028 10028 20006 58004=\\n',\n",
       " 'KATL,2015,01,27,06,52,METAR KATL 270652Z 29009KT 10SM CLR 00/M03 A2990 RMK AO2 SLP132 T00001028=\\n',\n",
       " 'KATL,2015,01,27,07,52,METAR KATL 270752Z 29007KT 10SM BKN050 00/M03 A2989 RMK AO2 SLP130 T00001028=\\n',\n",
       " 'KATL,2015,01,27,08,52,METAR KATL 270852Z 29008KT 10SM BKN050 00/M03 A2987 RMK AO2 SLP123 T00001028 58010=\\n',\n",
       " 'KATL,2015,01,27,09,52,METAR KATL 270952Z 28006KT 10SM OVC048 01/M02 A2986 RMK AO2 SLP118 T00061022=\\n',\n",
       " 'KATL,2015,01,27,10,52,METAR KATL 271052Z 29007KT 10SM BKN055 01/M02 A2986 RMK AO2 SLP120 T00061022=\\n',\n",
       " 'KATL,2015,01,27,11,52,METAR KATL 271152Z 29007KT 10SM FEW042 BKN055 01/M02 A2988 RMK AO2 SLP127 70001 T00061022 10011 21006 53003=\\n',\n",
       " 'KATL,2015,01,27,12,52,METAR KATL 271252Z 29006KT 10SM FEW042 SCT055 01/M02 A2990 RMK AO2 SLP133 T00061022=\\n',\n",
       " 'KATL,2015,01,27,13,52,METAR KATL 271352Z 31007KT 10SM FEW055 02/M02 A2991 RMK AO2 SLP134 T00221017=\\n',\n",
       " 'KATL,2015,01,27,14,52,METAR KATL 271452Z 31010KT 10SM FEW055 04/M01 A2992 RMK AO2 SLP138 T00441006 52013=\\n',\n",
       " 'KATL,2015,01,27,15,52,METAR KATL 271552Z 33015G22KT 10SM FEW026 SCT055 07/00 A2994 RMK AO2 SLP144 T00720000=\\n',\n",
       " 'KATL,2015,01,27,16,52,METAR KATL 271652Z 33019G26KT 10SM BKN037 BKN055 09/M01 A2994 RMK AO2 PK WND 35026/1650 SLP145 T00891006=\\n',\n",
       " 'KATL,2015,01,27,17,52,METAR KATL 271752Z 34014G22KT 10SM FEW035 BKN050 08/M01 A2995 RMK AO2 PK WND 33031/1655 SLP148 T00781006 10089 20006 51011=\\n',\n",
       " 'KATL,2015,01,27,18,52,METAR KATL 271852Z 31017G22KT 10SM BKN037 BKN050 08/M01 A2996 RMK AO2 SLP149 T00831011=\\n',\n",
       " 'KATL,2015,01,27,19,52,METAR KATL 271952Z 34013KT 10SM FEW040 SCT050 08/M02 A2996 RMK AO2 SLP152 T00831022=\\n',\n",
       " 'KATL,2015,01,27,20,52,METAR KATL 272052Z 34013G17KT 10SM SCT043 SCT055 09/M02 A2998 RMK AO2 SLP158 T00891022 53009=\\n',\n",
       " 'KATL,2015,01,27,21,52,METAR KATL 272152Z 32012G17KT 10SM FEW045 08/M02 A2999 RMK AO2 SLP161 T00831017=\\n',\n",
       " 'KATL,2015,01,27,22,52,METAR KATL 272252Z 35011KT 10SM FEW045 07/M01 A3001 RMK AO2 SLP169 T00721011=\\n',\n",
       " 'KATL,2015,01,27,23,52,METAR KATL 272352Z 36011KT 10SM FEW045 06/M01 A3004 RMK AO2 SLP179 T00611011 10100 20061 53019=\\n',\n",
       " 'KATL,2015,01,28,00,52,METAR KATL 280052Z 35011KT 10SM FEW040 05/M02 A3005 RMK AO2 SLP185 T00501017=\\n',\n",
       " 'KATL,2015,01,28,01,52,METAR KATL 280152Z 33009KT 10SM FEW040 04/M02 A3007 RMK AO2 SLP189 T00391017=\\n',\n",
       " 'KATL,2015,01,28,02,52,METAR KATL 280252Z 34010KT 10SM FEW040 03/M02 A3008 RMK AO2 SLP193 T00331017 51013=\\n',\n",
       " 'KATL,2015,01,28,03,52,METAR KATL 280352Z 34009KT 10SM CLR 03/M02 A3008 RMK AO2 SLP193 T00281022=\\n',\n",
       " 'KATL,2015,01,28,04,52,METAR KATL 280452Z 34012G18KT 10SM FEW035 03/M03 A3010 RMK AO2 SLP196 T00281028 401001006=\\n',\n",
       " 'KATL,2015,01,28,05,38,SPECI KATL 280538Z 34011G18KT 10SM BKN025 03/M03 A3010 RMK AO2=\\n',\n",
       " 'KATL,2015,01,28,05,52,METAR KATL 280552Z 35010KT 10SM BKN025 03/M03 A3010 RMK AO2 SLP198 T00281028 10061 20022 53006=\\n',\n",
       " 'KATL,2015,01,28,06,52,METAR KATL 280652Z 34013G20KT 10SM BKN023 02/M03 A3009 RMK AO2 SLP194 T00221033=\\n',\n",
       " 'KATL,2015,01,28,06,58,SPECI KATL 280658Z 35015G20KT 10SM SCT023 02/M03 A3009 RMK AO2=\\n',\n",
       " 'KATL,2015,01,28,07,52,METAR KATL 280752Z 34010KT 10SM SCT023 02/M04 A3011 RMK AO2 SLP202 T00171039=\\n',\n",
       " 'KATL,2015,01,28,08,52,METAR KATL 280852Z 33009KT 10SM CLR 01/M04 A3013 RMK AO2 SLP207 T00111044 53008=\\n',\n",
       " 'KATL,2015,01,28,09,52,METAR KATL 280952Z 33010KT 10SM CLR 01/M04 A3015 RMK AO2 SLP216 T00061044=\\n',\n",
       " 'KATL,2015,01,28,10,52,METAR KATL 281052Z 33007KT 10SM CLR 00/M04 A3017 RMK AO2 SLP225 T00001044=\\n',\n",
       " 'KATL,2015,01,28,11,52,METAR KATL 281152Z 33010KT 10SM CLR 00/M04 A3020 RMK AO2 SLP235 T00001044 10028 20000 53026=\\n',\n",
       " 'KATL,2015,01,28,12,52,METAR KATL 281252Z 33007KT 10SM CLR 00/M04 A3023 RMK AO2 SLP245 T00001044=\\n',\n",
       " 'KATL,2015,01,28,13,52,METAR KATL 281352Z 36009KT 10SM CLR 01/M04 A3025 RMK AO2 SLP250 T00111039=\\n',\n",
       " 'KATL,2015,01,28,14,52,METAR KATL 281452Z 33011KT 10SM CLR 03/M04 A3027 RMK AO2 SLP257 T00331039 51021=\\n',\n",
       " 'KATL,2015,01,28,15,52,METAR KATL 281552Z 33007KT 10SM CLR 06/M05 A3028 RMK AO2 SLP260 T00561050=\\n',\n",
       " 'KATL,2015,01,28,16,52,METAR KATL 281652Z 35007KT 10SM FEW250 08/M05 A3029 RMK AO2 SLP261 T00781050=\\n',\n",
       " 'KATL,2015,01,28,17,52,METAR KATL 281752Z 06005KT 10SM FEW250 09/M05 A3025 RMK AO2 SLP250 T00891050 10094 20000 58005=\\n',\n",
       " 'KATL,2015,01,28,18,52,METAR KATL 281852Z VRB03KT 10SM FEW250 11/M06 A3023 RMK AO2 SLP241 T01061056=\\n',\n",
       " 'KATL,2015,01,28,19,52,METAR KATL 281952Z 00000KT 10SM FEW250 12/M05 A3022 RMK AO2 SLP239 T01221050=\\n',\n",
       " 'KATL,2015,01,28,20,52,METAR KATL 282052Z 15003KT 10SM SCT250 12/M06 A3023 RMK AO2 SLP241 T01221061 55008=\\n',\n",
       " 'KATL,2015,01,28,21,52,METAR KATL 282152Z 00000KT 10SM FEW250 13/M06 A3022 RMK AO2 SLP239 T01281061=\\n',\n",
       " 'KATL,2015,01,28,22,52,METAR KATL 282252Z 27003KT 10SM CLR 12/M07 A3023 RMK AO2 SLP242 T01171067=\\n',\n",
       " 'KATL,2015,01,28,23,52,METAR KATL 282352Z 00000KT 10SM CLR 09/M05 A3024 RMK AO2 SLP245 T00941050 10128 20089 53003=\\n',\n",
       " 'KATL,2015,01,29,00,52,METAR KATL 290052Z 15003KT 10SM CLR 08/M04 A3024 RMK AO2 SLP246 T00831044=\\n',\n",
       " 'KATL,2015,01,29,01,52,METAR KATL 290152Z 17003KT 10SM FEW250 08/M05 A3027 RMK AO2 SLP256 T00781050=\\n',\n",
       " 'KATL,2015,01,29,02,52,METAR KATL 290252Z 18004KT 10SM FEW250 06/M03 A3028 RMK AO2 SLP260 T00611033 53015=\\n',\n",
       " 'KATL,2015,01,29,03,52,METAR KATL 290352Z 16005KT 10SM FEW250 06/M03 A3027 RMK AO2 SLP255 T00561033=\\n',\n",
       " 'KATL,2015,01,29,04,52,METAR KATL 290452Z 15004KT 10SM SCT250 06/M03 A3026 RMK AO2 SLP253 T00561028 401280000=\\n',\n",
       " 'KATL,2015,01,29,05,52,METAR KATL 290552Z 16005KT 10SM BKN250 05/M03 A3025 RMK AO2 SLP249 T00501028 10100 20044 56009=\\n',\n",
       " 'KATL,2015,01,29,06,52,METAR KATL 290652Z 00000KT 10SM BKN250 05/M03 A3026 RMK AO2 SLP251 T00501028=\\n',\n",
       " 'KATL,2015,01,29,07,52,METAR KATL 290752Z 00000KT 10SM FEW200 BKN250 04/M03 A3029 RMK AO2 SLP259 T00391028=\\n',\n",
       " 'KATL,2015,01,29,08,52,METAR KATL 290852Z 12003KT 10SM BKN200 BKN250 03/M03 A3029 RMK AO2 SLP261 T00331028 51013=\\n',\n",
       " 'KATL,2015,01,29,09,52,METAR KATL 290952Z 00000KT 10SM SCT200 BKN250 02/M02 A3027 RMK AO2 SLP256 T00221022=\\n',\n",
       " 'KATL,2015,01,29,10,52,METAR KATL 291052Z 14005KT 10SM SCT200 BKN250 02/M02 A3026 RMK AO2 SLP251 T00221022=\\n',\n",
       " 'KATL,2015,01,29,11,52,METAR KATL 291152Z 17004KT 10SM FEW200 SCT250 03/M02 A3027 RMK AO2 SLP257 T00281022 10056 20022 55005=\\n',\n",
       " 'KATL,2015,01,29,12,52,METAR KATL 291252Z 18003KT 10SM BKN200 BKN250 02/M03 A3029 RMK AO2 SLP263 T00221028=\\n',\n",
       " 'KATL,2015,01,29,13,52,METAR KATL 291352Z 19005KT 10SM FEW150 BKN200 BKN250 04/M02 A3031 RMK AO2 SLP267 T00441022=\\n',\n",
       " 'KATL,2015,01,29,14,52,METAR KATL 291452Z 19008KT 10SM FEW150 SCT200 BKN250 05/M02 A3029 RMK AO2 SLP263 T00501022 50006=\\n',\n",
       " 'KATL,2015,01,29,15,52,METAR KATL 291552Z 20009KT 10SM FEW150 BKN200 BKN250 08/M02 A3030 RMK AO2 SLP266 T00781022=\\n',\n",
       " 'KATL,2015,01,29,16,52,METAR KATL 291652Z 20010KT 10SM FEW150 SCT200 BKN250 09/M02 A3027 RMK AO2 SLP255 T00941017=\\n',\n",
       " 'KATL,2015,01,29,17,52,METAR KATL 291752Z 21008KT 10SM FEW150 BKN170 BKN250 12/M03 A3023 RMK AO2 SLP241 T01171028 10117 20022 58020=\\n',\n",
       " 'KATL,2015,01,29,18,52,METAR KATL 291852Z 21010KT 10SM FEW130 BKN150 BKN250 13/M02 A3017 RMK AO2 SLP218 VIRGA DSNT N-NE ACC OHD-SW-NW T01331022=\\n',\n",
       " 'KATL,2015,01,29,19,52,METAR KATL 291952Z 20010KT 10SM BKN110 BKN150 BKN250 14/M04 A3014 RMK AO2 SLP210 VIRGA DSNT E ACC E-SE-S T01441039=\\n',\n",
       " 'KATL,2015,01,29,20,52,METAR KATL 292052Z 19010KT 10SM SCT100 BKN150 BKN250 15/M04 A3012 RMK AO2 SLP202 ACC N & SE-S-SW T01501039 56037=\\n',\n",
       " 'KATL,2015,01,29,21,52,METAR KATL 292152Z 20009G14KT 10SM SCT100 BKN140 BKN250 14/M03 A3011 RMK AO2 SLP201 VIRGA DSNT E-SE-S-SW ACC DSNT N & SE-S-SW & NW T01441033=\\n',\n",
       " 'KATL,2015,01,29,22,52,METAR KATL 292252Z 21005KT 10SM BKN100 BKN150 BKN250 14/M02 A3012 RMK AO2 SLP202 VIRGA DSNT NE AND SE ACC NW-N-NE T01391022=\\n',\n",
       " 'KATL,2015,01,29,23,52,METAR KATL 292352Z 22003KT 10SM SCT100 BKN130 BKN250 12/M02 A3013 RMK AO2 SLP206 ACC SE T01221017 10156 20117 53002=\\n',\n",
       " 'KATL,2015,01,30,00,52,METAR KATL 300052Z 22003KT 10SM OVC060 12/M01 A3013 RMK AO2 SLP208 BINOVC T01221006=\\n',\n",
       " 'KATL,2015,01,30,01,52,METAR KATL 300152Z 21006KT 10SM BKN050 OVC075 12/00 A3012 RMK AO2 SLP202 T01220000=\\n',\n",
       " 'KATL,2015,01,30,02,52,METAR KATL 300252Z 24004KT 10SM BKN050 BKN070 OVC090 12/01 A3011 RMK AO2 SLP200 T01220006 58004=\\n',\n",
       " 'KATL,2015,01,30,03,52,METAR KATL 300352Z 21005KT 10SM BKN048 OVC090 12/01 A3010 RMK AO2 RAB43E51 SLP195 P0000 T01220011=\\n',\n",
       " 'KATL,2015,01,30,04,52,METAR KATL 300452Z 23007KT 10SM BKN040 OVC055 12/02 A3009 RMK AO2 RAB40E49 SLP189 P0000 T01220022 401560022=\\n',\n",
       " 'KATL,2015,01,30,05,52,METAR KATL 300552Z 28008KT 10SM BKN035 OVC050 13/03 A3009 RMK AO2 SLP191 60000 T01280033 10133 20117 55006=\\n',\n",
       " 'KATL,2015,01,30,06,52,METAR KATL 300652Z 32018G24KT 10SM FEW026 OVC032 11/04 A3013 RMK AO2 PK WND 35027/0642 SLP201 T01060039=\\n',\n",
       " 'KATL,2015,01,30,07,02,SPECI KATL 300702Z 33023G28KT 10SM BKN026 OVC034 10/03 A3013 RMK AO2 PK WND 32028/0701=\\n',\n",
       " 'KATL,2015,01,30,07,52,METAR KATL 300752Z 34019G26KT 10SM OVC026 08/02 A3015 RMK AO2 PK WND 33029/0719 SLP211 T00830022=\\n',\n",
       " 'KATL,2015,01,30,08,52,METAR KATL 300852Z 33020G35KT 10SM OVC024 06/M01 A3017 RMK AO2 PK WND 35035/0848 SLP219 T00611006 51026=\\n',\n",
       " 'KATL,2015,01,30,09,52,METAR KATL 300952Z 32022G31KT 10SM BKN030 BKN250 05/M02 A3018 RMK AO2 PK WND 32031/0945 SLP223 T00501022=\\n',\n",
       " 'KATL,2015,01,30,10,52,METAR KATL 301052Z 33022G34KT 10SM FEW032 SCT250 04/M04 A3021 RMK AO2 PK WND 32034/1047 SLP234 T00391039=\\n',\n",
       " 'KATL,2015,01,30,11,52,METAR KATL 301152Z 33014KT 10SM FEW034 SCT200 03/M04 A3023 RMK AO2 PK WND 33029/1128 SLP240 T00331039 10128 20033 53018=\\n',\n",
       " 'KATL,2015,01,30,12,52,METAR KATL 301252Z 34013G20KT 10SM FEW034 SCT200 SCT250 03/M04 A3024 RMK AO2 SLP245 T00331039=\\n',\n",
       " 'KATL,2015,01,30,13,52,METAR KATL 301352Z 33021G28KT 10SM FEW034 SCT250 04/M03 A3027 RMK AO2 PK WND 33028/1351 SLP255 T00441033=\\n',\n",
       " 'KATL,2015,01,30,14,52,METAR KATL 301452Z 33018G26KT 10SM FEW035 SCT250 06/M03 A3030 RMK AO2 PK WND 33029/1412 SLP263 T00561033 53023=\\n',\n",
       " 'KATL,2015,01,30,15,52,METAR KATL 301552Z 32014G23KT 10SM FEW045 SCT250 07/M04 A3032 RMK AO2 PK WND 32031/1508 SLP268 T00721039=\\n',\n",
       " 'KATL,2015,01,30,16,52,METAR KATL 301652Z 32017G27KT 10SM FEW050 SCT250 08/M04 A3032 RMK AO2 PK WND 32027/1647 SLP268 T00781044=\\n',\n",
       " 'KATL,2015,01,30,17,52,METAR KATL 301752Z 33018G24KT 10SM FEW250 09/M05 A3029 RMK AO2 PK WND 33028/1729 SLP259 T00891050 10089 20033 58002=\\n',\n",
       " 'KATL,2015,01,30,18,52,METAR KATL 301852Z 32016G20KT 10SM FEW250 09/M05 A3027 RMK AO2 SLP253 T00941050=\\n',\n",
       " 'KATL,2015,01,30,19,52,METAR KATL 301952Z 34015G21KT 10SM FEW250 10/M06 A3026 RMK AO2 SLP250 T01001061=\\n',\n",
       " 'KATL,2015,01,30,20,52,METAR KATL 302052Z 33015G21KT 10SM FEW250 10/M07 A3027 RMK AO2 SLP252 T01001067 55008=\\n',\n",
       " 'KATL,2015,01,30,21,52,METAR KATL 302152Z 33017G23KT 10SM FEW250 09/M08 A3028 RMK AO2 SLP259 T00941078=\\n',\n",
       " 'KATL,2015,01,30,22,52,METAR KATL 302252Z 33015G20KT 10SM FEW250 08/M07 A3029 RMK AO2 SLP263 T00781072=\\n',\n",
       " 'KATL,2015,01,30,23,52,METAR KATL 302352Z 35011KT 10SM FEW250 07/M07 A3031 RMK AO2 SLP269 T00671067 10106 20061 51013=\\n',\n",
       " 'KATL,2015,01,31,00,52,METAR KATL 310052Z 34011KT 10SM FEW250 06/M06 A3031 RMK AO2 SLP271 T00611061=\\n',\n",
       " 'KATL,2015,01,31,01,52,METAR KATL 310152Z 34011KT 10SM FEW250 05/M07 A3032 RMK AO2 SLP274 T00501067=\\n',\n",
       " 'KATL,2015,01,31,02,52,METAR KATL 310252Z 34009G15KT 10SM FEW250 04/M07 A3033 RMK AO2 SLP278 T00441072 53009=\\n',\n",
       " 'KATL,2015,01,31,03,52,METAR KATL 310352Z 34007KT 10SM FEW250 03/M07 A3034 RMK AO2 SLP279 T00281072=\\n',\n",
       " 'KATL,2015,01,31,04,52,METAR KATL 310452Z 33006KT 10SM FEW250 02/M07 A3034 RMK AO2 SLP280 T00221072 401330022=\\n',\n",
       " 'KATL,2015,01,31,05,52,METAR KATL 310552Z 33009KT 10SM FEW250 02/M07 A3032 RMK AO2 SLP271 T00171067 10067 20017 58006=\\n',\n",
       " 'KATL,2015,01,31,06,52,METAR KATL 310652Z 32007KT 10SM FEW250 01/M07 A3032 RMK AO2 SLP272 T00111067=\\n',\n",
       " 'KATL,2015,01,31,07,52,METAR KATL 310752Z 34008KT 10SM FEW250 01/M07 A3032 RMK AO2 SLP272 T00061067=\\n',\n",
       " 'KATL,2015,01,31,08,52,METAR KATL 310852Z 34005KT 10SM FEW250 00/M07 A3031 RMK AO2 SLP271 T00001072 58001=\\n',\n",
       " 'KATL,2015,01,31,09,52,METAR KATL 310952Z 00000KT 10SM FEW250 M01/M07 A3031 RMK AO2 SLP271 T10061072=\\n',\n",
       " 'KATL,2015,01,31,10,52,METAR KATL 311052Z 34005KT 10SM SCT250 M01/M07 A3031 RMK AO2 SLP271 T10111072=\\n',\n",
       " 'KATL,2015,01,31,11,52,METAR KATL 311152Z 00000KT 10SM SCT200 BKN250 M02/M07 A3033 RMK AO2 SLP279 T10171072 10017 21017 53006=\\n',\n",
       " 'KATL,2015,01,31,12,52,METAR KATL 311252Z 30005KT 10SM SCT200 BKN250 M01/M07 A3034 RMK AO2 SLP283 T10111067=\\n',\n",
       " 'KATL,2015,01,31,13,52,METAR KATL 311352Z 33003KT 10SM SCT200 SCT250 01/M06 A3035 RMK AO2 SLP286 T00061061=\\n',\n",
       " 'KATL,2015,01,31,14,52,METAR KATL 311452Z 00000KT 10SM FEW150 SCT250 05/M07 A3038 RMK AO2 SLP293 T00501072 53015=\\n',\n",
       " 'KATL,2015,01,31,15,52,METAR KATL 311552Z 18005KT 10SM BKN150 BKN250 06/M08 A3038 RMK AO2 SLP296 T00611083=\\n',\n",
       " 'KATL,2015,01,31,16,52,METAR KATL 311652Z 00000KT 10SM BKN180 08/M08 A3037 RMK AO2 SLP292 T00781083=\\n',\n",
       " 'KATL,2015,01,31,17,52,METAR KATL 311752Z VRB03KT 10SM BKN140 BKN180 09/M08 A3035 RMK AO2 SLP282 T00941078 10094 21017 58009=\\n',\n",
       " 'KATL,2015,01,31,18,52,METAR KATL 311852Z 00000KT 10SM FEW140 BKN170 11/M08 A3032 RMK AO2 SLP271 T01111083=\\n',\n",
       " 'KATL,2015,01,31,19,52,METAR KATL 311952Z 00000KT 10SM FEW140 BKN170 12/M09 A3030 RMK AO2 SLP266 T01171089=\\n',\n",
       " 'KATL,2015,01,31,20,52,METAR KATL 312052Z 10004KT 10SM FEW130 BKN160 BKN250 12/M09 A3029 RMK AO2 SLP261 T01221089 56019=\\n',\n",
       " 'KATL,2015,01,31,21,52,METAR KATL 312152Z 00000KT 10SM BKN170 12/M11 A3028 RMK AO2 SLP259 T01171106=\\n',\n",
       " 'KATL,2015,01,31,22,52,METAR KATL 312252Z 00000KT 10SM FEW120 BKN160 BKN200 OVC250 12/M11 A3028 RMK AO2 SLP259 T01171111=\\n',\n",
       " 'KATL,2015,01,31,23,52,METAR KATL 312352Z 10004KT 10SM FEW120 BKN150 BKN200 OVC250 11/M09 A3029 RMK AO2 SLP262 VIRGA NW-NE T01111089 10133 20089 55000=\\n',\n",
       " 'KATL,2015,02,01,00,52,METAR KATL 010052Z 11004KT 10SM BKN180 BKN250 10/M07 A3029 RMK AO2 SLP264 T01001072=\\n',\n",
       " 'KATL,2015,02,01,01,52,METAR KATL 010152Z 14003KT 10SM BKN180 BKN250 09/M07 A3029 RMK AO2 SLP262 T00941067=\\n',\n",
       " 'KATL,2015,02,01,02,52,METAR KATL 010252Z 00000KT 10SM BKN180 OVC250 09/M07 A3028 RMK AO2 SLP258 T00891067 58002=\\n',\n",
       " 'KATL,2015,02,01,03,52,METAR KATL 010352Z 00000KT 10SM FEW150 OVC180 08/M06 A3027 RMK AO2 SLP255 T00831056=\\n',\n",
       " 'KATL,2015,02,01,04,52,METAR KATL 010452Z 00000KT 10SM FEW150 BKN180 OVC250 08/M05 A3026 RMK AO2 SLP252 T00781050 401331017=\\n',\n",
       " 'KATL,2015,02,01,05,52,METAR KATL 010552Z 15003KT 10SM BKN120 OVC180 07/M05 A3025 RMK AO2 SLP247 VIRGA NW-NE T00721050 10111 20072 58010=\\n',\n",
       " 'KATL,2015,02,01,06,52,METAR KATL 010652Z 13003KT 10SM SCT150 SCT180 BKN200 07/M06 A3024 RMK AO2 SLP241 T00721061=\\n',\n",
       " 'KATL,2015,02,01,07,52,METAR KATL 010752Z 11003KT 10SM SCT150 BKN200 BKN250 07/M07 A3023 RMK AO2 SLP239 T00721067=\\n',\n",
       " 'KATL,2015,02,01,08,52,METAR KATL 010852Z 13005KT 10SM SCT150 BKN180 OVC250 06/M04 A3021 RMK AO2 SLP232 T00611044 58013=\\n',\n",
       " 'KATL,2015,02,01,09,52,METAR KATL 010952Z 12003KT 10SM BKN150 OVC180 06/M04 A3020 RMK AO2 SLP228 T00561044=\\n',\n",
       " 'KATL,2015,02,01,10,52,METAR KATL 011052Z 12004KT 10SM FEW150 BKN180 BKN250 06/M04 A3020 RMK AO2 SLP229 T00561039 $=\\n',\n",
       " 'KATL,2015,02,01,11,52,METAR KATL 011152Z 12004KT 10SM FEW150 BKN180 BKN250 05/M02 A3020 RMK AO2 SLP229 VIRGA NW-N T00501022 10078 20050 56004 $=\\n',\n",
       " 'KATL,2015,02,01,12,52,METAR KATL 011252Z 12005KT 10SM FEW150 SCT180 BKN250 04/M01 A3020 RMK AO2 SLP229 VIRGA NW-N T00441011 $=\\n',\n",
       " 'KATL,2015,02,01,13,52,METAR KATL 011352Z 13006KT 10SM SCT180 BKN220 BKN250 06/01 A3018 RMK AO2 SLP224 T00610006 $=\\n',\n",
       " 'KATL,2015,02,01,14,52,METAR KATL 011452Z 16008KT 10SM SCT039 BKN180 BKN250 09/03 A3017 RMK AO2 SLP220 T00940028 58008 $=\\n',\n",
       " 'KATL,2015,02,01,15,52,METAR KATL 011552Z 20013G19KT 10SM BKN030 BKN044 12/05 A3017 RMK AO2 SLP220 T01170050 $=\\n',\n",
       " 'KATL,2015,02,01,16,04,SPECI KATL 011604Z 19011KT 10SM BKN024 BKN028 OVC034 12/05 A3017 RMK AO2 $=\\n',\n",
       " 'KATL,2015,02,01,16,19,SPECI KATL 011619Z 19008G15KT 10SM SCT024 BKN050 OVC120 12/05 A3016 RMK AO2 $=\\n',\n",
       " 'KATL,2015,02,01,16,52,METAR KATL 011652Z 19006KT 10SM SCT028 BKN044 OVC120 13/06 A3014 RMK AO2 SLP208 T01280056 $=\\n',\n",
       " 'KATL,2015,02,01,17,52,METAR KATL 011752Z 18009KT 10SM SCT023 BKN060 OVC120 13/07 A3010 RMK AO2 SLP192 T01330067 10133 20044 58025 $=\\n',\n",
       " 'KATL,2015,02,01,18,52,METAR KATL 011852Z 17010KT 10SM SCT022 OVC080 13/07 A3003 RMK AO2 SLP171 T01330067 $=\\n',\n",
       " 'KATL,2015,02,01,19,24,SPECI KATL 011924Z 17008KT 10SM -RA BKN022 OVC070 13/08 A3002 RMK AO2 RAB1853 P0000 $=\\n',\n",
       " 'KATL,2015,02,01,19,44,SPECI KATL 011944Z 16009KT 6SM -RA SCT022 BKN044 OVC075 12/08 A3000 RMK AO2 RAB1853 P0001 $=\\n',\n",
       " 'KATL,2015,02,01,19,52,METAR KATL 011952Z 16008KT 7SM -RA SCT022 SCT047 OVC080 12/08 A3000 RMK AO2 RAB1853 SLP159 P0001 T01220083 $=\\n',\n",
       " 'KATL,2015,02,01,20,05,SPECI KATL 012005Z 17007KT 10SM -RA BKN024 OVC075 12/09 A3000 RMK AO2 P0000 $=\\n',\n",
       " 'KATL,2015,02,01,20,32,SPECI KATL 012032Z 19005KT 6SM -RA SCT024 BKN041 OVC050 12/09 A2999 RMK AO2 P0001 $=\\n',\n",
       " 'KATL,2015,02,01,20,52,METAR KATL 012052Z 16009KT 6SM -RA SCT026 BKN055 OVC090 12/09 A2996 RMK AO2 PRESFR SLP146 P0004 60005 T01220089 56046 $=\\n',\n",
       " 'KATL,2015,02,01,21,52,METAR KATL 012152Z 17010KT 5SM RA BR BKN030 BKN045 OVC070 12/10 A2995 RMK AO2 SLP145 P0005 T01170100 $=\\n',\n",
       " 'KATL,2015,02,01,22,52,METAR KATL 012252Z 17012KT 6SM -RA BR SCT031 BKN050 OVC080 12/11 A2992 RMK AO2 SLP135 P0007 T01220106 $=\\n',\n",
       " 'KATL,2015,02,01,23,12,SPECI KATL 012312Z 18012KT 8SM -RA FEW007 SCT034 OVC070 12/11 A2992 RMK AO2 P0002 $=\\n',\n",
       " 'KATL,2015,02,01,23,30,SPECI KATL 012330Z 18009G18KT 10SM -RA BKN008 BKN040 OVC070 13/11 A2992 RMK AO2 P0002 $=\\n',\n",
       " 'KATL,2015,02,01,23,52,METAR KATL 012352Z 18014G20KT 6SM -RA BR BKN008 OVC048 13/11 A2990 RMK AO2 SLP129 CIG 006V010 P0004 60021 T01280111 10133 20117 58017 $=\\n',\n",
       " 'KATL,2015,02,02,00,52,METAR KATL 020052Z 18011G19KT 9SM -RA BKN008 OVC014 13/12 A2988 RMK AO2 SLP120 CIG 006V009 P0003 T01280117 $=\\n',\n",
       " 'KATL,2015,02,02,01,52,METAR KATL 020152Z 19015G26KT 5SM -RA BR BKN007 OVC018 13/12 A2986 RMK AO2 PK WND 20026/0149 SLP114 CIG 006V009 P0003 T01330117 $=\\n',\n",
       " 'KATL,2015,02,02,02,52,METAR KATL 020252Z 19014G26KT 6SM -RA BR OVC008 13/12 A2983 RMK AO2 PK WND 18027/0202 SLP101 CIG 006V010 P0007 60013 T01330117 58024 $=\\n',\n",
       " 'KATL,2015,02,02,03,52,METAR KATL 020352Z 19013G22KT 7SM -RA BKN006 OVC013 13/12 A2978 RMK AO2 SLP085 CIG 004V008 P0010 T01330117 $=\\n',\n",
       " 'KATL,2015,02,02,04,52,METAR KATL 020452Z 25014G21KT 6SM R09R/5000VP6000FT -RA BR OVC006CB 14/12 A2980 RMK AO2 PRESRR SLP089 CB SW-NW-N MOV E P0004 T01390122 401390044 $=\\n',\n",
       " 'KATL,2015,02,02,04,54,SPECI KATL 020454Z 25013G21KT 3/4SM R09R/5000VP6000FT +RA BR OVC006CB 14/12 A2981 RMK AO2 PRESRR CB NE-OHD-SW MOV E P0000 $=\\n',\n",
       " 'KATL,2015,02,02,04,57,SPECI KATL 020457Z 29008G19KT 1 1/2SM R09R/5000VP6000FT +RA BR BKN006 OVC028CB 14/12 A2980 RMK AO2 WSHFT 0442 CB NE-OHD-SW MOV E P0011 $=\\n',\n",
       " 'KATL,2015,02,02,05,00,SPECI KATL 020500Z 29008G19KT 3SM R09R/5000VP6000FT RA BR BKN006 BKN028CB OVC065 14/13 A2978 RMK AO2 WSHFT 0442 CB NE-SE-S MOV E P0013 $=\\n',\n",
       " 'KATL,2015,02,02,05,05,SPECI KATL 020505Z 25006KT 6SM -RA BR SCT006 BKN034CB OVC065 14/12 A2978 RMK AO2 WSHFT 0442 CB NE-SE-S MOV E P0014 $=\\n',\n",
       " 'KATL,2015,02,02,05,52,METAR KATL 020552Z 20006KT 10SM -RA FEW050 BKN085 OVC110 13/12 A2975 RMK AO2 WSHFT 0442 SLP071 P0023 60050 T01280117 10139 20128 58027 $=\\n',\n",
       " 'KATL,2015,02,02,06,52,METAR KATL 020652Z 21007KT 7SM -RA SCT014 SCT055 OVC085 13/12 A2972 RMK AO2 SLP063 P0003 T01330122 $=\\n',\n",
       " 'KATL,2015,02,02,07,00,SPECI KATL 020700Z 22007KT 5SM -RA BR BKN008 BKN028 OVC085 13/12 A2972 RMK AO2 CIG 006V010 P0001 $=\\n',\n",
       " 'KATL,2015,02,02,07,52,METAR KATL 020752Z 24007KT 4SM RA BR BKN005 OVC011 14/13 A2971 RMK AO2 SLP059 CIG 004V008 P0008 T01390128 $=\\n',\n",
       " 'KATL,2015,02,02,08,14,SPECI KATL 020814Z 29009KT 2 1/2SM RA BR BKN004 BKN009 OVC032 14/13 A2971 RMK AO2 P0008 $=\\n',\n",
       " 'KATL,2015,02,02,08,20,SPECI KATL 020820Z 27014G20KT 6SM -RA BR SCT004 BKN034 OVC080 14/12 A2971 RMK AO2 P0009 $=\\n',\n",
       " 'KATL,2015,02,02,08,52,METAR KATL 020852Z 27012KT 8SM -RA SCT008 BKN046 OVC075 14/12 A2971 RMK AO2 SLP060 P0010 60021 T01390117 55011 $=\\n',\n",
       " 'KATL,2015,02,02,09,01,SPECI KATL 020901Z 32021KT 7SM BKN008 BKN018 OVC075 13/11 A2972 RMK AO2 RAE0858 P0001 $=\\n',\n",
       " 'KATL,2015,02,02,09,50,SPECI KATL 020950Z 30012KT 10SM FEW009 BKN013 OVC028 12/09 A2973 RMK AO2 RAE46 P0001 $=\\n',\n",
       " 'KATL,2015,02,02,09,52,METAR KATL 020952Z 29012KT 10SM FEW009 BKN013 OVC028 12/09 A2974 RMK AO2 RAE46 SLP069 P0001 T01170094 $=\\n',\n",
       " 'KATL,2015,02,02,10,01,SPECI KATL 021001Z 29012KT 10SM FEW009 BKN015 OVC090 11/09 A2974 RMK AO2 $=\\n',\n",
       " 'KATL,2015,02,02,10,41,SPECI KATL 021041Z 29017G23KT 10SM SCT017 BKN034 OVC100 11/06 A2975 RMK AO2 $=\\n',\n",
       " 'KATL,2015,02,02,10,52,METAR KATL 021052Z 27014G24KT 10SM FEW018 BKN036 BKN100 BKN180 10/06 A2976 RMK AO2 SLP076 T01000056=\\n',\n",
       " 'KATL,2015,02,02,11,31,SPECI KATL 021131Z 30014G24KT 10SM BKN022 BKN034 BKN100 OVC180 09/06 A2978 RMK AO2=\\n',\n",
       " 'KATL,2015,02,02,11,52,METAR KATL 021152Z 31022G31KT 10SM BKN018 BKN026 OVC100 08/03 A2980 RMK AO2 PK WND 30035/1137 SLP090 60022 70093 T00780033 10139 20078 53027=\\n',\n",
       " 'KATL,2015,02,02,12,35,SPECI KATL 021235Z 29019G28KT 10SM SCT024 OVC033 07/01 A2984 RMK AO2 PK WND 29029/1220 BINOVC=\\n',\n",
       " 'KATL,2015,02,02,12,52,METAR KATL 021252Z 29018G25KT 10SM BKN025 OVC036 06/01 A2985 RMK AO2 PK WND 29029/1220 SLP109 BKN025 V SCT BINOVC T00610011=\\n',\n",
       " 'KATL,2015,02,02,13,30,SPECI KATL 021330Z 31021G29KT 10SM SCT023 BKN034 OVC040 06/00 A2988 RMK AO2 PK WND 31029/1330 BINOVC=\\n',\n",
       " 'KATL,2015,02,02,13,52,METAR KATL 021352Z 30021G28KT 10SM FEW023 OVC034 06/M01 A2989 RMK AO2 PK WND 29030/1341 SLP124 T00561006=\\n',\n",
       " 'KATL,2015,02,02,14,52,METAR KATL 021452Z 30020G29KT 10SM FEW030 SCT035 BKN050 06/M01 A2994 RMK AO2 PK WND 31032/1414 SLP141 SHRA DSNT N-NE T00561006 51049=\\n',\n",
       " 'KATL,2015,02,02,15,22,SPECI KATL 021522Z 31019G28KT 10SM BKN029 BKN036 BKN048 05/M01 A2996 RMK AO2 PK WND 30032/1504=\\n',\n",
       " 'KATL,2015,02,02,15,49,SPECI KATL 021549Z 31017G30KT 10SM FEW029 BKN036 BKN045 05/M02 A2998 RMK AO2 PK WND 30032/1535=\\n',\n",
       " 'KATL,2015,02,02,15,52,METAR KATL 021552Z 31020G25KT 10SM FEW029 BKN036 BKN045 05/M02 A2998 RMK AO2 PK WND 30032/1535 SLP155 T00501022=\\n',\n",
       " 'KATL,2015,02,02,16,52,METAR KATL 021652Z 30019G29KT 10SM BKN038 BKN046 05/M03 A3002 RMK AO2 PK WND 33033/1618 SLP166 T00501028=\\n',\n",
       " 'KATL,2015,02,02,17,52,METAR KATL 021752Z 32022G28KT 10SM BKN034 BKN040 06/M02 A3003 RMK AO2 PK WND 29029/1739 SLP170 T00561022 10072 20044 53015=\\n',\n",
       " 'KATL,2015,02,02,18,52,METAR KATL 021852Z 32023G27KT 10SM SCT034 05/M03 A3004 RMK AO2 PK WND 32030/1830 SLP173 T00501028=\\n',\n",
       " 'KATL,2015,02,02,19,52,METAR KATL 021952Z 31024G28KT 10SM BKN030 04/M03 A3005 RMK AO2 PK WND 34030/1923 SLP177 T00441028=\\n',\n",
       " 'KATL,2015,02,02,20,52,METAR KATL 022052Z 32017G25KT 10SM SCT030 04/M04 A3007 RMK AO2 PK WND 33028/1957 SLP187 T00391039 53015=\\n',\n",
       " 'KATL,2015,02,02,21,52,METAR KATL 022152Z 31019G23KT 10SM FEW035 04/M04 A3010 RMK AO2 SLP198 T00391044=\\n',\n",
       " 'KATL,2015,02,02,22,52,METAR KATL 022252Z 34015G18KT 10SM FEW035 03/M06 A3013 RMK AO2 SLP207 T00281061=\\n',\n",
       " 'KATL,2015,02,02,23,52,METAR KATL 022352Z 33014KT 10SM CLR 02/M07 A3016 RMK AO2 SLP218 T00171067 10061 20017 53027=\\n',\n",
       " 'KATL,2015,02,03,00,52,METAR KATL 030052Z 32010KT 10SM CLR 01/M07 A3018 RMK AO2 SLP228 T00061067=\\n',\n",
       " 'KATL,2015,02,03,01,52,METAR KATL 030152Z 33012KT 10SM CLR 00/M07 A3020 RMK AO2 SLP236 T00001067=\\n',\n",
       " 'KATL,2015,02,03,02,52,METAR KATL 030252Z 34008KT 10SM CLR M01/M07 A3021 RMK AO2 SLP240 T10111072 51019=\\n',\n",
       " 'KATL,2015,02,03,03,52,METAR KATL 030352Z 35010KT 10SM CLR M02/M08 A3019 RMK AO2 SLP234 T10171078=\\n',\n",
       " 'KATL,2015,02,03,04,52,METAR KATL 030452Z 32010KT 10SM CLR M02/M08 A3024 RMK AO2 SLP249 T10221078 401391022=\\n',\n",
       " 'KATL,2015,02,03,05,52,METAR KATL 030552Z 34012KT 10SM CLR M02/M08 A3024 RMK AO2 SLP248 T10221078 10017 21022 53007=\\n',\n",
       " 'KATL,2015,02,03,06,52,METAR KATL 030652Z 34010KT 10SM CLR M03/M08 A3022 RMK AO2 SLP244 T10281078=\\n',\n",
       " 'KATL,2015,02,03,07,52,METAR KATL 030752Z 33009KT 10SM CLR M03/M08 A3024 RMK AO2 SLP250 T10281078=\\n',\n",
       " 'KATL,2015,02,03,08,52,METAR KATL 030852Z 32009KT 10SM CLR M03/M08 A3025 RMK AO2 SLP254 T10331078 53005=\\n',\n",
       " 'KATL,2015,02,03,09,52,METAR KATL 030952Z 33009KT 10SM FEW250 M03/M08 A3026 RMK AO2 SLP257 T10331078=\\n',\n",
       " 'KATL,2015,02,03,10,52,METAR KATL 031052Z 33008KT 10SM SCT250 M04/M08 A3027 RMK AO2 SLP260 T10391078=\\n',\n",
       " 'KATL,2015,02,03,11,52,METAR KATL 031152Z 33005KT 10SM SCT250 M04/M08 A3029 RMK AO2 SLP267 T10391078 11022 21039 53011=\\n',\n",
       " 'KATL,2015,02,03,12,52,METAR KATL 031252Z 33008KT 10SM BKN250 M03/M08 A3030 RMK AO2 SLP273 T10331078=\\n',\n",
       " 'KATL,2015,02,03,13,52,METAR KATL 031352Z 33007KT 10SM BKN250 M03/M07 A3031 RMK AO2 SLP274 T10281072=\\n',\n",
       " 'KATL,2015,02,03,14,52,METAR KATL 031452Z 32003KT 10SM BKN250 00/M07 A3034 RMK AO2 SLP284 T00001072 53017=\\n',\n",
       " 'KATL,2015,02,03,15,52,METAR KATL 031552Z 00000KT 10SM BKN250 02/M07 A3035 RMK AO2 SLP287 T00221072=\\n',\n",
       " 'KATL,2015,02,03,16,52,METAR KATL 031652Z 00000KT 10SM BKN250 05/M07 A3035 RMK AO2 SLP286 T00501072=\\n',\n",
       " 'KATL,2015,02,03,17,52,METAR KATL 031752Z 00000KT 10SM BKN250 07/M08 A3033 RMK AO2 SLP279 T00671078 10072 21039 58001=\\n',\n",
       " 'KATL,2015,02,03,18,52,METAR KATL 031852Z VRB04KT 10SM BKN250 08/M07 A3030 RMK AO2 SLP269 T00831072=\\n',\n",
       " 'KATL,2015,02,03,19,52,METAR KATL 031952Z 34003KT 10SM BKN250 09/M09 A3029 RMK AO2 SLP264 T00891094=\\n',\n",
       " 'KATL,2015,02,03,20,52,METAR KATL 032052Z 00000KT 10SM FEW200 BKN250 10/M10 A3027 RMK AO2 SLP259 T01001100 56019=\\n',\n",
       " 'KATL,2015,02,03,21,52,METAR KATL 032152Z 00000KT 10SM BKN250 09/M09 A3027 RMK AO2 SLP256 T00941094=\\n',\n",
       " 'KATL,2015,02,03,22,52,METAR KATL 032252Z 00000KT 10SM BKN250 09/M09 A3028 RMK AO2 SLP261 T00891094=\\n',\n",
       " 'KATL,2015,02,03,23,52,METAR KATL 032352Z 00000KT 10SM OVC250 08/M07 A3028 RMK AO2 SLP263 T00781072 10106 20067 53003=\\n',\n",
       " 'KATL,2015,02,04,00,52,METAR KATL 040052Z 21003KT 10SM OVC250 06/M07 A3030 RMK AO2 SLP268 T00611067=\\n',\n",
       " 'KATL,2015,02,04,01,52,METAR KATL 040152Z 00000KT 10SM OVC250 06/M07 A3031 RMK AO2 SLP272 T00561067=\\n',\n",
       " 'KATL,2015,02,04,02,52,METAR KATL 040252Z 00000KT 10SM OVC250 05/M07 A3030 RMK AO2 SLP270 T00501067 50006=\\n',\n",
       " ...]"
      ]
     },
     "execution_count": 4,
     "metadata": {},
     "output_type": "execute_result"
    }
   ],
   "source": [
    "met"
   ]
  },
  {
   "cell_type": "markdown",
   "metadata": {},
   "source": [
    "---\n",
    "### (2) Extracting Date info\n",
    "\n",
    "Extracting the relevant date information from the txt data into a dataframe\n",
    "\n",
    "---"
   ]
  },
  {
   "cell_type": "code",
   "execution_count": 5,
   "metadata": {},
   "outputs": [],
   "source": [
    "metar_year = []\n",
    "\n",
    "for i in met:\n",
    "    year = i.split(',')[1]\n",
    "    metar_year.append(year)"
   ]
  },
  {
   "cell_type": "code",
   "execution_count": 6,
   "metadata": {},
   "outputs": [],
   "source": [
    "metar_month = []\n",
    "\n",
    "for i in met:\n",
    "    month = i.split(',')[2]\n",
    "    metar_month.append(month)"
   ]
  },
  {
   "cell_type": "code",
   "execution_count": 7,
   "metadata": {},
   "outputs": [],
   "source": [
    "metar_day = []\n",
    "\n",
    "for i in met:\n",
    "    day = i.split(',')[3]\n",
    "    metar_day.append(day)"
   ]
  },
  {
   "cell_type": "code",
   "execution_count": 8,
   "metadata": {},
   "outputs": [],
   "source": [
    "metar_hour = []\n",
    "\n",
    "for i in met:\n",
    "    hour = i.split(',')[4]\n",
    "    metar_hour.append(hour)"
   ]
  },
  {
   "cell_type": "code",
   "execution_count": 9,
   "metadata": {},
   "outputs": [],
   "source": [
    "metar_min = []\n",
    "\n",
    "for i in met:\n",
    "    min = i.split(',')[5]\n",
    "    metar_min.append(min)"
   ]
  },
  {
   "cell_type": "code",
   "execution_count": 10,
   "metadata": {},
   "outputs": [],
   "source": [
    "date = pd.DataFrame(metar_month)"
   ]
  },
  {
   "cell_type": "code",
   "execution_count": 11,
   "metadata": {},
   "outputs": [
    {
     "data": {
      "text/html": [
       "<div>\n",
       "<style scoped>\n",
       "    .dataframe tbody tr th:only-of-type {\n",
       "        vertical-align: middle;\n",
       "    }\n",
       "\n",
       "    .dataframe tbody tr th {\n",
       "        vertical-align: top;\n",
       "    }\n",
       "\n",
       "    .dataframe thead th {\n",
       "        text-align: right;\n",
       "    }\n",
       "</style>\n",
       "<table border=\"1\" class=\"dataframe\">\n",
       "  <thead>\n",
       "    <tr style=\"text-align: right;\">\n",
       "      <th></th>\n",
       "      <th>month</th>\n",
       "    </tr>\n",
       "  </thead>\n",
       "  <tbody>\n",
       "    <tr>\n",
       "      <th>0</th>\n",
       "      <td>01</td>\n",
       "    </tr>\n",
       "    <tr>\n",
       "      <th>1</th>\n",
       "      <td>01</td>\n",
       "    </tr>\n",
       "    <tr>\n",
       "      <th>2</th>\n",
       "      <td>01</td>\n",
       "    </tr>\n",
       "    <tr>\n",
       "      <th>3</th>\n",
       "      <td>01</td>\n",
       "    </tr>\n",
       "    <tr>\n",
       "      <th>4</th>\n",
       "      <td>01</td>\n",
       "    </tr>\n",
       "  </tbody>\n",
       "</table>\n",
       "</div>"
      ],
      "text/plain": [
       "  month\n",
       "0    01\n",
       "1    01\n",
       "2    01\n",
       "3    01\n",
       "4    01"
      ]
     },
     "execution_count": 11,
     "metadata": {},
     "output_type": "execute_result"
    }
   ],
   "source": [
    "date.columns = ['month']\n",
    "date.head()"
   ]
  },
  {
   "cell_type": "code",
   "execution_count": 12,
   "metadata": {},
   "outputs": [
    {
     "data": {
      "text/plain": [
       "array(['01', '02', '03', '04', '05', '06', '07', '08', '09', '10', '11',\n",
       "       '12'], dtype=object)"
      ]
     },
     "execution_count": 12,
     "metadata": {},
     "output_type": "execute_result"
    }
   ],
   "source": [
    "date['month'].unique()"
   ]
  },
  {
   "cell_type": "code",
   "execution_count": 13,
   "metadata": {},
   "outputs": [],
   "source": [
    "date['year'] = metar_year\n",
    "date['day'] = metar_day\n",
    "date['hour'] = metar_hour\n",
    "date['min'] = metar_min"
   ]
  },
  {
   "cell_type": "code",
   "execution_count": 14,
   "metadata": {},
   "outputs": [
    {
     "data": {
      "text/plain": [
       "array(['01', '02', '03', '04', '05', '06', '07', '08', '09', '10', '11',\n",
       "       '12', '13', '14', '15', '16', '17', '18', '19', '20', '21', '22',\n",
       "       '23', '24', '25', '26', '27', '28', '29', '30', '31'], dtype=object)"
      ]
     },
     "execution_count": 14,
     "metadata": {},
     "output_type": "execute_result"
    }
   ],
   "source": [
    "date['day'].unique()"
   ]
  },
  {
   "cell_type": "code",
   "execution_count": 15,
   "metadata": {},
   "outputs": [
    {
     "data": {
      "text/plain": [
       "array(['00', '01', '02', '03', '04', '05', '06', '07', '08', '09', '10',\n",
       "       '11', '12', '13', '14', '15', '16', '17', '18', '19', '20', '21',\n",
       "       '22', '23'], dtype=object)"
      ]
     },
     "execution_count": 15,
     "metadata": {},
     "output_type": "execute_result"
    }
   ],
   "source": [
    "date['hour'].unique()"
   ]
  },
  {
   "cell_type": "code",
   "execution_count": 16,
   "metadata": {},
   "outputs": [
    {
     "data": {
      "text/plain": [
       "array(['52', '45', '22', '47', '34', '30', '26', '57', '00', '18', '08',\n",
       "       '11', '01', '35', '19', '37', '28', '15', '12', '21', '16', '29',\n",
       "       '42', '07', '20', '46', '17', '48', '44', '59', '43', '33', '24',\n",
       "       '49', '05', '10', '25', '06', '39', '04', '14', '38', '50', '32',\n",
       "       '54', '40', '02', '23', '13', '31', '56', '27', '03', '58', '41',\n",
       "       '36', '55', '09', '53'], dtype=object)"
      ]
     },
     "execution_count": 16,
     "metadata": {},
     "output_type": "execute_result"
    }
   ],
   "source": [
    "date['min'].unique()"
   ]
  },
  {
   "cell_type": "code",
   "execution_count": 17,
   "metadata": {
    "scrolled": true
   },
   "outputs": [
    {
     "data": {
      "text/html": [
       "<div>\n",
       "<style scoped>\n",
       "    .dataframe tbody tr th:only-of-type {\n",
       "        vertical-align: middle;\n",
       "    }\n",
       "\n",
       "    .dataframe tbody tr th {\n",
       "        vertical-align: top;\n",
       "    }\n",
       "\n",
       "    .dataframe thead th {\n",
       "        text-align: right;\n",
       "    }\n",
       "</style>\n",
       "<table border=\"1\" class=\"dataframe\">\n",
       "  <thead>\n",
       "    <tr style=\"text-align: right;\">\n",
       "      <th></th>\n",
       "      <th>month</th>\n",
       "      <th>year</th>\n",
       "      <th>day</th>\n",
       "      <th>hour</th>\n",
       "      <th>min</th>\n",
       "    </tr>\n",
       "  </thead>\n",
       "  <tbody>\n",
       "    <tr>\n",
       "      <th>0</th>\n",
       "      <td>01</td>\n",
       "      <td>2015</td>\n",
       "      <td>01</td>\n",
       "      <td>00</td>\n",
       "      <td>52</td>\n",
       "    </tr>\n",
       "    <tr>\n",
       "      <th>1</th>\n",
       "      <td>01</td>\n",
       "      <td>2015</td>\n",
       "      <td>01</td>\n",
       "      <td>01</td>\n",
       "      <td>52</td>\n",
       "    </tr>\n",
       "    <tr>\n",
       "      <th>2</th>\n",
       "      <td>01</td>\n",
       "      <td>2015</td>\n",
       "      <td>01</td>\n",
       "      <td>02</td>\n",
       "      <td>52</td>\n",
       "    </tr>\n",
       "    <tr>\n",
       "      <th>3</th>\n",
       "      <td>01</td>\n",
       "      <td>2015</td>\n",
       "      <td>01</td>\n",
       "      <td>03</td>\n",
       "      <td>52</td>\n",
       "    </tr>\n",
       "    <tr>\n",
       "      <th>4</th>\n",
       "      <td>01</td>\n",
       "      <td>2015</td>\n",
       "      <td>01</td>\n",
       "      <td>04</td>\n",
       "      <td>52</td>\n",
       "    </tr>\n",
       "  </tbody>\n",
       "</table>\n",
       "</div>"
      ],
      "text/plain": [
       "  month  year day hour min\n",
       "0    01  2015  01   00  52\n",
       "1    01  2015  01   01  52\n",
       "2    01  2015  01   02  52\n",
       "3    01  2015  01   03  52\n",
       "4    01  2015  01   04  52"
      ]
     },
     "execution_count": 17,
     "metadata": {},
     "output_type": "execute_result"
    }
   ],
   "source": [
    "date.head()"
   ]
  },
  {
   "cell_type": "markdown",
   "metadata": {},
   "source": [
    "---\n",
    "### (3) Extracting METAR data\n",
    "\n",
    "Extracting the relevant METAR data from the txt data into a dataframe\n",
    "\n",
    "---"
   ]
  },
  {
   "cell_type": "code",
   "execution_count": 18,
   "metadata": {},
   "outputs": [],
   "source": [
    "metar_only_data = []\n",
    "\n",
    "for i in met:\n",
    "    wx = i.split(',')[6]\n",
    "    metar_only_data.append(wx)    "
   ]
  },
  {
   "cell_type": "code",
   "execution_count": 19,
   "metadata": {},
   "outputs": [
    {
     "data": {
      "text/plain": [
       "['METAR KATL 010052Z 33005KT 10SM FEW200 SCT250 05/01 A3037 RMK AO2 SLP289 T00500006=\\n',\n",
       " 'METAR KATL 010152Z 31004KT 10SM FEW250 04/00 A3037 RMK AO2 SLP290 T00440000=\\n',\n",
       " 'METAR KATL 010252Z 00000KT 10SM FEW250 04/00 A3036 RMK AO2 SLP285 T00440000 58001=\\n',\n",
       " 'METAR KATL 010352Z 32005KT 10SM FEW250 03/M01 A3037 RMK AO2 SLP289 T00331006=\\n',\n",
       " 'METAR KATL 010452Z 32006KT 10SM BKN200 03/M01 A3035 RMK AO2 SLP283 T00281011 401060028=\\n',\n",
       " 'METAR KATL 010552Z 33004KT 10SM BKN200 03/M02 A3034 RMK AO2 SLP280 T00281017 10061 20028 58005=\\n',\n",
       " 'METAR KATL 010652Z 32006KT 10SM FEW200 SCT250 02/M02 A3035 RMK AO2 SLP281 T00221017=\\n',\n",
       " 'METAR KATL 010752Z 33005KT 10SM FEW250 02/M02 A3034 RMK AO2 SLP280 T00171022=\\n',\n",
       " 'METAR KATL 010852Z 00000KT 10SM FEW200 02/M03 A3032 RMK AO2 SLP274 T00171033 58006=\\n',\n",
       " 'METAR KATL 010952Z 33007KT 10SM FEW200 01/M03 A3031 RMK AO2 SLP270 T00111028=\\n',\n",
       " 'METAR KATL 011052Z 31003KT 10SM FEW250 01/M03 A3030 RMK AO2 SLP268 T00061033=\\n',\n",
       " 'METAR KATL 011152Z 31006KT 10SM FEW250 00/M03 A3032 RMK AO2 SLP276 T00001033 10028 20000 53000=\\n',\n",
       " 'METAR KATL 011252Z 00000KT 10SM FEW150 SCT200 SCT250 00/M03 A3033 RMK AO2 SLP280 T00001033=\\n',\n",
       " 'METAR KATL 011352Z 00000KT 10SM FEW150 SCT200 SCT250 03/M02 A3033 RMK AO2 SLP276 T00281022=\\n',\n",
       " 'METAR KATL 011452Z 00000KT 10SM FEW150 SCT200 BKN250 06/M03 A3034 RMK AO2 SLP280 T00611028 53005=\\n',\n",
       " 'METAR KATL 011552Z 31004KT 10SM FEW150 BKN230 08/M03 A3036 RMK AO2 SLP285 T00831028=\\n',\n",
       " 'METAR KATL 011652Z VRB03KT 10SM FEW090 BKN230 10/M06 A3031 RMK AO2 SLP270 T01001061=\\n',\n",
       " 'METAR KATL 011752Z 26003KT 10SM BKN065 BKN230 12/M06 A3028 RMK AO2 SLP258 T01171061 10122 20000 58020=\\n',\n",
       " 'METAR KATL 011852Z 29004KT 10SM BKN065 BKN230 13/M04 A3027 RMK AO2 SLP254 T01331039=\\n',\n",
       " 'METAR KATL 011952Z 30003KT 10SM BKN065 BKN230 14/M03 A3025 RMK AO2 SLP247 T01391033=\\n',\n",
       " 'METAR KATL 012052Z VRB03KT 10SM BKN065 OVC230 13/M03 A3026 RMK AO2 SLP250 T01331028 55008=\\n',\n",
       " 'METAR KATL 012152Z 28005KT 10SM BKN065 OVC230 12/M01 A3026 RMK AO2 SLP253 T01221011=\\n',\n",
       " 'METAR KATL 012252Z 30006KT 10SM FEW065 BKN150 OVC200 12/M01 A3027 RMK AO2 SLP254 VIRGA SW T01171011=\\n',\n",
       " 'METAR KATL 012352Z 00000KT 10SM BKN070 BKN130 BKN200 11/M01 A3028 RMK AO2 SLP258 VIRGA SW-W T01111011 10144 20111 53007=\\n',\n",
       " 'METAR KATL 020052Z 33007KT 10SM -RA FEW070 BKN100 OVC120 10/01 A3031 RMK AO2 RAB20 SLP270 P0000 T01000006=\\n',\n",
       " 'METAR KATL 020152Z 33007KT 10SM -RA BKN090 OVC110 08/01 A3033 RMK AO2 SLP275 P0000 T00830006=\\n',\n",
       " 'METAR KATL 020252Z 34004KT 10SM -RA BKN085 OVC100 07/03 A3035 RMK AO2 SLP282 P0001 60001 T00720028 51023=\\n',\n",
       " 'METAR KATL 020352Z 34005KT 10SM -RA BKN085 OVC100 06/02 A3033 RMK AO2 SLP276 P0004 T00610022=\\n',\n",
       " 'METAR KATL 020452Z 35006KT 10SM -RA FEW070 BKN090 OVC140 06/02 A3031 RMK AO2 SLP268 P0002 T00610022 401440000=\\n',\n",
       " 'METAR KATL 020552Z 03005KT 10SM FEW100 BKN150 OVC200 07/03 A3027 RMK AO2 RAE09 SLP254 P0000 60007 T00670033 10117 20061 58024=\\n',\n",
       " 'METAR KATL 020652Z 00000KT 10SM SCT090 BKN180 OVC250 07/03 A3027 RMK AO2 SLP251 T00670028=\\n',\n",
       " 'METAR KATL 020752Z 00000KT 10SM -RA BKN090 OVC180 07/04 A3026 RMK AO2 RAB49 SLP248 PCPN VRY LGT P0000 T00670039=\\n',\n",
       " 'METAR KATL 020852Z 00000KT 10SM -RA FEW050 BKN085 BKN110 OVC180 07/05 A3027 RMK AO2 RAE21B43 SLP252 P0000 60000 T00670050 55002=\\n',\n",
       " 'METAR KATL 020952Z 00000KT 10SM SCT055 BKN080 OVC110 07/05 A3026 RMK AO2 RAE46 SLP249 P0000 T00670050=\\n',\n",
       " 'METAR KATL 021052Z 00000KT 9SM -RA BKN065 OVC110 07/05 A3027 RMK AO2 RAB11E20B36 SLP253 P0000 T00670050=\\n',\n",
       " 'METAR KATL 021152Z 20003KT 6SM -RA BR SCT085 OVC110 07/05 A3025 RMK AO2 SLP247 P0003 60003 70010 T00670050 10072 20061 58005=\\n',\n",
       " 'METAR KATL 021252Z 30004KT 6SM -RA BR BKN050 BKN085 OVC110 07/06 A3029 RMK AO2 RAE18B46 SLP261 P0000 T00720056=\\n',\n",
       " 'METAR KATL 021352Z 15003KT 8SM -RA FEW008 SCT055 BKN100 OVC200 07/06 A3028 RMK AO2 SLP260 PCPN VRY LGT P0005 T00720061=\\n',\n",
       " 'METAR KATL 021452Z 33006KT 9SM FEW008 SCT110 BKN130 OVC180 08/06 A3032 RMK AO2 RAE1353B21E35 SLP272 VIRGA OHD-NE-SE P0000 60005 T00830061 51022=\\n',\n",
       " 'METAR KATL 021552Z 04004KT 10SM -RA FEW050 SCT090 BKN110 OVC150 09/06 A3033 RMK AO2 RAB02E24B51 SLP273 P0001 T00940061=\\n',\n",
       " 'METAR KATL 021652Z COR 00000KT 6SM -RA BR FEW020 SCT050 OVC100 08/07 A3032 RMK AO2 SLP273 P0002 T00830072=\\n',\n",
       " 'METAR KATL 021752Z 00000KT 4SM -RA BR FEW020 BKN030 OVC100 09/07 A3029 RMK AO2 SLP260 P0006 60014 T00890072 10094 20067 58012=\\n',\n",
       " 'SPECI KATL 021845Z 09005KT 6SM -RA BR BKN014 BKN065 OVC110 09/07 A3025 RMK AO2 P0001=\\n',\n",
       " 'METAR KATL 021852Z 06003KT 6SM -RA BR SCT007 BKN014 OVC110 09/07 A3027 RMK AO2 SLP252 P0001 T00940072=\\n',\n",
       " 'SPECI KATL 021922Z 33007KT 2 1/2SM +RA BR SCT005 OVC014 09/08 A3029 RMK AO2 P0005=\\n',\n",
       " 'SPECI KATL 021947Z 04004KT 2SM R09R/3500VP6000FT +RA BR FEW007 BKN016 OVC040 09/07 A3029 RMK AO2 TWR VIS 2 1/2 P0017=\\n',\n",
       " 'METAR KATL 021952Z 04006KT 2SM R09R/4000VP6000FT +RA BR FEW007 BKN016 OVC040 09/07 A3028 RMK AO2 TWR VIS 2 1/2 SLP258 P0023 T00890072=\\n',\n",
       " 'SPECI KATL 022034Z 07010KT 3SM -RA BR BKN014 BKN050 OVC095 09/07 A3025 RMK AO2 SFC VIS 5 PRESFR P0011=\\n',\n",
       " 'METAR KATL 022052Z 03007KT 3SM -RA BR SCT006 BKN014 OVC090 09/07 A3029 RMK AO2 SFC VIS 5 PRESRR SLP263 P0012 60036 T00890072 51009=\\n',\n",
       " 'SPECI KATL 022130Z 05007KT 3SM -RA BR SCT005 BKN022 OVC045 09/07 A3028 RMK AO2 SFC VIS 6 P0001=\\n',\n",
       " 'METAR KATL 022152Z 07006KT 3SM BR SCT008 OVC022 09/07 A3029 RMK AO2 SFC VIS 6 RAE39 SLP260 P0001 T00890067=\\n',\n",
       " 'METAR KATL 022252Z 11004KT 6SM -RA BR FEW006 BKN020 OVC060 09/07 A3029 RMK AO2 RAB03 SLP261 P0001 T00890072=\\n',\n",
       " 'SPECI KATL 022326Z 09004KT 6SM -RA BR FEW005 SCT018 OVC060 09/07 A3028 RMK AO2 P0001=\\n',\n",
       " 'METAR KATL 022352Z 00000KT 8SM -RA FEW005 SCT010 OVC060 09/08 A3029 RMK AO2 SLP262 P0001 60039 T00890078 10094 20083 55001=\\n',\n",
       " 'METAR KATL 030052Z 11006KT 4SM -RA BR SCT004 BKN010 OVC080 09/08 A3027 RMK AO2 SLP254 P0016 T00890078=\\n',\n",
       " 'SPECI KATL 030057Z 12005KT 2SM -RA BR BKN004 BKN010 OVC080 09/08 A3027 RMK AO2 SFC VIS 6 P0000=\\n',\n",
       " 'METAR KATL 030152Z 14006KT 2SM RA BR SCT004 BKN008 OVC050 09/07 A3029 RMK AO2 SFC VIS 3 SLP262 P0013 T00890072=\\n',\n",
       " 'METAR KATL 030252Z 13006KT 2SM -RA BR BKN004 OVC015 08/07 A3028 RMK AO2 SFC VIS 5 SLP258 CIG 002V005 P0010 60039 T00830072 56003=\\n',\n",
       " 'SPECI KATL 030300Z 13006KT 1SM -RA BR BKN004 OVC015 09/08 A3028 RMK AO2 SFC VIS 5 CIG 002V005 P0000=\\n',\n",
       " 'SPECI KATL 030318Z 13007KT 5SM BR FEW003 SCT015 OVC050 09/08 A3028 RMK AO2 RAE18 P0000=\\n',\n",
       " 'METAR KATL 030352Z 12006KT 10SM FEW003 SCT015 OVC040 09/07 A3028 RMK AO2 RAE18 SLP257 P0000 T00890072=\\n',\n",
       " 'METAR KATL 030452Z 11006KT 10SM FEW015 BKN035 OVC060 09/07 A3027 RMK AO2 SLP253 T00890072 400940061=\\n',\n",
       " 'SPECI KATL 030508Z 11007KT 10SM BKN015 BKN035 OVC050 09/07 A3027 RMK AO2=\\n',\n",
       " 'METAR KATL 030552Z 10005KT 10SM BKN012 OVC040 09/07 A3027 RMK AO2 SLP252 60039 T00940072 10094 20083 57005=\\n',\n",
       " 'METAR KATL 030652Z 12007KT 10SM OVC010 09/07 A3026 RMK AO2 SLP248 T00940072=\\n',\n",
       " 'SPECI KATL 030711Z 11008KT 10SM OVC009 09/07 A3025 RMK AO2=\\n',\n",
       " 'METAR KATL 030752Z 11006KT 4SM BR OVC005 09/08 A3024 RMK AO2 SLP244 T00890078=\\n',\n",
       " 'SPECI KATL 030801Z 10007KT 2SM -DZ BR OVC004 09/08 A3025 RMK AO2 DZB00 P0000=\\n',\n",
       " 'SPECI KATL 030822Z 10007KT 1 1/2SM -DZ BR OVC004 09/08 A3024 RMK AO2 DZB00 CIG 003V005 P0000=\\n',\n",
       " 'SPECI KATL 030835Z 10008KT 2 1/2SM -RA BR OVC004 09/08 A3024 RMK AO2 DZB00E33RAB33 CIG 003V005 P0001=\\n',\n",
       " 'METAR KATL 030852Z 10006KT 2 1/2SM -DZ BR OVC004 09/08 A3024 RMK AO2 DZB00E33B52RAB33E52 SLP243 CIG 003V005 P0001 60001 T00890078 56009=\\n',\n",
       " 'SPECI KATL 030919Z 12007KT 3SM -DZ BR OVC004 09/08 A3023 RMK AO2 DZE0859B19RAB0859E18 CIG 003V005 P0000=\\n',\n",
       " 'SPECI KATL 030947Z 11008KT 1/2SM -DZ BR OVC003 09/08 A3022 RMK AO2 SFC VIS 2 DZE0859B19RAB0859E18 TWRINC P0001=\\n',\n",
       " 'METAR KATL 030952Z 11009KT 1/2SM -DZ BR OVC003 09/08 A3022 RMK AO2 SFC VIS 2 DZE0859B19RAB0859E18 SLP236 TWRINC P0001 T00940083=\\n',\n",
       " 'METAR KATL 031052Z 10008KT 1/2SM R09R/3500VP6000FT -DZ BR VV002 09/08 A3023 RMK AO2 SFC VIS 3/4 SLP237 TWRINC P0000 T00940083=\\n',\n",
       " 'METAR KATL 031152Z 09009KT 1/2SM -DZ BR OVC003 09/09 A3023 RMK AO2 SFC VIS 1 3/4 SLP237 TWRINC P0001 60003 70095 T00940089 10094 20089 56005=\\n',\n",
       " 'METAR KATL 031252Z 11007KT 1/2SM -DZ BR OVC003 10/09 A3024 RMK AO2 SFC VIS 4 DZE1154B48RAB1154E48 SLP241 TWRINC P0000 T01000089=\\n',\n",
       " 'SPECI KATL 031337Z 11008KT 1/2SM R09R/6000VP6000FT -DZ BR OVC003 10/09 A3024 RMK AO2 SFC VIS 1 1/4 P0000=\\n',\n",
       " 'METAR KATL 031352Z 11008KT 1/2SM -DZ BR OVC003 10/09 A3024 RMK AO2 SFC VIS 1 1/4 RAB42E52 SLP244 P0000 T01000089=\\n',\n",
       " 'METAR KATL 031452Z 10009KT 1/2SM -DZ BR OVC003 10/09 A3025 RMK AO2 SFC VIS 1 1/2 SLP245 TWRINC P0001 60001 T01000094 51008=\\n',\n",
       " 'METAR KATL 031552Z 12010KT 1/2SM R09R/3500V4500FT -RA FG OVC002 11/10 A3024 RMK AO2 DZE49RAB49 SLP242 P0000 T01060100=\\n',\n",
       " 'METAR KATL 031652Z 12009KT 1/2SM -RA BR OVC003 11/10 A3021 RMK AO2 SFC VIS 1 3/4 RAE15B49DZB16E49 SLP233 TWRINC P0000 T01110100=\\n',\n",
       " 'METAR KATL 031752Z 12008KT 1/2SM -DZ BR OVC003 11/11 A3019 RMK AO2 SFC VIS 2 RAE08DZB49 SLP223 TWRINC P0001 60002 T01110106 10111 20094 58021=\\n',\n",
       " 'METAR KATL 031852Z 11008KT 1/2SM BR OVC002 12/11 A3016 RMK AO2 SFC VIS 1 3/4 DZE22 SLP213 TWRINC P0000 T01170111=\\n',\n",
       " 'METAR KATL 031952Z 11006KT 1/2SM R09R/4000V5000FT -DZ BR OVC002 12/11 A3014 RMK AO2 SFC VIS 3/4 DZB04 SLP208 P0000 T01170111=\\n',\n",
       " 'METAR KATL 032052Z 11005KT 1/2SM R09R/5000V6000FT -DZ BR OVC002 12/12 A3013 RMK AO2 SFC VIS 1 SLP203 P0001 60001 T01220117 56019=\\n',\n",
       " 'METAR KATL 032152Z 09006KT 1/2SM R09R/4500VP6000FT -RA FG VV002 12/12 A3014 RMK AO2 DZE40RAB40 SLP206 P0000 T01220117=\\n',\n",
       " 'METAR KATL 032252Z 10007KT 1/2SM R09R/4000VP6000FT -DZ BR VV002 12/12 A3012 RMK AO2 SFC VIS 3/4 SLP200 RAE33DZB33 P0001 T01220117=\\n',\n",
       " 'METAR KATL 032352Z 11008KT 1/2SM R09R/3000V4500FT FG VV002 12/12 A3012 RMK AO2 DZE48 SLP199 P0000 60002 T01220117 10122 20111 58003=\\n',\n",
       " 'METAR KATL 040052Z 12007KT 1/2SM R09R/2200V3500FT FG VV002 12/12 A3011 RMK AO2 SLP198 T01220117=\\n',\n",
       " 'METAR KATL 040152Z 13006KT 1/2SM R09R/2400V2800FT FG VV002 13/12 A3012 RMK AO2 SLP199 T01280122=\\n',\n",
       " 'SPECI KATL 040219Z 14006KT 1/2SM R09R/1800V2200FT FG VV002 13/12 A3010 RMK AO2=\\n',\n",
       " 'SPECI KATL 040228Z 14006KT 1/2SM R09R/1800V3500FT FG VV002 13/13 A3010 RMK AO2=\\n',\n",
       " 'METAR KATL 040252Z 14007KT 1/2SM R09R/1800V2200FT FG VV002 13/13 A3011 RMK AO2 SLP196 T01280128 58003=\\n',\n",
       " 'SPECI KATL 040315Z 11004KT 1/2SM R09R/2000V3000FT -RA FG VV002 13/13 A3010 RMK AO2 RAB0256 P0002=\\n',\n",
       " 'METAR KATL 040352Z 13006KT 3/4SM RA BR BKN002 OVC005 14/13 A3008 RMK AO2 SFC VIS 2 1/2 RAB0256 SLP187 P0008 T01390133=\\n',\n",
       " 'METAR KATL 040452Z 18008KT 3/4SM R09R/5000VP6000FT BR OVC002 16/16 A3008 RMK AO2 RAE20 SLP186 P0001 T01610156 401610089=\\n',\n",
       " 'SPECI KATL 040512Z 20007KT 1SM BR BKN003 OVC008 17/17 A3008 RMK AO2 SFC VIS 3=\\n',\n",
       " 'SPECI KATL 040521Z 20008KT 3SM BR OVC006 18/17 A3008 RMK AO2 SFC VIS 5=\\n',\n",
       " 'METAR KATL 040552Z 20008KT 6SM BR BKN007 OVC018 18/17 A3008 RMK AO2 RAB28E37 SLP183 P0001 60010 T01780172 10178 20122 56010=\\n',\n",
       " 'METAR KATL 040652Z 17005KT 6SM BR BKN007 BKN012 OVC019 18/17 A3007 RMK AO2 SLP182 CIG 006V010 T01780172=\\n',\n",
       " 'METAR KATL 040752Z 17006KT 6SM BR BKN007 BKN016 OVC024 18/17 A3006 RMK AO2 SLP178 T01780172=\\n',\n",
       " 'METAR KATL 040852Z 16005KT 5SM -RA BR BKN007 BKN019 OVC120 18/17 A3004 RMK AO2 RAB49 SLP170 P0000 60000 T01780167 58012=\\n',\n",
       " 'SPECI KATL 040911Z 17005KT 5SM -RA BR SCT007 BKN018 OVC024 18/17 A3004 RMK AO2 P0000=\\n',\n",
       " 'SPECI KATL 040926Z 16005KT 3SM RA BR BKN007 OVC018 18/17 A3003 RMK AO2 P0002=\\n',\n",
       " 'METAR KATL 040952Z 13004KT 5SM -RA BR BKN006 OVC018 18/17 A3002 RMK AO2 SLP162 P0005 T01780172=\\n',\n",
       " 'SPECI KATL 041012Z VRB06G19KT 1/2SM R09R/2200VP6000FT +RA FG BKN006 OVC015 18/17 A3003 RMK AO2 P0005=\\n',\n",
       " 'SPECI KATL 041016Z 28015G21KT 1SM R09R/2200VP6000FT +TSRA BR BKN004 BKN008CB OVC018 18/17 A3001 RMK AO2 TSB16 OCNL LTGIC OHD-ALQDS TS OHD-ALQDS MOV NE P0033=\\n',\n",
       " 'SPECI KATL 041029Z 25010G21KT 7SM -TSRA SCT004 BKN011CB OVC025 19/17 A3002 RMK AO2 TSB16 OCNL LTGICCG NE & SE-SW TS NE & VC SE-SW MOV NE P0064=\\n',\n",
       " 'SPECI KATL 041042Z 28020G29KT 1/2SM R09R/2600VP6000FT +TSRA FG BKN005 BKN015CB OVC025 18/17 A3006 RMK AO2 PK WND 30029/1042 TSB16 PRESRR OCNL LTGICCG ALQDS TS ALQDS MOV NE P0079 $=\\n',\n",
       " 'METAR KATL 041052Z 24012G20KT 2SM +TSRA BR FEW005 SCT019CB OVC027 17/15 A3005 RMK AO2 PK WND 30029/1042 TSB16 SLP173 OCNL LTGICCG OHD-NE-SE-S TS OHD-NE-SE-S MOV NE P0117 T01670150 $=\\n',\n",
       " 'SPECI KATL 041101Z 24007KT 4SM TSRA BR SCT005 BKN029CB OVC075 17/15 A3005 RMK AO2 FRQ LTGICCG NE-SE-S TS NE-SE-S MOV NE P0003 $=\\n',\n",
       " 'SPECI KATL 041107Z 21006KT 6SM TSRA BR SCT005 SCT029CB OVC080 17/16 A3005 RMK AO2 OCNL LTGICCG NE-SE-S TS VC NE-SE-S MOV NE P0005 $=\\n',\n",
       " 'SPECI KATL 041120Z 20007KT 4SM RA BR BKN006 BKN026 OVC090 17/16 A3005 RMK AO2 TSE20 TS MOV E P0010 $=\\n',\n",
       " 'SPECI KATL 041146Z 20009KT 4SM RA BR FEW005 OVC080 16/15 A3006 RMK AO2 TSE20 TS MOV E P0021 $=\\n',\n",
       " 'METAR KATL 041152Z 20007KT 4SM RA BR FEW005 SCT045 OVC080 16/15 A3006 RMK AO2 TSE20 SLP176 TS MOV E P0022 60144 70158 T01610150 10189 20161 50013 $=\\n',\n",
       " 'METAR KATL 041252Z 19005KT 5SM -RA BR FEW005 BKN075 OVC090 16/15 A3006 RMK AO2 SLP179 P0012 T01560150 $=\\n',\n",
       " 'SPECI KATL 041317Z 16009KT 5SM -RA BR BKN007 BKN080 OVC095 16/15 A3005 RMK AO2 P0003 $=\\n',\n",
       " 'SPECI KATL 041328Z 17007KT 2SM -RA BR BKN005 BKN080 OVC095 16/15 A3006 RMK AO2 SFC VIS 6 CIG 003V007 TWRINC P0003 $=\\n',\n",
       " 'METAR KATL 041352Z 20007KT 2SM -RA BR BKN005 BKN075 OVC100 16/15 A3008 RMK AO2 SFC VIS 4 SLP183 CIG 003V007 TWRINC P0006 T01560150 $=\\n',\n",
       " 'SPECI KATL 041401Z 18008KT 5SM -RA BR BKN005 BKN045 OVC110 16/15 A3006 RMK AO2 P0000 $=\\n',\n",
       " 'SPECI KATL 041411Z 18008KT 6SM -RA BR FEW005 BKN045 OVC100 16/15 A3007 RMK AO2 P0001 $=\\n',\n",
       " 'SPECI KATL 041448Z 20008KT 10SM FEW005 BKN010 BKN032 16/15 A3008 RMK AO2 RAE21 P0001 $=\\n',\n",
       " 'METAR KATL 041452Z 19008KT 10SM SCT005 BKN009 BKN034 16/15 A3007 RMK AO2 RAE21 SLP179 P0001 60019 T01610150 50001 $=\\n',\n",
       " 'SPECI KATL 041544Z 23005KT 8SM -RA FEW008 OVC012 16/15 A3007 RMK AO2 RAB37 P0000 $=\\n',\n",
       " 'METAR KATL 041552Z 25005KT 8SM -RA SCT008 OVC012 16/15 A3007 RMK AO2 RAB37 SLP181 P0000 T01610150 $=\\n',\n",
       " 'SPECI KATL 041559Z 24006KT 9SM -RA BKN008 OVC012 16/15 A3008 RMK AO2 P0000 $=\\n',\n",
       " 'SPECI KATL 041643Z 24010KT 10SM SCT006 BKN011 OVC160 16/14 A3007 RMK AO2 RAE10 P0000 $=\\n',\n",
       " 'METAR KATL 041652Z 24008KT 10SM FEW008 SCT013 OVC160 16/14 A3007 RMK AO2 RAE10 SLP179 P0000 T01610144 $=\\n',\n",
       " 'METAR KATL 041752Z 24010KT 10SM BKN018 BKN033 BKN150 17/14 A3006 RMK AO2 SLP176 60019 T01670139 10167 20156 58000=\\n',\n",
       " 'SPECI KATL 041837Z 25008KT 10SM SCT023 BKN200 18/13 A3007 RMK AO2=\\n',\n",
       " 'METAR KATL 041852Z 24009G17KT 10SM FEW020 SCT033 BKN200 18/13 A3006 RMK AO2 SLP175 T01780128=\\n',\n",
       " 'METAR KATL 041952Z 26013G21KT 10SM SCT023 BKN200 17/11 A3008 RMK AO2 SLP182 T01670111=\\n',\n",
       " 'METAR KATL 042052Z 26012G21KT 10SM FEW035 SCT150 BKN250 16/04 A3012 RMK AO2 PK WND 29027/2026 SLP197 T01560044 53019=\\n',\n",
       " 'METAR KATL 042152Z 27014G19KT 10SM FEW032 BKN250 14/06 A3016 RMK AO2 SLP210 T01390056=\\n',\n",
       " 'METAR KATL 042252Z 29016G20KT 10SM FEW037 BKN180 OVC250 13/05 A3020 RMK AO2 SLP226 T01280050=\\n',\n",
       " 'METAR KATL 042352Z 30015G20KT 10SM FEW030 BKN180 OVC250 10/03 A3024 RMK AO2 SLP238 T01000033 10183 20100 51038=\\n',\n",
       " 'SPECI KATL 050033Z 30009KT 10SM BKN029 OVC250 09/04 A3026 RMK AO2=\\n',\n",
       " 'METAR KATL 050052Z 31014G21KT 10SM BKN027 OVC250 09/03 A3027 RMK AO2 SLP251 T00890028=\\n',\n",
       " 'SPECI KATL 050124Z 29015G21KT 10SM SCT029 OVC230 08/02 A3028 RMK AO2=\\n',\n",
       " 'METAR KATL 050152Z 29013G18KT 10SM FEW029 OVC230 08/02 A3030 RMK AO2 SLP263 T00780017=\\n',\n",
       " 'METAR KATL 050252Z 29013G19KT 10SM FEW029 OVC230 07/02 A3031 RMK AO2 SLP266 T00720017 51024=\\n',\n",
       " 'METAR KATL 050352Z 29014G20KT 10SM FEW030 BKN240 07/02 A3033 RMK AO2 SLP272 T00670022=\\n',\n",
       " 'METAR KATL 050452Z 30015G20KT 10SM FEW030 BKN240 07/02 A3033 RMK AO2 SLP273 T00670022 401890067=\\n',\n",
       " 'METAR KATL 050552Z 31013G21KT 10SM FEW030 SCT050 OVC250 06/01 A3034 RMK AO2 SLP276 T00610011 10100 20061 51009=\\n',\n",
       " 'SPECI KATL 050624Z 32015G20KT 10SM BKN028 BKN250 06/01 A3034 RMK AO2=\\n',\n",
       " 'SPECI KATL 050647Z 32011G19KT 10SM BKN030 BKN250 06/02 A3034 RMK AO2=\\n',\n",
       " 'METAR KATL 050652Z 32011KT 10SM BKN030 BKN250 06/02 A3035 RMK AO2 SLP276 T00610017=\\n',\n",
       " 'METAR KATL 050752Z 32011G18KT 10SM FEW030 BKN250 06/01 A3036 RMK AO2 SLP281 T00560011=\\n',\n",
       " 'SPECI KATL 050849Z 33015KT 10SM BKN026 BKN250 05/01 A3036 RMK AO2=\\n',\n",
       " 'METAR KATL 050852Z 33014KT 10SM BKN026 BKN250 05/01 A3036 RMK AO2 SLP283 T00500006 51007=\\n',\n",
       " 'METAR KATL 050952Z 33019G29KT 10SM BKN024 04/M01 A3037 RMK AO2 PK WND 32029/0945 SLP288 BKN024 V SCT T00441011=\\n',\n",
       " 'METAR KATL 051052Z 33014G21KT 10SM BKN024 04/M01 A3040 RMK AO2 PK WND 32028/1010 SLP298 T00441011=\\n',\n",
       " 'SPECI KATL 051105Z 34013G21KT 10SM SCT024 04/M01 A3040 RMK AO2 SCT024 V BKN=\\n',\n",
       " 'METAR KATL 051152Z COR 33013KT 10SM FEW024 04/M02 A3041 RMK AO2 SLP304 70019 T00391017 10061 20039 53018=\\n',\n",
       " 'METAR KATL 051252Z 34012KT 10SM FEW024 SCT200 BKN250 03/M02 A3045 RMK AO2 SLP317 T00281022=\\n',\n",
       " 'METAR KATL 051352Z 33010G21KT 10SM FEW200 BKN250 03/M02 A3048 RMK AO2 SLP327 T00331022=\\n',\n",
       " 'METAR KATL 051452Z 33014G22KT 10SM BKN250 04/M03 A3052 RMK AO2 SLP341 T00391033 53035=\\n',\n",
       " 'METAR KATL 051552Z 32014KT 10SM FEW250 04/M04 A3053 RMK AO2 SLP344 T00441044=\\n',\n",
       " 'METAR KATL 051652Z 34010KT 10SM FEW250 06/M04 A3051 RMK AO2 SLP338 T00611044=\\n',\n",
       " 'METAR KATL 051752Z 33013G20KT 10SM FEW250 07/M04 A3048 RMK AO2 SLP328 T00671044 10072 20028 58012=\\n',\n",
       " 'METAR KATL 051852Z 33012KT 10SM SCT250 08/M05 A3047 RMK AO2 SLP322 T00781050=\\n',\n",
       " 'METAR KATL 051952Z 32009KT 10SM SCT250 08/M06 A3046 RMK AO2 SLP318 T00831061=\\n',\n",
       " 'METAR KATL 052052Z 33010KT 10SM SCT250 09/M07 A3045 RMK AO2 SLP315 T00891072 56011=\\n',\n",
       " 'METAR KATL 052152Z 34008KT 10SM BKN250 08/M07 A3045 RMK AO2 SLP317 T00831072=\\n',\n",
       " 'METAR KATL 052252Z 33008KT 10SM FEW200 BKN250 06/M07 A3045 RMK AO2 SLP315 T00611067=\\n',\n",
       " 'METAR KATL 052352Z 33008KT 10SM FEW200 BKN250 05/M06 A3044 RMK AO2 SLP315 T00501056 10089 20050 58002=\\n',\n",
       " 'METAR KATL 060052Z 34008KT 10SM FEW200 BKN250 04/M06 A3042 RMK AO2 SLP310 T00391056=\\n',\n",
       " 'METAR KATL 060152Z 35006KT 10SM BKN250 03/M06 A3042 RMK AO2 SLP307 T00331061=\\n',\n",
       " 'METAR KATL 060252Z 02006KT 10SM BKN250 03/M06 A3041 RMK AO2 SLP304 T00331056 56011=\\n',\n",
       " 'METAR KATL 060352Z 33004KT 10SM BKN250 03/M06 A3041 RMK AO2 SLP303 T00281061=\\n',\n",
       " 'METAR KATL 060452Z 31005KT 10SM BKN250 01/M05 A3040 RMK AO2 SLP302 T00111050 400890011=\\n',\n",
       " 'METAR KATL 060552Z 00000KT 10SM BKN250 01/M05 A3038 RMK AO2 SLP295 T00061050 10050 20006 58009=\\n',\n",
       " 'METAR KATL 060652Z 30003KT 10SM SCT250 01/M06 A3037 RMK AO2 SLP292 T00111056=\\n',\n",
       " 'METAR KATL 060752Z 00000KT 10SM SCT250 00/M05 A3037 RMK AO2 SLP290 T00001050=\\n',\n",
       " 'METAR KATL 060852Z 00000KT 10SM FEW250 00/M05 A3036 RMK AO2 SLP286 T00001050 58007=\\n',\n",
       " 'METAR KATL 060952Z 00000KT 10SM FEW250 M01/M05 A3034 RMK AO2 SLP283 T10111050=\\n',\n",
       " 'METAR KATL 061052Z 29004KT 10SM FEW250 M01/M05 A3035 RMK AO2 SLP287 T10111050=\\n',\n",
       " 'METAR KATL 061152Z 28006KT 10SM CLR M01/M06 A3035 RMK AO2 SLP286 T10111056 10011 21011 56002=\\n',\n",
       " 'METAR KATL 061252Z 27005KT 10SM FEW250 M01/M06 A3035 RMK AO2 SLP288 T10061061=\\n',\n",
       " 'METAR KATL 061352Z 28007KT 10SM FEW250 03/M04 A3035 RMK AO2 SLP286 T00281044=\\n',\n",
       " 'METAR KATL 061452Z 27011G19KT 10SM FEW250 06/M04 A3035 RMK AO2 SLP285 T00561039 50001=\\n',\n",
       " 'METAR KATL 061552Z 29008KT 10SM FEW250 08/M03 A3033 RMK AO2 SLP275 T00781033=\\n',\n",
       " 'METAR KATL 061652Z 30015G23KT 10SM FEW250 11/M06 A3030 RMK AO2 SLP265 T01061056=\\n',\n",
       " 'METAR KATL 061752Z 29012G20KT 10SM FEW250 11/M04 A3027 RMK AO2 SLP254 T01111044 10111 21011 58029=\\n',\n",
       " 'METAR KATL 061852Z 31017G20KT 10SM FEW250 12/M05 A3025 RMK AO2 SLP248 T01171050=\\n',\n",
       " 'METAR KATL 061952Z 30013G21KT 10SM FEW250 12/M03 A3024 RMK AO2 SLP245 T01171033=\\n',\n",
       " 'METAR KATL 062052Z 28011KT 10SM SCT250 12/M02 A3024 RMK AO2 SLP244 T01171022 56010=\\n',\n",
       " 'METAR KATL 062152Z 27009KT 10SM BKN250 11/M02 A3022 RMK AO2 SLP241 T01111022=\\n',\n",
       " 'METAR KATL 062252Z 28007KT 10SM FEW250 09/M02 A3022 RMK AO2 SLP238 T00941022=\\n',\n",
       " 'METAR KATL 062352Z 30006KT 10SM FEW250 09/M02 A3023 RMK AO2 SLP243 T00891022 10122 20089 55002=\\n',\n",
       " 'METAR KATL 070052Z 31007KT 10SM FEW250 08/M02 A3024 RMK AO2 SLP246 T00781022=\\n',\n",
       " 'METAR KATL 070152Z 30007KT 10SM FEW250 07/M02 A3023 RMK AO2 SLP244 T00671022=\\n',\n",
       " 'METAR KATL 070252Z 31011KT 10SM FEW250 06/M03 A3023 RMK AO2 SLP241 T00611028 58000=\\n',\n",
       " 'METAR KATL 070352Z 31010KT 10SM CLR 06/M03 A3023 RMK AO2 SLP241 T00561028=\\n',\n",
       " 'METAR KATL 070452Z 31010KT 10SM CLR 05/M03 A3022 RMK AO2 SLP237 T00501028 401221011=\\n',\n",
       " 'METAR KATL 070552Z 32004KT 10SM CLR 04/M03 A3022 RMK AO2 SLP236 T00391033 10089 20039 57004=\\n',\n",
       " 'METAR KATL 070652Z 32007KT 10SM CLR 03/M04 A3022 RMK AO2 SLP238 T00331039=\\n',\n",
       " 'METAR KATL 070752Z 31011KT 10SM FEW250 03/M04 A3023 RMK AO2 SLP241 T00281039=\\n',\n",
       " 'METAR KATL 070852Z 33011KT 10SM FEW250 02/M04 A3022 RMK AO2 SLP239 T00171044 50002=\\n',\n",
       " 'METAR KATL 070952Z 32012KT 10SM FEW250 01/M05 A3022 RMK AO2 SLP239 T00111050=\\n',\n",
       " 'METAR KATL 071052Z 31012KT 10SM FEW250 01/M05 A3021 RMK AO2 SLP237 T00061050=\\n',\n",
       " 'METAR KATL 071152Z 31011KT 10SM FEW150 00/M05 A3023 RMK AO2 SLP243 T00001050 10039 20000 53003=\\n',\n",
       " 'METAR KATL 071252Z 31009KT 10SM FEW120 SCT250 00/M06 A3025 RMK AO2 SLP249 T00001056=\\n',\n",
       " 'METAR KATL 071352Z 32016G24KT 10SM FEW120 SCT200 BKN250 01/M06 A3026 RMK AO2 SLP255 T00111061=\\n',\n",
       " 'METAR KATL 071452Z 32013G22KT 10SM BKN130 BKN250 02/M08 A3027 RMK AO2 PK WND 33029/1413 SLP259 T00171078 51014=\\n',\n",
       " 'METAR KATL 071552Z 33019G26KT 10SM FEW100 BKN130 BKN250 02/M07 A3027 RMK AO2 PK WND 34026/1548 SLP258 T00221067=\\n',\n",
       " 'METAR KATL 071652Z 32019KT 10SM FEW100 BKN120 BKN250 03/M07 A3025 RMK AO2 SLP251 T00281067=\\n',\n",
       " 'METAR KATL 071752Z 31017G23KT 10SM FEW100 BKN130 BKN250 03/M08 A3024 RMK AO2 PK WND 32027/1720 SLP246 T00281078 10028 20000 58013=\\n',\n",
       " 'METAR KATL 071852Z 32018KT 10SM FEW045 SCT120 BKN150 BKN250 04/M07 A3021 RMK AO2 SLP238 T00391072=\\n',\n",
       " 'METAR KATL 071952Z 34018G26KT 10SM FEW050 SCT085 SCT170 04/M08 A3025 RMK AO2 PK WND 35027/1932 SLP250 T00391078=\\n',\n",
       " 'METAR KATL 072052Z 33023G29KT 10SM FEW055 BKN075 BKN085 BKN170 01/M10 A3030 RMK AO2 PK WND 33029/2050 SLP269 T00111100 53020=\\n',\n",
       " 'METAR KATL 072152Z 34024G29KT 10SM FEW050 BKN085 BKN250 00/M11 A3034 RMK AO2 PK WND 32034/2058 SLP284 T00001111=\\n',\n",
       " 'METAR KATL 072252Z 33027G33KT 10SM FEW045 SCT090 BKN110 M01/M13 A3038 RMK AO2 PK WND 34035/2239 SLP299 T10111133=\\n',\n",
       " 'METAR KATL 072352Z 33023G29KT 10SM FEW045 BKN130 M02/M14 A3043 RMK AO2 PK WND 33037/2301 SLP315 T10221139 10044 21022 53042=\\n',\n",
       " 'METAR KATL 080052Z 35022G30KT 10SM FEW130 M04/M15 A3049 RMK AO2 PK WND 33032/0026 SLP337 T10441150=\\n',\n",
       " 'METAR KATL 080152Z 33023G29KT 10SM CLR M07/M17 A3054 RMK AO2 PK WND 33036/0056 SLP354 T10671172=\\n',\n",
       " 'METAR KATL 080252Z 35018G28KT 10SM CLR M07/M18 A3055 RMK AO2 PK WND 34029/0221 SLP359 T10721183 51041=\\n',\n",
       " 'METAR KATL 080352Z 34016G25KT 10SM CLR M08/M19 A3056 RMK AO2 PK WND 36026/0332 SLP364 T10831189=\\n',\n",
       " 'METAR KATL 080452Z 34015G22KT 10SM CLR M09/M18 A3057 RMK AO2 SLP366 T10891183 400501089=\\n',\n",
       " 'METAR KATL 080552Z 33012G18KT 10SM CLR M09/M18 A3058 RMK AO2 SLP369 T10941183 11022 21094 51010=\\n',\n",
       " 'METAR KATL 080652Z 35014G21KT 10SM CLR M10/M18 A3058 RMK AO2 SLP368 T11001183=\\n',\n",
       " 'METAR KATL 080752Z 35015KT 10SM CLR M10/M18 A3058 RMK AO2 SLP369 T11001183=\\n',\n",
       " 'METAR KATL 080852Z 36011KT 10SM CLR M11/M18 A3058 RMK AO2 SLP369 T11061183 56001=\\n',\n",
       " 'METAR KATL 080952Z 34008KT 10SM CLR M11/M18 A3056 RMK AO2 SLP365 T11111183=\\n',\n",
       " 'METAR KATL 081052Z 33008KT 10SM CLR M11/M18 A3057 RMK AO2 SLP367 T11111183=\\n',\n",
       " 'METAR KATL 081152Z 35007KT 10SM CLR M12/M18 A3057 RMK AO2 SLP367 T11171178 11094 21117 56003=\\n',\n",
       " 'METAR KATL 081252Z 03008KT 10SM FEW250 M11/M18 A3055 RMK AO2 SLP362 T11111183=\\n',\n",
       " 'METAR KATL 081352Z 04007KT 10SM FEW250 M10/M18 A3056 RMK AO2 SLP367 T11001178 $=\\n',\n",
       " 'METAR KATL 081452Z 07006KT 10SM FEW250 M08/M18 A3057 RMK AO2 SLP370 T10781183 53001=\\n',\n",
       " 'METAR KATL 081552Z 11007KT 10SM FEW250 M07/M18 A3056 RMK AO2 SLP368 T10671183=\\n',\n",
       " 'METAR KATL 081652Z 08006KT 10SM FEW250 M04/M19 A3052 RMK AO2 SLP351 T10441189=\\n',\n",
       " 'METAR KATL 081752Z 13006KT 10SM FEW250 M03/M19 A3048 RMK AO2 SLP337 T10281189 11022 21117 58030=\\n',\n",
       " 'METAR KATL 081852Z 15007KT 10SM FEW250 M02/M19 A3044 RMK AO2 SLP324 T10171189=\\n',\n",
       " 'METAR KATL 081952Z VRB04KT 10SM FEW250 M01/M18 A3046 RMK AO2 SLP331 T10061183=\\n',\n",
       " 'METAR KATL 082052Z VRB03KT 10SM FEW250 00/M18 A3044 RMK AO2 SLP324 T00001183 56012=\\n',\n",
       " 'METAR KATL 082152Z 16003KT 10SM FEW250 00/M19 A3043 RMK AO2 SLP321 T00001189=\\n',\n",
       " 'METAR KATL 082252Z 13004KT 10SM CLR M01/M18 A3041 RMK AO2 SLP313 T10061178=\\n',\n",
       " 'METAR KATL 082352Z 12003KT 10SM CLR M01/M17 A3040 RMK AO2 SLP312 T10111167 10006 21028 56013=\\n',\n",
       " 'METAR KATL 090052Z 15005KT 10SM CLR M02/M15 A3040 RMK AO2 SLP311 T10221150=\\n',\n",
       " 'METAR KATL 090152Z 17006KT 10SM CLR M03/M16 A3039 RMK AO2 SLP307 T10331156=\\n',\n",
       " 'METAR KATL 090252Z 18005KT 10SM SCT200 M03/M17 A3037 RMK AO2 SLP300 T10281167 58010=\\n',\n",
       " 'METAR KATL 090352Z 18003KT 10SM SCT200 M04/M16 A3035 RMK AO2 SLP293 T10391161=\\n',\n",
       " 'METAR KATL 090452Z 00000KT 10SM FEW200 M04/M16 A3034 RMK AO2 SLP290 T10391156 400061117=\\n',\n",
       " 'METAR KATL 090552Z 15005KT 10SM FEW200 M05/M14 A3031 RMK AO2 SLP278 T10501139 11011 21050 58021=\\n',\n",
       " 'METAR KATL 090652Z 30003KT 10SM FEW200 M04/M16 A3034 RMK AO2 SLP287 T10391156=\\n',\n",
       " 'METAR KATL 090752Z 00000KT 10SM FEW200 M05/M15 A3034 RMK AO2 SLP289 T10501150=\\n',\n",
       " 'METAR KATL 090852Z 00000KT 10SM FEW200 M05/M14 A3032 RMK AO2 SLP278 T10501144 50002=\\n',\n",
       " 'METAR KATL 090952Z 27003KT 10SM FEW200 M06/M14 A3031 RMK AO2 SLP276 T10561139=\\n',\n",
       " 'METAR KATL 091052Z 27006KT 10SM FEW250 M05/M14 A3030 RMK AO2 SLP273 T10501144=\\n',\n",
       " 'METAR KATL 091152Z 27005KT 10SM FEW250 M06/M14 A3030 RMK AO2 SLP275 T10561139 11039 21056 55004 $=\\n',\n",
       " 'METAR KATL 091252Z 27005KT 10SM FEW250 M06/M14 A3031 RMK AO2 SLP277 T10561139=\\n',\n",
       " 'METAR KATL 091352Z 27008KT 10SM FEW250 M03/M13 A3032 RMK AO2 SLP282 T10281133=\\n',\n",
       " 'METAR KATL 091452Z 29009KT 10SM FEW250 M01/M14 A3033 RMK AO2 SLP284 T10061139 53010=\\n',\n",
       " 'METAR KATL 091552Z 32012G16KT 10SM FEW250 01/M14 A3034 RMK AO2 SLP287 T00111144=\\n',\n",
       " 'METAR KATL 091652Z 32011KT 10SM FEW180 BKN250 03/M14 A3032 RMK AO2 SLP279 T00281144=\\n',\n",
       " 'METAR KATL 091752Z 32010G17KT 10SM FEW150 BKN230 BKN250 04/M13 A3029 RMK AO2 SLP267 T00391133 10044 21056 58016=\\n',\n",
       " 'METAR KATL 091852Z 33011KT 10SM SCT160 BKN230 05/M12 A3027 RMK AO2 SLP260 T00501117=\\n',\n",
       " 'METAR KATL 091952Z 31008KT 10SM SCT150 BKN200 OVC250 04/M11 A3027 RMK AO2 SLP261 T00441106=\\n',\n",
       " 'METAR KATL 092052Z 30011KT 10SM SCT150 BKN200 OVC250 04/M10 A3027 RMK AO2 SLP261 T00441100 56005=\\n',\n",
       " 'METAR KATL 092152Z 30010KT 10SM FEW150 BKN180 BKN250 04/M09 A3029 RMK AO2 SLP268 T00391094=\\n',\n",
       " 'METAR KATL 092252Z 32009KT 10SM FEW150 BKN200 BKN250 02/M11 A3031 RMK AO2 SLP275 T00221106=\\n',\n",
       " 'METAR KATL 092352Z 30007KT 10SM BKN200 BKN250 02/M10 A3034 RMK AO2 SLP285 T00171100 10050 20017 53021=\\n',\n",
       " 'METAR KATL 100052Z 29007KT 10SM BKN200 BKN250 01/M10 A3034 RMK AO2 SLP288 T00111100=\\n',\n",
       " 'METAR KATL 100152Z 31007KT 10SM SCT200 BKN250 01/M10 A3035 RMK AO2 SLP288 T00061100=\\n',\n",
       " 'METAR KATL 100252Z 31007KT 10SM SCT200 BKN250 00/M10 A3035 RMK AO2 SLP289 T00001100 51006=\\n',\n",
       " 'METAR KATL 100352Z 33007KT 10SM FEW200 SCT250 M01/M11 A3036 RMK AO2 SLP291 T10061106=\\n',\n",
       " 'METAR KATL 100452Z 33010KT 10SM FEW200 SCT250 M01/M12 A3037 RMK AO2 SLP292 T10061117 400501056=\\n',\n",
       " 'METAR KATL 100552Z 34013G21KT 10SM FEW250 M01/M12 A3038 RMK AO2 SLP297 T10111122 10017 21011 53009=\\n',\n",
       " 'METAR KATL 100652Z 34010G19KT 10SM CLR M02/M13 A3039 RMK AO2 SLP301 T10171128=\\n',\n",
       " 'METAR KATL 100752Z 33012KT 10SM CLR M03/M14 A3040 RMK AO2 SLP304 T10281139=\\n',\n",
       " 'METAR KATL 100852Z 34012KT 10SM CLR M03/M15 A3041 RMK AO2 SLP307 T10331150 51008=\\n',\n",
       " 'METAR KATL 100952Z 34011KT 10SM CLR M04/M16 A3042 RMK AO2 SLP312 T10391156=\\n',\n",
       " 'METAR KATL 101052Z 34009G18KT 10SM CLR M05/M16 A3043 RMK AO2 SLP318 T10501161=\\n',\n",
       " 'METAR KATL 101152Z 34011KT 10SM CLR M06/M16 A3044 RMK AO2 SLP321 T10561156 11011 21056 51012=\\n',\n",
       " 'METAR KATL 101252Z 34009KT 10SM CLR M06/M16 A3045 RMK AO2 SLP324 T10611156=\\n',\n",
       " 'METAR KATL 101352Z 34006KT 10SM FEW250 M05/M15 A3048 RMK AO2 SLP333 T10501150=\\n',\n",
       " 'METAR KATL 101452Z 01004KT 10SM FEW250 M02/M14 A3051 RMK AO2 SLP345 T10221144 53024=\\n',\n",
       " 'METAR KATL 101552Z VRB03KT 10SM FEW250 01/M14 A3052 RMK AO2 SLP346 T00111144=\\n',\n",
       " 'METAR KATL 101652Z 13003KT 10SM FEW250 03/M14 A3049 RMK AO2 SLP336 T00281144=\\n',\n",
       " 'METAR KATL 101752Z 00000KT 10SM SCT250 04/M14 A3047 RMK AO2 SLP327 T00441139 10050 21061 58015=\\n',\n",
       " 'METAR KATL 101852Z 00000KT 10SM BKN250 06/M14 A3045 RMK AO2 SLP319 T00561139=\\n',\n",
       " 'METAR KATL 101952Z 00000KT 10SM BKN250 07/M13 A3044 RMK AO2 SLP315 T00671133=\\n',\n",
       " 'METAR KATL 102052Z 15003KT 10SM BKN250 07/M13 A3043 RMK AO2 SLP314 T00721133 56011=\\n',\n",
       " 'METAR KATL 102152Z 10004KT 10SM SCT250 08/M13 A3045 RMK AO2 SLP320 T00781133=\\n',\n",
       " 'METAR KATL 102252Z 11004KT 10SM FEW200 SCT250 07/M13 A3045 RMK AO2 SLP322 T00671128=\\n',\n",
       " 'METAR KATL 102352Z 11004KT 10SM FEW200 SCT250 05/M12 A3047 RMK AO2 SLP329 T00501122 10083 20039 53012=\\n',\n",
       " 'METAR KATL 110052Z 09005KT 10SM FEW200 SCT250 03/M12 A3048 RMK AO2 SLP332 T00331117=\\n',\n",
       " 'METAR KATL 110152Z 10005KT 10SM FEW200 SCT250 03/M12 A3049 RMK AO2 SLP335 T00281117=\\n',\n",
       " 'METAR KATL 110252Z 08006KT 10SM FEW200 SCT250 01/M11 A3050 RMK AO2 SLP340 T00111106 53010=\\n',\n",
       " 'METAR KATL 110352Z 09006KT 10SM FEW200 SCT250 01/M11 A3050 RMK AO2 SLP338 T00061106=\\n',\n",
       " 'METAR KATL 110452Z 09006KT 10SM FEW200 SCT250 00/M10 A3049 RMK AO2 SLP334 T00001100 400831061=\\n',\n",
       " 'METAR KATL 110552Z 09006KT 10SM SCT250 M01/M10 A3050 RMK AO2 SLP336 T10061100 10050 21006 55001=\\n',\n",
       " 'METAR KATL 110652Z 08008KT 10SM SCT250 01/M10 A3050 RMK AO2 SLP336 T00061100=\\n',\n",
       " 'METAR KATL 110752Z 10005KT 10SM BKN250 M01/M11 A3051 RMK AO2 SLP338 T10061106=\\n',\n",
       " 'METAR KATL 110852Z 07009KT 10SM BKN250 M01/M10 A3051 RMK AO2 SLP338 T10061100 51003=\\n',\n",
       " 'METAR KATL 110952Z 08008KT 10SM FEW028 SCT250 M01/M10 A3050 RMK AO2 SLP336 T10111100=\\n',\n",
       " 'METAR KATL 111052Z 09007KT 10SM FEW028 SCT250 M02/M10 A3050 RMK AO2 SLP337 T10171100=\\n',\n",
       " 'SPECI KATL 111149Z 08008KT 10SM BKN020 00/M10 A3050 RMK AO2=\\n',\n",
       " 'METAR KATL 111152Z 07008KT 10SM BKN020 00/M10 A3050 RMK AO2 SLP336 T00001100 10006 21017 56004=\\n',\n",
       " 'SPECI KATL 111247Z 09008KT 10SM BKN014 BKN021 01/M10 A3051 RMK AO2=\\n',\n",
       " 'METAR KATL 111252Z 08006KT 10SM BKN014 OVC021 01/M10 A3051 RMK AO2 SLP339 T00061100=\\n',\n",
       " 'METAR KATL 111352Z 08009KT 10SM OVC014 02/M09 A3051 RMK AO2 SLP339 T00171094=\\n',\n",
       " 'METAR KATL 111452Z 10008KT 10SM OVC015 03/M09 A3052 RMK AO2 SLP343 T00331094 52007=\\n',\n",
       " 'METAR KATL 111552Z 08012KT 020V090 10SM OVC015 05/M09 A3052 RMK AO2 SLP344 T00501089=\\n',\n",
       " 'METAR KATL 111652Z 09010KT 10SM OVC015 06/M07 A3049 RMK AO2 SLP334 T00561072=\\n',\n",
       " 'SPECI KATL 111720Z 08013KT 10SM OVC014 06/M06 A3047 RMK AO2=\\n',\n",
       " 'METAR KATL 111752Z 08014KT 10SM OVC014 06/M06 A3045 RMK AO2 SLP319 T00611061 10061 20000 58023=\\n',\n",
       " 'METAR KATL 111852Z 08011KT 10SM OVC014 06/M05 A3043 RMK AO2 SLP312 T00611050=\\n',\n",
       " 'SPECI KATL 111915Z 09011KT 10SM OVC016 07/M04 A3042 RMK AO2=\\n',\n",
       " 'METAR KATL 111952Z 07010KT 10SM OVC016 07/M04 A3041 RMK AO2 SLP306 T00721044=\\n',\n",
       " 'METAR KATL 112052Z 09009KT 10SM OVC016 07/M04 A3041 RMK AO2 SLP305 T00671039 56013=\\n',\n",
       " 'METAR KATL 112152Z 10010KT 10SM OVC015 07/M02 A3041 RMK AO2 SLP305 T00671022=\\n',\n",
       " 'SPECI KATL 112235Z 09011KT 10SM OVC013 06/M02 A3041 RMK AO2=\\n',\n",
       " 'METAR KATL 112252Z 08011KT 10SM -RA OVC013 06/M02 A3042 RMK AO2 RAB47 SLP308 PCPN VRY LGT P0000 T00561017=\\n',\n",
       " 'METAR KATL 112352Z 09012KT 10SM -RA OVC011 05/M01 A3041 RMK AO2 RAE29B49 SLP308 P0000 60000 T00501006 10072 20050 53002=\\n',\n",
       " 'METAR KATL 120052Z 09011KT 8SM -RA OVC010 04/00 A3043 RMK AO2 SLP313 P0000 T00390000=\\n',\n",
       " 'METAR KATL 120152Z 08008KT 4SM RA BR OVC009 03/02 A3044 RMK AO2 SLP317 P0007 T00330017=\\n',\n",
       " 'METAR KATL 120252Z 10007KT 6SM -RA BR OVC006 03/02 A3042 RMK AO2 RAE25B42DZB25E42 SLP310 CIG 005V007 P0001 60008 T00330017 50003=\\n',\n",
       " 'SPECI KATL 120310Z 10008KT 2SM -RA BR OVC004 03/02 A3042 RMK AO2 SFC VIS 4 RAE0254B10DZB0255E10 P0000=\\n',\n",
       " 'SPECI KATL 120328Z 08006KT 1SM -RA BR OVC004 03/02 A3041 RMK AO2 SFC VIS 3 RAE0254B10DZB0255E10 TWRINC P0000=\\n',\n",
       " 'METAR KATL 120352Z 08008KT 1SM -DZ BR OVC003 03/02 A3040 RMK AO2 SFC VIS 2 1/2 RAE0254B10E44DZB0255E10B44 SLP301 TWRINC P0000 T00330022=\\n',\n",
       " 'SPECI KATL 120418Z 09008KT 1/2SM -DZ BR OVC002 03/02 A3038 RMK AO2 SFC VIS 1 1/4 TWRINC P0000=\\n',\n",
       " 'METAR KATL 120452Z 08007KT 1/2SM -DZ BR OVC002 03/02 A3037 RMK AO2 SFC VIS 1 1/4 SLP290 TWRINC P0000 T00330022 400721017=\\n',\n",
       " 'METAR KATL 120552Z 08008KT 1/2SM R09R/3500V4500FT -DZ FG OVC002 04/03 A3034 RMK AO2 SLP281 RAB19E37DZE19B37 PCPN VRY LGT P0000 60008 T00390028 10050 20033 58026=\\n',\n",
       " 'METAR KATL 120652Z 08009KT 1/2SM R09R/4000V5000FT -DZ BR OVC002 04/03 A3033 RMK AO2 SFC VIS 3/4 DZE26B48RAB26E48 SLP275 P0001 T00390028=\\n',\n",
       " 'METAR KATL 120752Z 09008KT 1/2SM R09R/2600V3000FT -DZ FG OVC002 04/03 A3031 RMK AO2 SLP267 PCPN VRY LGT P0000 T00390033=\\n',\n",
       " 'SPECI KATL 120825Z 08006KT 1/4SM R09R/2000V2200FT -DZ FG OVC002 04/03 A3030 RMK AO2 TWR VIS 1/2 P0000=\\n',\n",
       " 'METAR KATL 120852Z 08006KT 1/4SM R09R/2000V2200FT -DZ FG VV002 04/03 A3030 RMK AO2 TWR VIS 1/2 SLP265 PCPN VRY LGT P0000 60001 T00390033 56015=\\n',\n",
       " 'SPECI KATL 120906Z 08008KT 1/4SM R09R/2200V2400FT -DZ FG VV002 04/03 A3030 RMK AO2 TWR VIS 1/2 PCPN VRY LGT P0000=\\n',\n",
       " 'METAR KATL 120952Z 08006KT 1/4SM R09R/2800V3500FT -DZ FG VV002 04/03 A3028 RMK AO2 TWR VIS 1/2 SLP260 PCPN VRY LGT P0000 T00390033=\\n',\n",
       " 'SPECI KATL 121026Z 09008KT 1/2SM R09R/3000V4000FT -DZ FG OVC002 04/03 A3028 RMK AO2 PCPN VRY LGT P0000=\\n',\n",
       " 'METAR KATL 121052Z 09007KT 1/2SM R09R/3500V4000FT -DZ FG VV002 04/03 A3028 RMK AO2 SLP259 RAB23E31DZE23B31 PCPN VRY LGT P0001 T00390033=\\n',\n",
       " 'METAR KATL 121152Z 08006KT 1/2SM R09R/4000VP6000FT -DZ FG VV002 04/04 A3026 RMK AO2 SLP255 PCPN VRY LGT P0000 60002 70010 T00440039 10044 20033 56011=\\n',\n",
       " 'METAR KATL 121252Z 09006KT 1/2SM R09R/2200V3000FT FG OVC002 05/04 A3026 RMK AO2 DZE51 SLP253 P0000 T00500044=\\n',\n",
       " 'SPECI KATL 121312Z 10003KT 1/4SM R09R/2400V3000FT FG VV002 05/04 A3027 RMK AO2 TWR VIS 1/2=\\n',\n",
       " 'SPECI KATL 121339Z 10006KT 1/4SM R09R/1800V2200FT FG VV002 05/04 A3026 RMK AO2 TWR VIS 1/2=\\n',\n",
       " 'METAR KATL 121352Z 09008KT 1/4SM R09R/1800V2200FT FG VV002 05/04 A3026 RMK AO2 TWR VIS 1/2 SLP253 T00500044=\\n',\n",
       " 'SPECI KATL 121406Z 09005KT 1/4SM R09R/1800V2800FT FG VV002 06/04 A3026 RMK AO2 TWR VIS 1/2=\\n',\n",
       " 'SPECI KATL 121430Z 08005KT 1/2SM R09R/2600V3500FT FG VV003 06/05 A3027 RMK AO2=\\n',\n",
       " 'SPECI KATL 121447Z 11005KT 1/4SM R09R/2000V2800FT FG VV003 06/05 A3028 RMK AO2 TWR VIS 1/2=\\n',\n",
       " 'METAR KATL 121452Z 11004KT 1/4SM R09R/1800V2800FT FG VV003 06/05 A3028 RMK AO2 TWR VIS 1/2 SLP259 60000 T00560050 50006=\\n',\n",
       " 'SPECI KATL 121512Z 11004KT 1/4SM R09R/1800V2200FT FG VV003 06/06 A3027 RMK AO2 TWR VIS 1/2=\\n',\n",
       " 'METAR KATL 121552Z 09006KT 1/4SM R09R/1800V2200FT FG VV003 07/06 A3027 RMK AO2 TWR VIS 1/2 SLP256 T00670056=\\n',\n",
       " 'SPECI KATL 121601Z 09005KT 1/4SM R09R/1800V2400FT FG VV003 07/06 A3026 RMK AO2 TWR VIS 1/2=\\n',\n",
       " 'METAR KATL 121652Z 08005KT 1/4SM R09R/1600V2600FT FG VV003 07/07 A3023 RMK AO2 TWR VIS 1/2 SLP242 T00720067=\\n',\n",
       " 'SPECI KATL 121705Z 10004KT 1/4SM R09R/1600V2000FT FG VV003 07/07 A3023 RMK AO2 TWR VIS 1/2=\\n',\n",
       " 'SPECI KATL 121729Z 11003KT 1/4SM R09R/1800V3000FT FG VV003 07/07 A3022 RMK AO2 TWR VIS 1/2=\\n',\n",
       " 'METAR KATL 121752Z 11003KT 1/2SM R09R/2200V3500FT FG VV003 07/07 A3022 RMK AO2 SLP238 60000 T00720067 10078 20044 58020=\\n',\n",
       " 'SPECI KATL 121804Z 13003KT 1/4SM R09R/2600V3500FT FG VV003 07/07 A3021 RMK AO2 TWR VIS 1/2=\\n',\n",
       " 'SPECI KATL 121839Z 00000KT 1/4SM R09R/1400V2000FT FG VV003 07/07 A3019 RMK AO2 TWR VIS 1/2=\\n',\n",
       " 'METAR KATL 121852Z 10003KT 1/4SM R09R/1400V1800FT FG VV003 08/07 A3018 RMK AO2 TWR VIS 1/2 SLP224 T00780067=\\n',\n",
       " 'METAR KATL 121952Z 12007KT 1/4SM R09R/1600V2000FT FG VV003 08/07 A3015 RMK AO2 TWR VIS 1/2 SLP214 T00830072=\\n',\n",
       " 'METAR KATL 122052Z 12004KT 1/4SM R09R/1200V1400FT FG VV003 08/08 A3017 RMK AO2 TWR VIS 1/2 SLP220 T00830078 55017=\\n',\n",
       " 'METAR KATL 122152Z 10003KT 1/4SM R09R/1400V1600FT FG VV003 08/08 A3016 RMK AO2 TWR VIS 1/2 SLP219 TWRINC T00830078=\\n',\n",
       " 'METAR KATL 122252Z 12003KT 1/2SM R09R/2000V2600FT FG VV003 08/08 A3017 RMK AO2 SLP221 T00830078=\\n',\n",
       " 'SPECI KATL 122314Z 00000KT 1/2SM R09R/2400V6000FT BR OVC003 08/08 A3017 RMK AO2 SFC VIS 1=\\n',\n",
       " 'METAR KATL 122352Z 00000KT 1/2SM BR OVC004 08/08 A3016 RMK AO2 SFC VIS 1 1/4 SLP218 CIG 002V006 T00830078 10083 20072 58001=\\n',\n",
       " 'METAR KATL 130052Z 00000KT 1/2SM BR OVC003 08/08 A3017 RMK AO2 SFC VIS 1 3/4 RAB02E23 SLP222 CIG 002V005 P0000 T00830078=\\n',\n",
       " 'SPECI KATL 130115Z 00000KT 1 1/2SM BR OVC004 08/08 A3017 RMK AO2 SFC VIS 2 1/2 CIG 002V006=\\n',\n",
       " 'METAR KATL 130152Z 00000KT 2SM BR BKN005 OVC020 08/08 A3018 RMK AO2 SFC VIS 4 SLP225 CIG 002V007 T00830078=\\n',\n",
       " 'SPECI KATL 130220Z 00000KT 3SM BR BKN005 OVC040 08/08 A3019 RMK AO2 CIG 002V007=\\n',\n",
       " 'METAR KATL 130252Z 31005KT 3SM BR FEW003 BKN009 OVC035 09/08 A3019 RMK AO2 SLP228 60000 T00890078 53010=\\n',\n",
       " 'SPECI KATL 130345Z 32006KT 5SM BR FEW003 SCT030 OVC050 09/08 A3019 RMK AO2=\\n',\n",
       " 'METAR KATL 130352Z 31007KT 6SM BR FEW003 BKN050 OVC200 09/08 A3019 RMK AO2 SLP226 T00890078=\\n',\n",
       " 'SPECI KATL 130404Z 31005KT 4SM BR BKN005 BKN050 OVC200 08/08 A3019 RMK AO2 CIG 003V007=\\n',\n",
       " 'SPECI KATL 130425Z 30004KT 1 1/2SM BR BKN004 OVC050 08/08 A3018 RMK AO2 SFC VIS 4 CIG 002V006=\\n',\n",
       " 'METAR KATL 130452Z 28005KT 1 1/2SM BR OVC004 09/08 A3018 RMK AO2 SFC VIS 5 SLP223 CIG 002V006 T00890078 400890033=\\n',\n",
       " 'METAR KATL 130552Z 32007KT 1 1/2SM R09R/5000V6000FT BR OVC003 09/08 A3016 RMK AO2 SLP217 CIG 002V004 60000 T00890078 10089 20083 58010=\\n',\n",
       " 'METAR KATL 130652Z 33010KT 1 1/2SM BR OVC003 09/08 A3014 RMK AO2 SFC VIS 3 SLP211 T00940083=\\n',\n",
       " 'METAR KATL 130752Z 34005KT 1 1/2SM BR OVC003 09/08 A3017 RMK AO2 SFC VIS 5 SLP218 T00890078=\\n',\n",
       " 'METAR KATL 130852Z 35006KT 1 1/2SM BR OVC003 08/07 A3017 RMK AO2 SFC VIS 2 SLP221 T00830072 53004=\\n',\n",
       " 'SPECI KATL 130938Z 31005KT 3/4SM R09R/4500V6000FT BR VV002 08/07 A3019 RMK AO2 TWR VIS 1 1/2=\\n',\n",
       " 'METAR KATL 130952Z 30007KT 3/4SM R09R/2800V3500FT BR VV002 08/07 A3019 RMK AO2 SLP226 T00780072=\\n',\n",
       " 'METAR KATL 131052Z 31009KT 1/2SM R09R/2400V5500FT FG VV002 07/07 A3019 RMK AO2 TWR VIS 3/4 SLP228 DZB0955E28 P0000 T00720067=\\n',\n",
       " 'METAR KATL 131152Z 33007KT 3/4SM R09R/5500VP6000FT BR OVC002 07/06 A3021 RMK AO2 SFC VIS 1 1/4 SLP235 60000 T00670061 10094 20067 53013=\\n',\n",
       " 'METAR KATL 131252Z 32008KT 3/4SM R09R/5500VP6000FT BR OVC002 06/06 A3023 RMK AO2 SFC VIS 1 SLP240 T00610056=\\n',\n",
       " 'METAR KATL 131352Z 35009KT 3/4SM R09R/2600VP6000FT BR OVC002 06/05 A3025 RMK AO2 SLP248 T00610050=\\n',\n",
       " 'METAR KATL 131452Z 34008KT 3/4SM R09R/5000VP6000FT BR OVC003 06/05 A3026 RMK AO2 SFC VIS 1 1/4 SLP252 T00560050 51017=\\n',\n",
       " 'SPECI KATL 131530Z 33006KT 3/4SM BR BCFG OVC004 06/05 A3028 RMK AO2 SFC VIS 3=\\n',\n",
       " 'METAR KATL 131552Z 33007KT 3/4SM R09R/5500VP6000FT -DZ BR OVC004 06/05 A3028 RMK AO2 SFC VIS 1 1/2 DZB50 SLP259 P0000 T00610050=\\n',\n",
       " 'METAR KATL 131652Z 35006KT 3/4SM R09R/5000VP6000FT -DZ BR OVC004 07/06 A3026 RMK AO2 SFC VIS 1 SLP252 P0000 T00670056=\\n',\n",
       " 'METAR KATL 131752Z 32005KT 3/4SM R09R/5500VP6000FT -DZ BR OVC004 07/06 A3024 RMK AO2 SFC VIS 1 1/4 SLP245 P0000 60000 T00670056 10067 20056 58007=\\n',\n",
       " 'METAR KATL 131852Z 33005KT 3/4SM R09R/4000V5000FT -DZ BR OVC003 07/06 A3023 RMK AO2 SLP241 P0000 T00670056=\\n',\n",
       " 'METAR KATL 131952Z 30004KT 3/4SM R09R/5000VP6000FT -DZ BR OVC004 07/06 A3023 RMK AO2 SFC VIS 1 1/2 SLP240 P0000 T00720061=\\n',\n",
       " 'METAR KATL 132052Z 34007KT 3/4SM R09R/6000VP6000FT -DZ BR OVC004 07/06 A3023 RMK AO2 SFC VIS 1 1/2 SLP241 P0001 60001 T00720061 56004=\\n',\n",
       " 'SPECI KATL 132129Z 31005KT 1SM -DZ BR OVC005 07/06 A3024 RMK AO2 SFC VIS 2 P0000=\\n',\n",
       " 'METAR KATL 132152Z 34004KT 1SM -DZ BR OVC005 07/06 A3024 RMK AO2 SFC VIS 2 SLP245 P0000 T00670056=\\n',\n",
       " 'METAR KATL 132252Z 08003KT 1SM -DZ BR OVC004 07/06 A3023 RMK AO2 SFC VIS 2 SLP240 CIG 003V006 P0000 T00720061=\\n',\n",
       " 'METAR KATL 132352Z 34005KT 1SM -RA BR OVC004 07/06 A3025 RMK AO2 SFC VIS 1 3/4 DZE48RAB48 SLP249 CIG 002V006 P0001 60002 T00670056 10072 20067 53007=\\n',\n",
       " 'METAR KATL 140052Z 07012G16KT 1 3/4SM -RA BR BKN005 OVC015 07/06 A3026 RMK AO2 SFC VIS 2 SLP253 CIG 003V007 P0004 T00720056=\\n',\n",
       " 'METAR KATL 140152Z 09008KT 1 3/4SM -DZ BR BKN005 OVC015 07/05 A3028 RMK AO2 SFC VIS 2 RAE36DZB36 SLP259 CIG 003V007 P0000 T00670050=\\n',\n",
       " 'METAR KATL 140252Z 06013KT 2 1/2SM -RA BR BKN005 OVC015 06/04 A3028 RMK AO2 DZE03RAB03 SLP258 CIG 003V007 P0001 60005 T00560044 50009=\\n',\n",
       " 'METAR KATL 140352Z 07010KT 2 1/2SM -DZ BR BKN006 OVC015 05/04 A3029 RMK AO2 RAE28DZB28 SLP262 CIG 004V008 P0000 T00500039=\\n',\n",
       " 'METAR KATL 140452Z 06011KT 2 1/2SM -DZ BR BKN006 OVC015 05/03 A3028 RMK AO2 SLP259 CIG 004V008 P0000 T00500033 400940050=\\n',\n",
       " 'METAR KATL 140552Z 08010KT 2 1/2SM -DZ BR BKN006 OVC015 04/03 A3027 RMK AO2 SFC VIS 3 SLP255 CIG 004V008 P0000 60005 T00440033 10078 20044 58003=\\n',\n",
       " 'METAR KATL 140652Z 07009KT 2 1/2SM -DZ BR BKN006 OVC015 04/03 A3026 RMK AO2 SFC VIS 4 SLP253 CIG 004V008 P0000 T00440033=\\n',\n",
       " 'METAR KATL 140752Z 08006KT 2 1/2SM -DZ BR OVC005 04/03 A3027 RMK AO2 SFC VIS 5 SLP254 CIG 004V008 P0000 T00440033=\\n',\n",
       " 'SPECI KATL 140820Z 08009KT 2 1/2SM BR BKN007 OVC011 04/03 A3026 RMK AO2 SFC VIS 6 DZE06 CIG 004V009 P0000=\\n',\n",
       " 'METAR KATL 140852Z 09006KT 2 1/2SM BR OVC006 04/03 A3026 RMK AO2 SFC VIS 6 DZE06 SLP251 CIG 004V008 P0000 60000 T00440028 58004=\\n',\n",
       " 'SPECI KATL 140946Z 07006KT 2 1/2SM -DZ BR OVC004 04/03 A3024 RMK AO2 SFC VIS 4 DZB25 P0000=\\n',\n",
       " 'METAR KATL 140952Z 07005KT 2 1/2SM -DZ BR OVC004 04/03 A3024 RMK AO2 SFC VIS 4 DZB25 SLP245 TWRINC P0000 T00390028=\\n',\n",
       " 'SPECI KATL 141048Z 08007KT 2 1/2SM BR BKN005 OVC010 04/03 A3025 RMK AO2 SFC VIS 6 DZE03 CIG 004V007 P0000=\\n',\n",
       " 'METAR KATL 141052Z 08007KT 2 1/2SM BR BKN005 OVC010 04/03 A3025 RMK AO2 SFC VIS 6 DZE03 SLP247 CIG 004V007 P0000 T00390028=\\n',\n",
       " 'SPECI KATL 141126Z 07005KT 1SM BR BKN004 OVC010 04/03 A3025 RMK AO2 SFC VIS 5 CIG 003V006 TWRINC=\\n',\n",
       " 'METAR KATL 141152Z 05006KT 1SM BR BKN004 OVC008 04/03 A3025 RMK AO2 SFC VIS 5 SLP249 CIG 003V006 TWRINC 60000 70007 T00390028 10044 20039 55001=\\n',\n",
       " 'SPECI KATL 141204Z 06006KT 5SM BR BKN004 OVC010 04/03 A3026 RMK AO2=\\n',\n",
       " 'METAR KATL 141252Z 05009KT 4SM BR BKN005 OVC012 04/02 A3026 RMK AO2 SLP252 T00390022=\\n',\n",
       " 'SPECI KATL 141350Z 02008KT 2SM BR BKN006 OVC012 04/03 A3027 RMK AO2 SFC VIS 3=\\n',\n",
       " 'METAR KATL 141352Z 02007KT 1SM BR BKN006 OVC012 04/03 A3027 RMK AO2 SFC VIS 2 1/2 SLP256 T00440028=\\n',\n",
       " 'SPECI KATL 141429Z 04008KT 2SM -DZ BR OVC007 04/02 A3028 RMK AO2 SFC VIS 4 DZB22 P0000=\\n',\n",
       " 'METAR KATL 141452Z 04005KT 2SM -DZ BR OVC007 04/03 A3029 RMK AO2 SFC VIS 4 DZB22 SLP263 P0000 60000 T00440028 53012=\\n',\n",
       " 'METAR KATL 141552Z COR 35004KT 2SM BR OVC008 05/03 A3028 RMK AO2 SFC VIS 5 DZE49 SLP261 P0000 T00500028=\\n',\n",
       " 'SPECI KATL 141632Z 00000KT 2SM HZ OVC010 06/02 A3027 RMK AO2 SFC VIS 6=\\n',\n",
       " 'METAR KATL 141652Z 36004KT 8SM OVC010 06/03 A3026 RMK AO2 SLP252 T00560028=\\n',\n",
       " 'METAR KATL 141752Z 29005KT 6SM BR OVC010 06/03 A3025 RMK AO2 SLP248 60000 T00560033 10056 20039 58014=\\n',\n",
       " 'SPECI KATL 141820Z 34004KT 6SM BR BKN008 BKN010 OVC013 06/03 A3023 RMK AO2=\\n',\n",
       " 'METAR KATL 141852Z 33004KT 7SM FEW008 BKN010 OVC012 06/03 A3021 RMK AO2 SLP236 T00610033=\\n',\n",
       " 'METAR KATL 141952Z 34006KT 10SM OVC013 07/03 A3019 RMK AO2 SLP228 T00670028=\\n',\n",
       " 'METAR KATL 142052Z 29005KT 10SM OVC013 07/03 A3019 RMK AO2 SLP229 T00670033 55018=\\n',\n",
       " 'METAR KATL 142152Z 31003KT 10SM OVC015 07/03 A3020 RMK AO2 SLP232 T00670028=\\n',\n",
       " 'METAR KATL 142252Z 30005KT 10SM OVC020 07/02 A3020 RMK AO2 SLP232 T00670022=\\n',\n",
       " 'SPECI KATL 142317Z 33008KT 10SM SCT020 BKN250 06/02 A3020 RMK AO2=\\n',\n",
       " 'METAR KATL 142352Z 32006KT 10SM BKN020 BKN250 06/02 A3021 RMK AO2 SLP234 T00560017 10067 20050 51005=\\n',\n",
       " 'METAR KATL 150052Z 31004KT 10SM SCT018 BKN250 04/01 A3020 RMK AO2 SLP234 T00440011=\\n',\n",
       " 'METAR KATL 150152Z 00000KT 10SM BKN250 04/01 A3020 RMK AO2 SLP231 T00440011=\\n',\n",
       " 'METAR KATL 150252Z 00000KT 10SM FEW015 BKN250 03/01 A3019 RMK AO2 SLP232 T00330011 57004=\\n',\n",
       " 'METAR KATL 150352Z 31003KT 10SM BKN250 03/01 A3019 RMK AO2 SLP230 T00330011=\\n',\n",
       " 'METAR KATL 150452Z 27004KT 10SM BKN250 03/01 A3020 RMK AO2 SLP231 T00280006 400670022=\\n',\n",
       " 'METAR KATL 150552Z 30005KT 9SM BKN250 02/00 A3019 RMK AO2 SLP230 T00170000 10056 20017 58002=\\n',\n",
       " 'METAR KATL 150652Z 31003KT 9SM FEW200 BKN250 01/00 A3019 RMK AO2 SLP229 T00110000=\\n',\n",
       " 'METAR KATL 150752Z 31004KT 8SM SCT200 BKN250 01/00 A3018 RMK AO2 SLP228 T00110000=\\n',\n",
       " 'METAR KATL 150852Z 00000KT 9SM SCT200 OVC250 01/M01 A3016 RMK AO2 SLP220 T00111006 58009=\\n',\n",
       " 'METAR KATL 150952Z 00000KT 9SM FEW150 BKN200 OVC250 01/M01 A3014 RMK AO2 SLP215 T00061006=\\n',\n",
       " 'METAR KATL 151052Z 36004KT 9SM FEW150 BKN200 OVC250 01/M01 A3014 RMK AO2 SLP214 T00111006=\\n',\n",
       " 'SPECI KATL 151135Z 02004KT 8SM FEW005 SCT150 OVC200 02/00 A3014 RMK AO2=\\n',\n",
       " 'SPECI KATL 151146Z 06003KT 6SM BR SCT004 BKN007 BKN150 OVC200 02/00 A3014 RMK AO2=\\n',\n",
       " 'METAR KATL 151152Z 00000KT 3SM BR BKN004 BKN007 BKN150 OVC200 02/00 A3015 RMK AO2 SFC VIS 6 SLP215 T00170000 10017 20006 55005=\\n',\n",
       " 'SPECI KATL 151154Z 05003KT 1 1/2SM BR BKN004 BKN007 BKN150 OVC200 02/00 A3015 RMK AO2 SFC VIS 5 TWRINC=\\n',\n",
       " 'SPECI KATL 151212Z 06005KT 1SM BR BKN003 BKN150 OVC200 01/M01 A3014 RMK AO2 SFC VIS 4 CIG 002V005 TWRINC=\\n',\n",
       " 'SPECI KATL 151220Z 06005KT 1/4SM BR BKN003 BKN150 OVC200 01/00 A3014 RMK AO2 SFC VIS 3 CIG 002V005 TWRINC=\\n',\n",
       " 'METAR KATL 151252Z 04005KT 1/4SM BR OVC003 01/00 A3015 RMK AO2 SFC VIS 2 1/2 SLP219 VIS N-E 1 CIG 002V004 TWRINC T00110000=\\n',\n",
       " 'SPECI KATL 151340Z 28003KT 1SM BR BKN004 OVC150 01/00 A3019 RMK AO2 SFC VIS 2 CIG 003V005 TWRINC=\\n',\n",
       " 'METAR KATL 151352Z 00000KT 1SM BR BKN003 BKN140 OVC200 01/00 A3019 RMK AO2 SFC VIS 2 SLP230 CIG 002V004 T00110000=\\n',\n",
       " 'SPECI KATL 151424Z 32004KT 1/2SM BR OVC003 01/00 A3021 RMK AO2 SFC VIS 2=\\n',\n",
       " 'METAR KATL 151452Z 32003KT 1/2SM R09R/5500VP6000FT BR BCFG BKN004 BKN010 OVC150 02/01 A3022 RMK AO2 SFC VIS 1 1/2 SLP241 T00170006 53024=\\n',\n",
       " 'SPECI KATL 151500Z 00000KT 1SM R09R/6000VP6000FT BR BCFG BKN004 BKN008 OVC150 02/01 A3022 RMK AO2 SFC VIS 2=\\n',\n",
       " 'SPECI KATL 151515Z 00000KT 1 1/2SM BR BCFG BKN004 BKN010 OVC100 02/01 A3021 RMK AO2 SFC VIS 2=\\n',\n",
       " 'SPECI KATL 151550Z 00000KT 2SM BR FEW005 SCT010 OVC100 02/01 A3021 RMK AO2 SFC VIS 4=\\n',\n",
       " 'METAR KATL 151552Z 00000KT 2SM BR FEW005 SCT010 OVC100 02/01 A3021 RMK AO2 SFC VIS 4 SLP238 T00220011=\\n',\n",
       " 'METAR KATL 151652Z 00000KT 2 1/2SM BR FEW005 BKN070 OVC100 03/01 A3019 RMK AO2 SFC VIS 5 SLP230 VIRGA OHD & ALQDS T00280011=\\n',\n",
       " 'METAR KATL 151752Z 19003KT 2 1/2SM -RA BR FEW010 BKN060 OVC100 03/01 A3016 RMK AO2 SFC VIS 5 RAB1659E10B35 SLP222 P0000 60000 T00330011 10033 20011 58018=\\n',\n",
       " 'METAR KATL 151852Z 28004KT 2 1/2SM -RA BR FEW008 BKN060 OVC100 03/02 A3015 RMK AO2 SFC VIS 4 SLP216 P0003 T00330017=\\n',\n",
       " 'METAR KATL 151952Z 28006KT 2 1/2SM -RA BR FEW005 BKN050 OVC060 03/02 A3015 RMK AO2 SLP219 P0007 T00330022=\\n',\n",
       " 'SPECI KATL 152004Z 27005KT 2 1/2SM -RA BR SCT005 BKN040 OVC060 03/02 A3015 RMK AO2 SFC VIS 3 P0000=\\n',\n",
       " 'METAR KATL 152052Z 26006KT 2 1/2SM -RA BR SCT005 BKN050 OVC070 03/02 A3015 RMK AO2 SFC VIS 3 SLP216 P0010 60020 T00330017 56006=\\n',\n",
       " 'SPECI KATL 152102Z 26004KT 2 1/2SM -RA BR SCT005 BKN026 OVC055 03/02 A3014 RMK AO2 SFC VIS 4 P0000=\\n',\n",
       " 'SPECI KATL 152108Z 25005KT 2 1/2SM -RA BR BKN005 BKN026 OVC055 03/02 A3013 RMK AO2 SFC VIS 5 P0001=\\n',\n",
       " 'SPECI KATL 152119Z 27004KT 2 1/2SM -RA BR SCT005 SCT026 OVC065 03/02 A3012 RMK AO2 SFC VIS 4 SCT005 V BKN P0001=\\n',\n",
       " 'METAR KATL 152152Z 30006KT 2 1/2SM -RA BR BKN006 BKN025 OVC070 03/02 A3013 RMK AO2 SFC VIS 5 SLP210 CIG 004V008 P0003 T00330022=\\n',\n",
       " 'METAR KATL 152252Z 31005KT 3SM BR BKN006 OVC070 03/02 A3013 RMK AO2 SFC VIS 5 RAE06 SLP211 CIG 004V008 P0000 T00330022=\\n',\n",
       " 'SPECI KATL 152320Z 30003KT 6SM BR SCT006 BKN040 OVC070 03/02 A3013 RMK AO2 SCT006 V BKN=\\n',\n",
       " 'METAR KATL 152352Z 30006KT 6SM BR SCT006 BKN032 OVC045 03/02 A3015 RMK AO2 PRESRR SLP217 SCT006 V BKN 60023 T00330022 10039 20028 53001=\\n',\n",
       " 'SPECI KATL 160007Z 31006KT 6SM BR BKN008 BKN015 OVC035 03/02 A3015 RMK AO2=\\n',\n",
       " 'SPECI KATL 160019Z 31006KT 6SM BR SCT007 BKN013 OVC040 03/02 A3015 RMK AO2=\\n',\n",
       " 'METAR KATL 160052Z 30006KT 7SM SCT007 OVC040 03/02 A3015 RMK AO2 SLP217 SCT007 V BKN T00330017=\\n',\n",
       " 'METAR KATL 160152Z 31008KT 6SM BR BKN007 OVC040 03/02 A3015 RMK AO2 RAB0057E13 SLP218 CIG 005V010 P0000 T00330017=\\n',\n",
       " 'METAR KATL 160252Z 32010KT 6SM BR SCT007 OVC040 03/01 A3016 RMK AO2 SLP221 SCT007 V BKN 60000 T00280011 53004=\\n',\n",
       " 'SPECI KATL 160323Z 31010KT 6SM BR BKN008 OVC040 03/01 A3016 RMK AO2 CIG 006V010=\\n',\n",
       " 'METAR KATL 160352Z 31007KT 6SM BR BKN008 OVC040 03/01 A3017 RMK AO2 SLP223 CIG 006V010 T00280011=\\n',\n",
       " 'SPECI KATL 160418Z 31008KT 6SM BR SCT008 OVC040 03/01 A3017 RMK AO2=\\n',\n",
       " 'METAR KATL 160452Z 31006KT 6SM BR SCT008 OVC045 03/01 A3016 RMK AO2 SLP221 SCT008 V BKN T00280011 400390006=\\n',\n",
       " 'SPECI KATL 160521Z 31007KT 6SM BR BKN008 OVC040 03/01 A3015 RMK AO2=\\n',\n",
       " 'METAR KATL 160552Z 30011KT 7SM BKN008 BKN040 02/01 A3014 RMK AO2 SLP215 60000 T00220006 10033 20022 58006=\\n',\n",
       " 'SPECI KATL 160640Z 31010G18KT 10SM BKN011 02/M01 A3014 RMK AO2=\\n',\n",
       " 'METAR KATL 160652Z 31012KT 10SM BKN011 02/M01 A3014 RMK AO2 SLP214 T00171006=\\n',\n",
       " 'SPECI KATL 160734Z 32011KT 8SM BKN008 02/M01 A3014 RMK AO2 CIG 007V010=\\n',\n",
       " 'METAR KATL 160752Z 32014KT 7SM BKN008 02/M01 A3014 RMK AO2 SLP216 CIG 007V010 T00171006=\\n',\n",
       " 'METAR KATL 160852Z 32010KT 8SM BKN009 02/M01 A3014 RMK AO2 SLP214 CIG 008V011 T00171006 58001=\\n',\n",
       " 'SPECI KATL 160928Z 32008KT 10SM SCT011 01/M01 A3015 RMK AO2=\\n',\n",
       " 'METAR KATL 160952Z 32010KT 10SM FEW011 01/M01 A3014 RMK AO2 SLP213 T00111011=\\n',\n",
       " 'METAR KATL 161052Z 32009KT 10SM CLR 01/M02 A3014 RMK AO2 SLP214 T00061017=\\n',\n",
       " 'METAR KATL 161152Z 32013KT 10SM CLR 01/M02 A3016 RMK AO2 SLP221 70023 T00061022 10022 20000 53007=\\n',\n",
       " 'METAR KATL 161252Z 32008KT 10SM CLR 00/M03 A3017 RMK AO2 SLP226 T00001028=\\n',\n",
       " 'METAR KATL 161352Z 32009KT 10SM CLR 01/M02 A3019 RMK AO2 SLP232 T00111022=\\n',\n",
       " 'METAR KATL 161452Z 33008KT 10SM CLR 03/M02 A3021 RMK AO2 SLP238 T00331022 53018=\\n',\n",
       " 'METAR KATL 161552Z 33011KT 10SM CLR 06/M02 A3022 RMK AO2 SLP241 T00561017=\\n',\n",
       " 'METAR KATL 161652Z 31008KT 10SM CLR 07/M01 A3022 RMK AO2 SLP239 T00721011=\\n',\n",
       " 'METAR KATL 161752Z 33010KT 10SM CLR 09/M01 A3019 RMK AO2 SLP227 T00941011 10100 20000 58009=\\n',\n",
       " 'METAR KATL 161852Z 32012G18KT 10SM CLR 11/M02 A3016 RMK AO2 SLP218 T01061017=\\n',\n",
       " 'METAR KATL 161952Z 33014KT 10SM CLR 12/M02 A3015 RMK AO2 SLP215 T01171022=\\n',\n",
       " 'METAR KATL 162052Z 34009KT 10SM FEW250 12/M03 A3015 RMK AO2 SLP216 T01171033 55010=\\n',\n",
       " 'METAR KATL 162152Z 32011KT 10SM FEW250 11/M03 A3015 RMK AO2 SLP215 T01111033=\\n',\n",
       " 'METAR KATL 162252Z 32008KT 10SM FEW250 09/M02 A3015 RMK AO2 SLP216 T00891022=\\n',\n",
       " 'METAR KATL 162352Z 30008KT 10SM FEW250 07/M02 A3017 RMK AO2 SLP222 T00721017 10117 20072 53003=\\n',\n",
       " 'METAR KATL 170052Z 31004KT 10SM SCT250 07/M02 A3019 RMK AO2 SLP229 T00671017=\\n',\n",
       " 'METAR KATL 170152Z 23003KT 10SM SCT250 05/M02 A3020 RMK AO2 SLP232 T00501017=\\n',\n",
       " 'METAR KATL 170252Z 30003KT 10SM BKN250 06/M02 A3020 RMK AO2 SLP233 T00561017 51013=\\n',\n",
       " 'METAR KATL 170352Z 33003KT 10SM BKN250 04/M02 A3020 RMK AO2 SLP234 T00441017=\\n',\n",
       " 'METAR KATL 170452Z 34004KT 10SM BKN250 04/M02 A3021 RMK AO2 SLP235 T00391017 401170000=\\n',\n",
       " 'METAR KATL 170552Z 33003KT 10SM BKN250 03/M02 A3021 RMK AO2 SLP234 T00331017 10078 20033 50001=\\n',\n",
       " 'METAR KATL 170652Z 28003KT 10SM SCT250 03/M02 A3020 RMK AO2 SLP233 T00281017=\\n',\n",
       " 'METAR KATL 170752Z 00000KT 10SM SCT250 02/M02 A3021 RMK AO2 SLP233 T00221017=\\n',\n",
       " 'METAR KATL 170852Z 00000KT 10SM SCT250 02/M02 A3021 RMK AO2 SLP235 T00171017 53001=\\n',\n",
       " 'METAR KATL 170952Z 00000KT 10SM SCT250 00/M02 A3021 RMK AO2 SLP234 T00001022=\\n',\n",
       " 'METAR KATL 171052Z 00000KT 10SM SCT250 00/M02 A3022 RMK AO2 SLP239 T00001022=\\n',\n",
       " 'METAR KATL 171152Z 00000KT 10SM BKN250 00/M03 A3022 RMK AO2 SLP242 T00001028 10039 21011 53004=\\n',\n",
       " 'METAR KATL 171252Z 09005KT 10SM FEW200 SCT250 01/M02 A3024 RMK AO2 SLP246 T00111022=\\n',\n",
       " 'METAR KATL 171352Z 09005KT 10SM FEW200 BKN250 02/M01 A3026 RMK AO2 SLP253 T00221011=\\n',\n",
       " 'METAR KATL 171452Z 09005KT 10SM SCT200 BKN250 04/M01 A3027 RMK AO2 SLP257 T00391006 53016=\\n',\n",
       " 'METAR KATL 171552Z 13006KT 10SM FEW200 SCT250 07/00 A3027 RMK AO2 SLP256 T00720000=\\n',\n",
       " 'METAR KATL 171652Z 14005KT 10SM SCT200 BKN250 11/M01 A3027 RMK AO2 SLP253 T01061006=\\n',\n",
       " 'METAR KATL 171752Z 17010KT 10SM SCT250 13/01 A3023 RMK AO2 SLP240 T01280006 10128 20000 58013=\\n',\n",
       " 'METAR KATL 171852Z 18011G17KT 10SM SCT250 14/M01 A3020 RMK AO2 SLP229 T01391006=\\n',\n",
       " 'METAR KATL 171952Z 17006KT 10SM BKN250 14/M01 A3017 RMK AO2 SLP219 T01441006=\\n',\n",
       " 'METAR KATL 172052Z 15008KT 10SM BKN200 BKN250 15/M03 A3015 RMK AO2 SLP213 T01501028 56027=\\n',\n",
       " 'METAR KATL 172152Z 16008KT 10SM SCT200 BKN250 14/M03 A3013 RMK AO2 SLP206 T01441028=\\n',\n",
       " 'METAR KATL 172252Z 17008KT 10SM SCT180 SCT250 13/M03 A3014 RMK AO2 SLP210 VIRGA DSNT NE-E ACC DSNT NE-SE T01331028=\\n',\n",
       " 'METAR KATL 172352Z 19003KT 10SM FEW200 12/M02 A3015 RMK AO2 SLP214 T01171022 10156 20117 55001=\\n',\n",
       " 'METAR KATL 180052Z 13003KT 10SM FEW200 11/M01 A3014 RMK AO2 SLP211 T01061006=\\n',\n",
       " 'METAR KATL 180152Z 16004KT 10SM CLR 08/00 A3014 RMK AO2 SLP212 T00830000=\\n',\n",
       " 'METAR KATL 180252Z COR 15004KT 10SM FEW032 09/01 A3013 RMK AO2 SLP209 T00890006 58004=\\n',\n",
       " 'METAR KATL 180352Z 14003KT 10SM SCT031 08/02 A3013 RMK AO2 SLP205 T00830017=\\n',\n",
       " 'METAR KATL 180452Z 16005KT 10SM FEW032 07/02 A3011 RMK AO2 SLP198 T00670022 401561011=\\n',\n",
       " 'SPECI KATL 180514Z 17004KT 10SM BKN027 07/02 A3011 RMK AO2=\\n',\n",
       " 'METAR KATL 180552Z 17004KT 10SM BKN024 07/03 A3010 RMK AO2 SLP194 T00670028 10117 20067 56012=\\n',\n",
       " 'SPECI KATL 180638Z 00000KT 10SM SCT022 06/03 A3009 RMK AO2=\\n',\n",
       " 'METAR KATL 180652Z 00000KT 10SM FEW022 06/03 A3009 RMK AO2 SLP189 T00610033=\\n',\n",
       " 'METAR KATL 180752Z 21004KT 10SM FEW120 05/03 A3008 RMK AO2 SLP189 T00500028=\\n',\n",
       " 'METAR KATL 180852Z 19003KT 10SM SCT038 04/02 A3006 RMK AO2 SLP181 T00440022 58012=\\n',\n",
       " 'METAR KATL 180952Z 23005KT 10SM BKN036 04/02 A3004 RMK AO2 SLP174 T00440022=\\n',\n",
       " 'SPECI KATL 181019Z 24007KT 10SM BKN028 BKN039 BKN049 06/03 A3004 RMK AO2=\\n',\n",
       " 'METAR KATL 181052Z 23006KT 10SM BKN026 BKN032 BKN055 06/03 A3004 RMK AO2 SLP175 T00610028=\\n',\n",
       " 'SPECI KATL 181119Z 23007KT 10SM FEW028 BKN041 BKN060 06/03 A3004 RMK AO2=\\n',\n",
       " 'METAR KATL 181152Z 22004KT 10SM FEW041 SCT060 06/03 A3004 RMK AO2 SLP176 T00610033 10067 20039 56006=\\n',\n",
       " 'METAR KATL 181252Z 25006KT 10SM FEW075 SCT250 06/03 A3005 RMK AO2 SLP180 T00560033=\\n',\n",
       " 'METAR KATL 181352Z 28011KT 10SM CLR 08/04 A3007 RMK AO2 SLP185 T00780039=\\n',\n",
       " 'METAR KATL 181452Z 29009KT 10SM CLR 09/03 A3009 RMK AO2 SLP192 T00940033 53017=\\n',\n",
       " 'METAR KATL 181552Z 29014KT 10SM CLR 12/01 A3010 RMK AO2 SLP193 T01220006=\\n',\n",
       " 'METAR KATL 181652Z 31018G29KT 10SM FEW050 SCT250 13/M03 A3009 RMK AO2 PK WND 29029/1645 SLP192 T01331028=\\n',\n",
       " 'METAR KATL 181752Z 29018G25KT 10SM FEW040 SCT250 15/M03 A3007 RMK AO2 SLP183 T01501033 10150 20044 58007=\\n',\n",
       " 'METAR KATL 181852Z 31023G29KT 10SM FEW040 SCT250 15/M05 A3005 RMK AO2 PK WND 31029/1852 SLP176 T01501050=\\n',\n",
       " 'METAR KATL 181952Z 29015G27KT 10SM FEW040 SCT250 15/M06 A3005 RMK AO2 PK WND 31030/1853 SLP177 T01501056=\\n',\n",
       " 'METAR KATL 182052Z 28019G25KT 10SM CLR 15/M06 A3007 RMK AO2 SLP183 T01501056 55001=\\n',\n",
       " 'METAR KATL 182152Z 30015G21KT 10SM CLR 14/M07 A3008 RMK AO2 PK WND 29026/2058 SLP189 T01391067=\\n',\n",
       " 'METAR KATL 182252Z 28010KT 10SM CLR 12/M06 A3009 RMK AO2 SLP193 T01171061=\\n',\n",
       " 'METAR KATL 182352Z 27005KT 10SM CLR 10/M07 A3011 RMK AO2 SLP198 T01001067 10156 20100 52014=\\n',\n",
       " 'METAR KATL 190052Z 27005KT 10SM CLR 09/M06 A3012 RMK AO2 SLP202 T00891061=\\n',\n",
       " 'METAR KATL 190152Z 26004KT 10SM CLR 08/M06 A3012 RMK AO2 SLP203 T00831061=\\n',\n",
       " 'METAR KATL 190252Z 28006KT 10SM CLR 07/M06 A3013 RMK AO2 SLP204 T00721056 51006=\\n',\n",
       " 'METAR KATL 190352Z 25004KT 10SM CLR 08/M06 A3013 RMK AO2 SLP206 T00781056=\\n',\n",
       " 'METAR KATL 190452Z 26004KT 10SM CLR 07/M06 A3013 RMK AO2 SLP203 T00721056 401560039=\\n',\n",
       " 'METAR KATL 190552Z 28006KT 10SM CLR 07/M06 A3013 RMK AO2 SLP205 T00671056 10100 20061 51002=\\n',\n",
       " 'METAR KATL 190652Z 28008KT 10SM CLR 06/M05 A3014 RMK AO2 SLP207 T00561050=\\n',\n",
       " 'METAR KATL 190752Z 26007KT 10SM FEW250 07/M05 A3014 RMK AO2 SLP207 T00671050=\\n',\n",
       " 'METAR KATL 190852Z 27006KT 10SM FEW250 06/M05 A3013 RMK AO2 SLP204 T00561050 58001=\\n',\n",
       " 'METAR KATL 190952Z 26003KT 10SM FEW250 06/M05 A3013 RMK AO2 SLP203 T00561050=\\n',\n",
       " 'METAR KATL 191052Z 27006KT 10SM SCT250 04/M05 A3013 RMK AO2 SLP206 T00441050=\\n',\n",
       " 'METAR KATL 191152Z 00000KT 10SM SCT250 04/M05 A3014 RMK AO2 SLP209 T00391050 10067 20033 53002=\\n',\n",
       " 'METAR KATL 191252Z 00000KT 10SM FEW200 SCT250 02/M04 A3014 RMK AO2 SLP210 T00221039=\\n',\n",
       " 'METAR KATL 191352Z 22003KT 10SM SCT250 06/M04 A3013 RMK AO2 SLP208 T00561039=\\n',\n",
       " 'METAR KATL 191452Z 24005KT 10SM FEW200 SCT250 09/M04 A3015 RMK AO2 SLP212 T00891039 53004=\\n',\n",
       " 'METAR KATL 191552Z 24009KT 10SM SCT250 14/M05 A3016 RMK AO2 SLP214 T01391050=\\n',\n",
       " 'METAR KATL 191652Z 27009KT 10SM FEW150 SCT200 BKN250 16/M06 A3014 RMK AO2 SLP205 T01561061=\\n',\n",
       " 'METAR KATL 191752Z 24010KT 10SM FEW150 SCT200 SCT250 16/M06 A3010 RMK AO2 SLP193 T01611056 10167 20022 58017=\\n',\n",
       " 'METAR KATL 191852Z 25009KT 10SM FEW200 SCT250 18/M05 A3006 RMK AO2 SLP180 T01781050=\\n',\n",
       " 'METAR KATL 191952Z 22010G18KT 10SM BKN250 18/M06 A3004 RMK AO2 SLP170 T01831061=\\n',\n",
       " 'METAR KATL 192052Z 25007KT 10SM BKN250 18/M07 A3003 RMK AO2 SLP167 T01831067 56023=\\n',\n",
       " 'METAR KATL 192152Z 24005KT 10SM BKN250 18/M07 A3002 RMK AO2 SLP166 T01831067=\\n',\n",
       " 'METAR KATL 192252Z 24007KT 10SM BKN250 17/M07 A3002 RMK AO2 SLP167 T01721072=\\n',\n",
       " 'METAR KATL 192352Z 23006KT 10SM BKN250 15/M07 A3003 RMK AO2 SLP170 T01501067 10189 20150 53000=\\n',\n",
       " 'METAR KATL 200052Z 23005KT 10SM BKN250 13/M07 A3002 RMK AO2 SLP171 T01281067=\\n',\n",
       " 'METAR KATL 200152Z 24005KT 10SM BKN250 12/M07 A3002 RMK AO2 SLP170 T01171067=\\n',\n",
       " 'METAR KATL 200252Z 24005KT 10SM BKN250 11/M06 A3002 RMK AO2 SLP167 T01111056 58003=\\n',\n",
       " 'METAR KATL 200352Z 24004KT 10SM SCT200 BKN250 11/M05 A3002 RMK AO2 SLP164 T01061050=\\n',\n",
       " 'METAR KATL 200452Z 24006KT 10SM SCT200 BKN250 11/M04 A3001 RMK AO2 SLP162 T01111044 401890022=\\n',\n",
       " 'METAR KATL 200552Z 24004KT 10SM SCT200 BKN250 10/M04 A3000 RMK AO2 SLP158 T01001044 10150 20094 58005=\\n',\n",
       " 'METAR KATL 200652Z 25006KT 10SM BKN200 11/M04 A3000 RMK AO2 SLP157 T01111039=\\n',\n",
       " 'METAR KATL 200752Z 23004KT 10SM BKN180 09/M03 A3000 RMK AO2 SLP158 T00891033=\\n',\n",
       " 'METAR KATL 200852Z 25005KT 10SM BKN200 10/M02 A3000 RMK AO2 SLP155 T01001022 58002=\\n',\n",
       " 'METAR KATL 200952Z 24005KT 10SM BKN200 09/00 A2999 RMK AO2 SLP155 T00940000=\\n',\n",
       " 'METAR KATL 201052Z 24003KT 10SM BKN200 BKN250 08/01 A2999 RMK AO2 SLP156 T00830006=\\n',\n",
       " 'METAR KATL 201152Z 22004KT 10SM SCT180 BKN220 07/01 A3001 RMK AO2 SLP163 T00720006 10111 20072 53005=\\n',\n",
       " 'METAR KATL 201252Z 23004KT 10SM SCT180 BKN220 07/02 A3002 RMK AO2 SLP167 T00720017=\\n',\n",
       " 'METAR KATL 201352Z 23003KT 10SM FEW150 SCT200 SCT250 08/02 A3003 RMK AO2 SLP169 T00830022=\\n',\n",
       " 'METAR KATL 201452Z 25008KT 10SM FEW150 SCT250 11/03 A3004 RMK AO2 SLP174 T01060033 53010=\\n',\n",
       " 'METAR KATL 201552Z 25009KT 10SM FEW150 SCT250 14/03 A3004 RMK AO2 SLP174 T01440033=\\n',\n",
       " 'METAR KATL 201652Z 26007KT 10SM FEW150 BKN250 17/02 A3002 RMK AO2 SLP164 T01670022=\\n',\n",
       " 'METAR KATL 201752Z 25008KT 10SM FEW150 BKN250 18/01 A2998 RMK AO2 SLP151 T01780011 10183 20072 58020=\\n',\n",
       " 'METAR KATL 201852Z 24009KT 10SM BKN250 19/01 A2995 RMK AO2 SLP139 T01890006=\\n',\n",
       " 'METAR KATL 201952Z VRB04KT 10SM BKN250 18/01 A2994 RMK AO2 SLP136 T01830011=\\n',\n",
       " 'METAR KATL 202052Z 24004KT 10SM BKN250 18/02 A2993 RMK AO2 SLP134 T01830022 56016=\\n',\n",
       " 'METAR KATL 202152Z 23006KT 10SM BKN250 18/02 A2994 RMK AO2 SLP136 T01830017=\\n',\n",
       " 'METAR KATL 202252Z 22003KT 10SM SCT200 BKN250 17/01 A2994 RMK AO2 SLP139 T01670011=\\n',\n",
       " 'METAR KATL 202352Z 23003KT 10SM SCT200 BKN250 14/01 A2996 RMK AO2 SLP146 T01440011 10194 20144 53008=\\n',\n",
       " 'METAR KATL 210052Z 24004KT 10SM SCT200 BKN250 14/02 A2998 RMK AO2 SLP151 T01390022=\\n',\n",
       " 'METAR KATL 210152Z 25005KT 10SM SCT200 BKN250 13/03 A2998 RMK AO2 SLP151 T01330028=\\n',\n",
       " 'METAR KATL 210252Z 27003KT 10SM FEW200 BKN250 13/03 A2999 RMK AO2 SLP156 T01280028 51009=\\n',\n",
       " 'METAR KATL 210352Z 27004KT 10SM FEW200 BKN250 12/03 A3000 RMK AO2 SLP158 T01220033=\\n',\n",
       " 'METAR KATL 210452Z 26003KT 10SM FEW200 SCT250 11/03 A3000 RMK AO2 SLP157 T01060033 401940072=\\n',\n",
       " 'METAR KATL 210552Z 28004KT 10SM FEW200 SCT250 11/04 A3000 RMK AO2 SLP156 T01110039 10144 20106 50003=\\n',\n",
       " 'METAR KATL 210652Z 00000KT 10SM FEW200 SCT250 10/04 A2999 RMK AO2 SLP154 T01000039=\\n',\n",
       " 'METAR KATL 210752Z 29003KT 10SM FEW250 10/04 A3000 RMK AO2 SLP158 T01000039=\\n',\n",
       " 'METAR KATL 210852Z 29004KT 10SM FEW250 09/04 A3000 RMK AO2 SLP158 T00890039 53001=\\n',\n",
       " 'METAR KATL 210952Z 29005KT 10SM CLR 09/03 A3001 RMK AO2 SLP159 T00890033=\\n',\n",
       " 'METAR KATL 211052Z 32007KT 10SM CLR 07/03 A3002 RMK AO2 SLP165 T00670033=\\n',\n",
       " 'METAR KATL 211152Z 32004KT 10SM CLR 07/03 A3004 RMK AO2 SLP172 T00670028 10117 20061 53013=\\n',\n",
       " 'METAR KATL 211252Z 31007KT 10SM FEW250 06/02 A3006 RMK AO2 SLP182 T00560022=\\n',\n",
       " 'METAR KATL 211352Z 32008KT 10SM FEW250 08/03 A3007 RMK AO2 SLP185 T00780028=\\n',\n",
       " 'METAR KATL 211452Z 33010KT 10SM FEW250 11/02 A3010 RMK AO2 SLP194 T01110017 53021=\\n',\n",
       " 'METAR KATL 211552Z 32009KT 10SM FEW250 13/02 A3013 RMK AO2 SLP202 T01330017=\\n',\n",
       " 'METAR KATL 211652Z 31011KT 10SM FEW250 15/02 A3012 RMK AO2 SLP199 T01500017=\\n',\n",
       " 'METAR KATL 211752Z 32009KT 10SM FEW250 16/01 A3010 RMK AO2 SLP191 T01610006 10161 20056 58002=\\n',\n",
       " 'METAR KATL 211852Z 30014G17KT 10SM FEW250 17/00 A3008 RMK AO2 SLP183 T01670000=\\n',\n",
       " 'METAR KATL 211952Z 33013KT 10SM FEW250 17/00 A3008 RMK AO2 SLP186 T01720000=\\n',\n",
       " 'METAR KATL 212052Z 32008KT 10SM FEW250 17/M02 A3009 RMK AO2 SLP188 T01721017 55003=\\n',\n",
       " 'METAR KATL 212152Z 32009KT 10SM FEW150 SCT200 BKN250 16/M02 A3009 RMK AO2 SLP188 T01611022=\\n',\n",
       " 'METAR KATL 212252Z 32009KT 10SM FEW200 BKN250 14/M03 A3011 RMK AO2 SLP197 T01441028=\\n',\n",
       " 'METAR KATL 212352Z 33006KT 10SM FEW200 BKN250 13/M02 A3013 RMK AO2 SLP203 T01281022 10178 20122 53012=\\n',\n",
       " 'METAR KATL 220052Z 32005KT 10SM FEW200 BKN250 12/M02 A3015 RMK AO2 SLP211 T01171022=\\n',\n",
       " 'METAR KATL 220152Z 32008KT 10SM SCT250 10/M02 A3015 RMK AO2 SLP214 T01001017=\\n',\n",
       " 'METAR KATL 220252Z 31007KT 10SM SCT250 08/M02 A3018 RMK AO2 SLP221 T00831017 53017=\\n',\n",
       " 'METAR KATL 220352Z 32007KT 10SM SCT250 08/M02 A3018 RMK AO2 SLP221 T00781022=\\n',\n",
       " 'METAR KATL 220452Z 32006KT 10SM SCT250 07/M03 A3020 RMK AO2 SLP226 T00721033 401780056=\\n',\n",
       " 'METAR KATL 220552Z 33007KT 10SM SCT250 06/M03 A3019 RMK AO2 SLP223 T00611033 10128 20056 50003=\\n',\n",
       " 'METAR KATL 220652Z 32004KT 10SM FEW200 SCT250 07/M03 A3020 RMK AO2 SLP228 T00671033=\\n',\n",
       " 'METAR KATL 220752Z 35008KT 10SM FEW200 SCT250 05/M03 A3021 RMK AO2 SLP231 T00501033=\\n',\n",
       " 'METAR KATL 220852Z 33008KT 10SM SCT200 BKN250 06/M03 A3023 RMK AO2 SLP237 T00561033 53014=\\n',\n",
       " 'METAR KATL 220952Z 33005KT 10SM BKN200 BKN250 04/M03 A3023 RMK AO2 SLP236 T00441028=\\n',\n",
       " 'METAR KATL 221052Z 34008KT 10SM BKN200 BKN250 06/M03 A3024 RMK AO2 SLP242 T00561033=\\n',\n",
       " 'METAR KATL 221152Z 32004KT 10SM BKN200 BKN250 06/M03 A3027 RMK AO2 SLP253 T00561028 10067 20044 53014=\\n',\n",
       " 'METAR KATL 221252Z 02007KT 10SM BKN140 BKN200 OVC250 07/M03 A3026 RMK AO2 SLP251 VIRGA SE-SW T00671033=\\n',\n",
       " 'METAR KATL 221352Z VRB04KT 10SM FEW110 BKN150 OVC200 08/M03 A3028 RMK AO2 SLP257 VIRGA W-N T00831028=\\n',\n",
       " 'METAR KATL 221452Z 04009KT 10SM BKN100 BKN150 OVC200 11/M03 A3029 RMK AO2 SLP258 VIRGA OHD-SW-NW T01061028 53005=\\n',\n",
       " 'METAR KATL 221552Z 11005KT 10SM BKN110 BKN150 BKN200 11/M03 A3030 RMK AO2 SLP261 VIRGA N-NE-E BINOVC DSNT E T01061028=\\n',\n",
       " 'METAR KATL 221652Z 09004KT 10SM BKN100 BKN150 BKN200 11/M03 A3030 RMK AO2 SLP262 BINOVC DSNT E T01111033=\\n',\n",
       " 'METAR KATL 221752Z 09004KT 10SM BKN100 BKN150 OVC200 12/M04 A3027 RMK AO2 SLP255 VIRGA N-NE T01171039 10117 20050 58004=\\n',\n",
       " 'METAR KATL 221852Z 05003KT 10SM BKN110 BKN150 OVC200 12/M03 A3026 RMK AO2 SLP248 T01221033=\\n',\n",
       " 'METAR KATL 221952Z 07003KT 10SM BKN110 BKN150 BKN200 12/M04 A3026 RMK AO2 SLP249 VIRGA DSNT SW BINOVC DSNT E T01221039=\\n',\n",
       " 'METAR KATL 222052Z 04007KT 10SM BKN100 BKN150 BKN250 13/M04 A3025 RMK AO2 SLP245 T01281039 56009=\\n',\n",
       " 'METAR KATL 222152Z 05006KT 10SM FEW100 SCT130 BKN150 BKN200 13/M04 A3024 RMK AO2 SLP243 VIRGA SW-NW T01281039=\\n',\n",
       " 'METAR KATL 222252Z 04004KT 10SM BKN080 BKN100 OVC200 12/M04 A3025 RMK AO2 SLP245 VIRGA N-OHD-SW T01221039=\\n',\n",
       " 'METAR KATL 222352Z 03007KT 10SM SCT080 BKN100 OVC150 12/M04 A3027 RMK AO2 SLP253 VIRGA NW-NE T01221039 10133 20111 53006=\\n',\n",
       " 'METAR KATL 230052Z 36008KT 10SM BKN080 OVC110 12/M04 A3026 RMK AO2 SLP251 VIRGA NW-NE T01221039=\\n',\n",
       " 'METAR KATL 230152Z 04004KT 10SM SCT080 BKN110 OVC150 12/M03 A3025 RMK AO2 SLP246 T01171033=\\n',\n",
       " 'METAR KATL 230252Z 01006KT 10SM -RA BKN060 BKN080 OVC100 11/M02 A3026 RMK AO2 RAB49 SLP247 PCPN VRY LGT P0000 60000 T01111022 55004=\\n',\n",
       " 'METAR KATL 230352Z 36007KT 10SM -RA BKN065 OVC080 09/02 A3027 RMK AO2 SLP252 P0000 T00890022=\\n',\n",
       " 'METAR KATL 230452Z 05005KT 7SM -RA BKN055 OVC080 08/03 A3027 RMK AO2 SLP251 P0005 T00830033 401330044=\\n',\n",
       " 'METAR KATL 230552Z 06010KT 7SM -RA BKN060 OVC080 07/04 A3023 RMK AO2 SLP237 P0007 60012 T00720039 10122 20072 58010=\\n',\n",
       " 'METAR KATL 230652Z 10009KT 8SM -RA OVC075 07/04 A3021 RMK AO2 SLP231 P0004 T00670044=\\n',\n",
       " 'METAR KATL 230752Z 10009KT 6SM -RA BR BKN050 OVC075 07/05 A3020 RMK AO2 SLP228 P0004 T00670050=\\n',\n",
       " 'METAR KATL 230852Z 08008KT 4SM RA BR BKN048 OVC070 07/05 A3018 RMK AO2 SLP223 P0008 60016 T00670050 56014=\\n',\n",
       " 'METAR KATL 230952Z 08009KT 3SM RA BR FEW006 OVC045 07/06 A3016 RMK AO2 SLP214 P0013 T00720056=\\n',\n",
       " 'METAR KATL 231052Z 09011KT 3SM RA BR SCT005 BKN030 OVC042 07/06 A3014 RMK AO2 SLP209 P0018 T00720061=\\n',\n",
       " 'SPECI KATL 231113Z 08015KT 3SM RA BR BKN006 BKN028 OVC040 08/06 A3014 RMK AO2 CIG 005V007 P0007=\\n',\n",
       " 'METAR KATL 231152Z 09016KT 3SM RA BR BKN006 BKN012 OVC036 08/06 A3012 RMK AO2 SLP202 CIG 005V008 P0017 60064 70076 T00780061 10078 20067 56021=\\n',\n",
       " 'METAR KATL 231252Z 10017G23KT 3SM -RA BR BKN006 BKN011 OVC030 08/06 A3009 RMK AO2 SLP191 CIG 005V008 P0007 T00780061=\\n',\n",
       " 'METAR KATL 231352Z 10014G21KT 3SM -RA BR BKN006 OVC012 08/06 A3005 RMK AO2 SLP176 CIG 005V007 P0003 T00780061=\\n',\n",
       " 'METAR KATL 231452Z 09017G21KT 4SM -RA BR BKN006 OVC008 08/07 A3003 RMK AO2 SLP169 P0002 60012 T00780067 56031=\\n',\n",
       " 'METAR KATL 231552Z 08017KT 4SM -RA BR OVC006 08/06 A3001 RMK AO2 SLP163 P0002 T00780061=\\n',\n",
       " 'SPECI KATL 231631Z 08018G23KT 2SM R09R/6000VP6000FT RA BR OVC006 07/06 A3001 RMK AO2 SFC VIS 2 1/2 P0000=\\n',\n",
       " 'METAR KATL 231652Z 09020KT 2SM -RA BR BKN006 BKN008 OVC010 07/06 A3001 RMK AO2 SFC VIS 4 SLP165 P0005 T00670056=\\n',\n",
       " 'METAR KATL 231752Z 08016G20KT 2SM -RA BR BKN006 BKN009 OVC012 07/05 A2998 RMK AO2 SFC VIS 3 SLP155 P0002 60021 T00670050 10078 20061 58015=\\n',\n",
       " 'METAR KATL 231852Z 09015G20KT 2SM -RA BR BKN006 OVC010 06/04 A2991 RMK AO2 SFC VIS 2 1/2 PRESFR SLP132 P0002 T00610044=\\n',\n",
       " 'SPECI KATL 231922Z 09016KT 3SM -RA BR BKN006 OVC010 06/04 A2989 RMK AO2 SFC VIS 4 P0001=\\n',\n",
       " 'METAR KATL 231952Z 10012KT 3SM BR BKN006 OVC009 06/05 A2989 RMK AO2 SFC VIS 4 RAE32 SLP125 P0001 T00610050=\\n',\n",
       " 'SPECI KATL 231952Z 10012KT 3SM BR BKN006 OVC009 06/05 A2989 RMK AO2 SFC VIS 4 RAE32 SLP125 P0001 T00610050=\\n',\n",
       " 'SPECI KATL 232004Z 09013KT 2SM BR OVC004 06/04 A2988 RMK AO2 SFC VIS 4=\\n',\n",
       " 'SPECI KATL 232012Z 08014KT 2SM -DZ BR OVC006 06/04 A2987 RMK AO2 SFC VIS 4 DZB11 P0000=\\n',\n",
       " 'SPECI KATL 232018Z 09014KT 3/4SM -DZ BR OVC005 06/04 A2987 RMK AO2 SFC VIS 3 DZB11 P0000=\\n',\n",
       " 'SPECI KATL 232039Z 08017KT 3/4SM -DZ BR OVC004 06/04 A2986 RMK AO2 SFC VIS 2 DZB11 P0000=\\n',\n",
       " 'METAR KATL 232052Z 09012KT 3/4SM -DZ BR BKN004 OVC006 06/04 A2986 RMK AO2 SFC VIS 2 DZB11 SLP116 P0000 60003 T00560044 56038=\\n',\n",
       " 'SPECI KATL 232056Z 08018G22KT 1/2SM -DZ BR BKN004 OVC006 06/04 A2986 RMK AO2 SFC VIS 2 P0000=\\n',\n",
       " 'METAR KATL 232152Z 09012KT 1/2SM -DZ BR OVC004 06/04 A2985 RMK AO2 SFC VIS 1 1/2 DZE15B48RAB15E45 SLP113 P0001 T00560044=\\n',\n",
       " 'METAR KATL 232252Z 09012KT 1/2SM -DZ BR OVC004 06/04 A2983 RMK AO2 SFC VIS 1 1/2 SLP107 CIG 003V005 P0000 T00560044=\\n',\n",
       " 'METAR KATL 232352Z 08009KT 1/2SM -DZ BR OVC004 06/04 A2984 RMK AO2 SFC VIS 3 SLP109 P0000 60004 T00560044 10067 20056 55007=\\n',\n",
       " 'METAR KATL 240052Z 08009KT 1/2SM -DZ BR OVC004 06/04 A2982 RMK AO2 SFC VIS 3 SLP101 P0000 T00560044=\\n',\n",
       " 'METAR KATL 240152Z 10005KT 1SM -DZ BR OVC004 05/04 A2980 RMK AO2 SFC VIS 4 DZE08B52RAB08E52 SLP097 CIG 003V006 P0000 T00500044=\\n',\n",
       " 'METAR KATL 240252Z 04006KT 1SM -RA BR OVC005 06/04 A2981 RMK AO2 SFC VIS 2 1/2 DZE13RAB13 SLP098 CIG 003V007 P0002 60002 T00560039 55011=\\n',\n",
       " 'METAR KATL 240352Z 03008KT 2 1/2SM -RA BR BKN006 OVC015 06/04 A2979 RMK AO2 SFC VIS 5 SLP092 CIG 003V008 P0005 T00560044=\\n',\n",
       " 'METAR KATL 240452Z 02006KT 2 1/2SM BR OVC005 06/04 A2977 RMK AO2 SFC VIS 5 RAE48 SLP084 CIG 004V007 P0001 T00560039 400780050=\\n',\n",
       " 'METAR KATL 240552Z 01006KT 8SM BKN008 OVC015 05/04 A2974 RMK AO2 RAB00E39 SLP075 P0001 60009 T00500039 10056 20050 58022=\\n',\n",
       " 'METAR KATL 240652Z 32003KT 6SM BR OVC005 05/04 A2972 RMK AO2 RAB08E17 SLP069 CIG 004V007 P0000 T00500039=\\n',\n",
       " 'SPECI KATL 240659Z 33004KT 4SM BR OVC004 05/04 A2972 RMK AO2 CIG 003V007=\\n',\n",
       " 'SPECI KATL 240711Z 31005KT 2 1/2SM -DZ BR OVC004 05/04 A2972 RMK AO2 DZB10 CIG 003V007 P0000=\\n',\n",
       " 'SPECI KATL 240732Z 30005KT 3SM -DZ BR OVC004 05/04 A2972 RMK AO2 DZB10 CIG 003V007 P0000 $=\\n',\n",
       " 'METAR KATL 240752Z 31007KT 3SM -DZ BR OVC004 05/04 A2973 RMK AO2 DZB10 SLP072 CIG 003V007 P0000 T00500039 $=\\n',\n",
       " 'SPECI KATL 240822Z 29008KT 2SM -DZ BR OVC004 05/04 A2973 RMK AO2 CIG 003V007 P0000 $=\\n',\n",
       " 'SPECI KATL 240845Z 28007KT 3SM -DZ BR OVC004 05/04 A2973 RMK AO2 CIG 003V007 P0000 $=\\n',\n",
       " 'METAR KATL 240852Z 28007KT 3SM -DZ BR OVC004 05/04 A2973 RMK AO2 SLP072 CIG 003V007 P0000 60000 T00500039 55002 $=\\n',\n",
       " 'METAR KATL 240952Z 29010KT 6SM BR OVC004 06/04 A2972 RMK AO2 DZE48 SLP069 CIG 003V007 P0000 T00560039 $=\\n',\n",
       " 'METAR KATL 241052Z 29016G21KT 6SM -DZ BR BKN005 OVC011 06/04 A2974 RMK AO2 DZB48 SLP074 P0000 T00560044 $=\\n',\n",
       " 'SPECI KATL 241110Z 29013G21KT 7SM SCT005 OVC011 06/04 A2975 RMK AO2 DZE10 P0000 $=\\n',\n",
       " 'SPECI KATL 241116Z 29014G20KT 7SM -RA BKN007 OVC013 06/04 A2975 RMK AO2 DZE10RAB14 P0000 $=\\n',\n",
       " 'SPECI KATL 241149Z 30012G25KT 7SM SCT008 OVC013 05/03 A2978 RMK AO2 DZE10RAB14E24 P0000 $=\\n',\n",
       " 'METAR KATL 241152Z 31012KT 7SM SCT008 OVC013 05/03 A2978 RMK AO2 DZE10RAB14E24 SLP088 P0000 60000 70034 T00500028 10056 20050 53016 $=\\n',\n",
       " 'SPECI KATL 241216Z 30018G25KT 7SM BKN008 OVC012 04/02 A2980 RMK AO2 $=\\n',\n",
       " 'SPECI KATL 241239Z 30014G21KT 7SM FEW009 OVC012 04/02 A2982 RMK AO2 $=\\n',\n",
       " 'METAR KATL 241252Z 31019G26KT 7SM FEW009 OVC012 04/02 A2982 RMK AO2 PK WND 30026/1252 SLP103 T00390017 $=\\n',\n",
       " 'METAR KATL 241352Z 30018G24KT 9SM OVC013 03/01 A2984 RMK AO2 PK WND 32028/1334 SLP111 T00330011 $=\\n',\n",
       " 'METAR KATL 241452Z 32016G27KT 10SM OVC015 04/00 A2988 RMK AO2 PK WND 31027/1448 SLP122 T00390000 51031 $=\\n',\n",
       " 'SPECI KATL 241535Z 32018G23KT 10SM SCT019 04/00 A2991 RMK AO2 PK WND 33028/1520=\\n',\n",
       " 'SPECI KATL 241545Z 31014G22KT 10SM BKN021 04/M01 A2989 RMK AO2 PK WND 33028/1520 BKN V SCT=\\n',\n",
       " 'METAR KATL 241552Z 31012G20KT 10SM BKN021 04/00 A2989 RMK AO2 PK WND 33028/1520 SLP128 BKN V SCT T00440000=\\n',\n",
       " 'SPECI KATL 241627Z 32016G25KT 10SM SCT021 06/M01 A2991 RMK AO2=\\n',\n",
       " 'METAR KATL 241652Z 29012G19KT 10SM SCT021 06/M01 A2990 RMK AO2 SLP131 T00561006=\\n',\n",
       " 'METAR KATL 241752Z 29018G23KT 10SM FEW024 07/M02 A2989 RMK AO2 SLP127 T00721017 10072 20033 50006=\\n',\n",
       " 'METAR KATL 241852Z 31014G21KT 10SM FEW024 08/M02 A2988 RMK AO2 SLP123 T00831017=\\n',\n",
       " 'METAR KATL 241952Z 30016G21KT 10SM FEW025 09/M03 A2989 RMK AO2 SLP124 T00891033=\\n',\n",
       " 'METAR KATL 242052Z 30012G19KT 10SM CLR 09/M04 A2989 RMK AO2 SLP125 T00891039 55001=\\n',\n",
       " 'METAR KATL 242152Z 29013KT 10SM CLR 09/M04 A2990 RMK AO2 SLP128 T00891044=\\n',\n",
       " 'METAR KATL 242252Z 29010KT 10SM FEW250 08/M04 A2992 RMK AO2 SLP136 T00781044=\\n',\n",
       " 'METAR KATL 242352Z 28005KT 10SM CLR 06/M04 A2994 RMK AO2 SLP144 T00561039 10094 20056 53017=\\n',\n",
       " 'METAR KATL 250052Z 29006KT 10SM CLR 05/M04 A2994 RMK AO2 SLP142 T00501039=\\n',\n",
       " 'METAR KATL 250152Z 26005KT 10SM CLR 04/M04 A2995 RMK AO2 SLP149 T00441039=\\n',\n",
       " 'METAR KATL 250252Z 27005KT 10SM CLR 04/M03 A2996 RMK AO2 SLP151 T00391033 53005=\\n',\n",
       " 'METAR KATL 250352Z 24004KT 10SM CLR 03/M03 A2997 RMK AO2 SLP156 T00281033=\\n',\n",
       " 'METAR KATL 250452Z 25004KT 10SM CLR 03/M03 A2998 RMK AO2 SLP157 T00331028 400940028=\\n',\n",
       " 'METAR KATL 250552Z 27003KT 10SM CLR 02/M03 A2997 RMK AO2 SLP152 T00221028 10061 20022 50003=\\n',\n",
       " 'METAR KATL 250652Z 27004KT 10SM CLR 02/M03 A2996 RMK AO2 SLP150 T00221028=\\n',\n",
       " 'METAR KATL 250752Z 25004KT 10SM CLR 01/M03 A2997 RMK AO2 SLP153 T00111028=\\n',\n",
       " 'METAR KATL 250852Z 25003KT 10SM CLR 01/M03 A2995 RMK AO2 SLP146 T00061033 58006=\\n',\n",
       " 'METAR KATL 250952Z 00000KT 10SM CLR 01/M03 A2995 RMK AO2 SLP147 T00111028=\\n',\n",
       " 'METAR KATL 251052Z 00000KT 10SM CLR M01/M03 A2996 RMK AO2 SLP152 T10061033=\\n',\n",
       " 'METAR KATL 251152Z 21004KT 10SM FEW200 00/M03 A2996 RMK AO2 SLP152 T00001028 10022 21006 50004=\\n',\n",
       " 'METAR KATL 251252Z 21004KT 10SM FEW200 00/M03 A2996 RMK AO2 SLP152 T00001028=\\n',\n",
       " 'METAR KATL 251352Z 22007KT 10SM FEW200 02/M02 A2995 RMK AO2 SLP150 T00221022=\\n',\n",
       " 'METAR KATL 251452Z 22008KT 10SM FEW220 06/M01 A2994 RMK AO2 SLP144 T00561011 58005=\\n',\n",
       " 'METAR KATL 251552Z 26008KT 10SM FEW250 09/00 A2993 RMK AO2 SLP141 T00940000=\\n',\n",
       " 'METAR KATL 251652Z 22007KT 10SM FEW250 11/01 A2991 RMK AO2 SLP131 T01110006=\\n',\n",
       " 'METAR KATL 251752Z 21010G20KT 10SM FEW250 13/M01 A2986 RMK AO2 SLP115 T01281006 10128 21006 58027=\\n',\n",
       " 'METAR KATL 251852Z 21012G18KT 10SM CLR 14/M01 A2981 RMK AO2 SLP098 T01391011=\\n',\n",
       " 'METAR KATL 251952Z 23011G20KT 10SM FEW250 15/M02 A2978 RMK AO2 SLP087 T01501022=\\n',\n",
       " 'METAR KATL 252052Z 21011KT 10SM FEW150 SCT250 15/M01 A2975 RMK AO2 SLP077 T01501011 56036=\\n',\n",
       " 'METAR KATL 252152Z 21008G18KT 10SM FEW140 SCT200 SCT250 15/M01 A2974 RMK AO2 SLP073 T01501006=\\n',\n",
       " 'METAR KATL 252252Z 19008G16KT 10SM SCT130 SCT200 SCT250 13/M01 A2974 RMK AO2 SLP075 T01331006=\\n',\n",
       " 'METAR KATL 252352Z 19008KT 10SM SCT095 BKN120 BKN200 BKN250 13/M01 A2976 RMK AO2 SLP083 T01281006 10156 20128 53004=\\n',\n",
       " 'METAR KATL 260052Z 20007KT 10SM SCT075 BKN095 OVC130 12/00 A2977 RMK AO2 SLP086 T01170000=\\n',\n",
       " 'METAR KATL 260152Z 20006KT 10SM SCT080 BKN120 BKN200 BKN250 11/00 A2975 RMK AO2 SLP079 T01110000=\\n',\n",
       " 'METAR KATL 260252Z 21005KT 10SM BKN055 BKN075 BKN100 OVC130 11/01 A2975 RMK AO2 SLP075 VIRGA SW-NW T01060006 58005=\\n',\n",
       " 'SPECI KATL 260312Z 25012G21KT 6SM -RA BKN046 OVC075 11/03 A2977 RMK AO2 RAB01 P0000=\\n',\n",
       " 'METAR KATL 260352Z 02009KT 7SM -RA FEW016 BKN034 OVC065 08/06 A2974 RMK AO2 RAB01 PRESFR SLP071 P0003 T00830056=\\n',\n",
       " 'METAR KATL 260452Z 21003KT 10SM FEW034 SCT070 SCT110 SCT250 06/05 A2975 RMK AO2 RAE01 SLP075 P0000 T00610050 401561006=\\n',\n",
       " 'SPECI KATL 260522Z 24005KT 10SM BKN026 BKN070 BKN110 BKN250 06/05 A2975 RMK AO2=\\n',\n",
       " 'SPECI KATL 260543Z 25006KT 10SM SCT024 BKN085 OVC120 07/05 A2974 RMK AO2=\\n',\n",
       " 'METAR KATL 260552Z 25007KT 10SM FEW024 BKN090 BKN130 BKN250 07/05 A2974 RMK AO2 SLP072 60003 T00720050 10128 20056 56002=\\n',\n",
       " 'METAR KATL 260652Z 27012KT 10SM FEW024 SCT080 BKN095 BKN130 07/04 A2973 RMK AO2 SLP068 T00720044=\\n',\n",
       " 'SPECI KATL 260750Z 28014G18KT 10SM BKN027 BKN080 07/04 A2973 RMK AO2=\\n',\n",
       " 'METAR KATL 260752Z 28011G18KT 10SM BKN028 BKN080 07/04 A2973 RMK AO2 SLP068 T00670044=\\n',\n",
       " 'SPECI KATL 260820Z 27010KT 10SM BKN031 06/04 A2974 RMK AO2=\\n',\n",
       " 'METAR KATL 260852Z 26008KT 10SM FEW022 06/03 A2974 RMK AO2 SLP070 T00610033 55001=\\n',\n",
       " 'SPECI KATL 260911Z 27008KT 10SM BKN028 06/04 A2974 RMK AO2=\\n',\n",
       " 'METAR KATL 260952Z 26008KT 10SM BKN018 BKN028 07/04 A2974 RMK AO2 SLP072 T00670039=\\n',\n",
       " 'SPECI KATL 261005Z 26007KT 10SM SCT018 SCT025 BKN035 07/04 A2974 RMK AO2=\\n',\n",
       " 'SPECI KATL 261017Z 26008KT 10SM BKN018 BKN035 07/04 A2975 RMK AO2 BKN018 V SCT=\\n',\n",
       " 'METAR KATL 261052Z 27007KT 10SM BKN018 BKN029 07/04 A2975 RMK AO2 SLP075 BKN018 V SCT T00670039=\\n',\n",
       " 'METAR KATL 261152Z 29012G18KT 10SM BKN017 BKN026 OVC032 07/04 A2977 RMK AO2 SLP082 70003 T00670039 10078 20056 53010=\\n',\n",
       " 'METAR KATL 261252Z 29010G18KT 9SM OVC015 07/03 A2978 RMK AO2 SLP085 T00670033=\\n',\n",
       " 'SPECI KATL 261329Z 28012G18KT 8SM OVC014 07/04 A2979 RMK AO2=\\n',\n",
       " 'METAR KATL 261352Z 29013KT 8SM -DZ OVC014 07/04 A2980 RMK AO2 DZB46 SLP094 PCPN VRY LGT P0000 T00670039=\\n',\n",
       " 'SPECI KATL 261403Z 29013KT 3SM -RA BR BKN014 OVC022 06/04 A2981 RMK AO2 SFC VIS 4 DZE03RAB03 PCPN VRY LGT P0000=\\n',\n",
       " 'SPECI KATL 261439Z 30012G17KT 2SM -RA BR SCT007 OVC014 06/04 A2982 RMK AO2 SFC VIS 2 1/2 DZE03RAB03 P0000=\\n',\n",
       " 'SPECI KATL 261446Z 30011KT 2SM -RA BR BKN009 OVC016 06/04 A2982 RMK AO2 SFC VIS 3 DZE03RAB03 CIG 006V011 P0001=\\n',\n",
       " 'METAR KATL 261452Z 30010KT 2SM BR BKN009 OVC016 06/04 A2982 RMK AO2 SFC VIS 5 DZE03RAB03E50 SLP101 CIG 007V011 P0001 60001 T00610044 53018=\\n',\n",
       " 'SPECI KATL 261459Z 29013G19KT 8SM -DZ FEW009 BKN013 OVC017 06/04 A2983 RMK AO2 DZB58 P0000=\\n',\n",
       " 'METAR KATL 261552Z 31017G24KT 10SM FEW015 SCT028 BKN040 07/03 A2985 RMK AO2 PK WND 31027/1540 DZB1458E08RAB08E15 SLP111 P0000 T00670028=\\n',\n",
       " 'SPECI KATL 261622Z 30020G26KT 10SM BKN023 BKN030 OVC040 07/02 A2986 RMK AO2 PK WND 30026/1622=\\n',\n",
       " 'METAR KATL 261652Z 29016G19KT 10SM FEW015 BKN020 OVC030 06/03 A2986 RMK AO2 PK WND 31027/1629 RAB42E52 SLP114 P0000 T00610028=\\n',\n",
       " 'METAR KATL 261752Z 32015G21KT 10SM SCT018 BKN020 OVC030 06/01 A2985 RMK AO2 SLP111 60001 T00610011 10072 20056 50008=\\n',\n",
       " 'METAR KATL 261852Z 32015G27KT 10SM FEW020 BKN028 OVC033 05/00 A2985 RMK AO2 PK WND 33029/1834 SLP112 T00500000=\\n',\n",
       " 'SPECI KATL 261930Z 31015KT 10SM BKN012 BKN018 OVC026 04/01 A2986 RMK AO2=\\n',\n",
       " 'METAR KATL 261952Z 29016G23KT 10SM FEW012 BKN014 OVC030 03/00 A2987 RMK AO2 SLP119 T00330000=\\n',\n",
       " 'SPECI KATL 262011Z 29017G20KT 10SM FEW012 BKN016 OVC020 04/M01 A2987 RMK AO2=\\n',\n",
       " 'METAR KATL 262052Z 31018G22KT 10SM FEW012 BKN020 OVC030 04/M01 A2987 RMK AO2 SLP120 T00391011 52008=\\n',\n",
       " 'METAR KATL 262152Z 32012G21KT 10SM BKN028 04/M02 A2988 RMK AO2 SLP123 T00391022=\\n',\n",
       " 'METAR KATL 262252Z 31017G22KT 10SM BKN026 03/M02 A2989 RMK AO2 SLP128 T00331022=\\n',\n",
       " 'METAR KATL 262352Z 31011KT 10SM BKN028 BKN250 03/M03 A2992 RMK AO2 SLP136 T00281028 10067 20028 53016=\\n',\n",
       " 'SPECI KATL 270003Z 30009KT 10SM SCT028 BKN250 03/M03 A2992 RMK AO2=\\n',\n",
       " 'METAR KATL 270052Z 30010KT 10SM FEW028 SCT120 BKN200 02/M03 A2993 RMK AO2 SLP140 T00221028=\\n',\n",
       " 'METAR KATL 270152Z 30009KT 10SM FEW075 SCT150 02/M03 A2994 RMK AO2 SLP145 T00221028=\\n',\n",
       " 'METAR KATL 270252Z 30007KT 10SM SCT075 BKN100 BKN150 02/M02 A2992 RMK AO2 SLP136 T00221022 58001=\\n',\n",
       " 'METAR KATL 270352Z 30006KT 10SM FEW070 BKN085 02/M03 A2991 RMK AO2 SLP133 T00171028=\\n',\n",
       " 'METAR KATL 270452Z 31008KT 10SM FEW090 01/M03 A2991 RMK AO2 SLP136 T00111028 400780011=\\n',\n",
       " 'METAR KATL 270552Z 30008KT 10SM CLR 01/M03 A2990 RMK AO2 SLP132 T00111028 10028 20006 58004=\\n',\n",
       " 'METAR KATL 270652Z 29009KT 10SM CLR 00/M03 A2990 RMK AO2 SLP132 T00001028=\\n',\n",
       " 'METAR KATL 270752Z 29007KT 10SM BKN050 00/M03 A2989 RMK AO2 SLP130 T00001028=\\n',\n",
       " 'METAR KATL 270852Z 29008KT 10SM BKN050 00/M03 A2987 RMK AO2 SLP123 T00001028 58010=\\n',\n",
       " 'METAR KATL 270952Z 28006KT 10SM OVC048 01/M02 A2986 RMK AO2 SLP118 T00061022=\\n',\n",
       " 'METAR KATL 271052Z 29007KT 10SM BKN055 01/M02 A2986 RMK AO2 SLP120 T00061022=\\n',\n",
       " 'METAR KATL 271152Z 29007KT 10SM FEW042 BKN055 01/M02 A2988 RMK AO2 SLP127 70001 T00061022 10011 21006 53003=\\n',\n",
       " 'METAR KATL 271252Z 29006KT 10SM FEW042 SCT055 01/M02 A2990 RMK AO2 SLP133 T00061022=\\n',\n",
       " 'METAR KATL 271352Z 31007KT 10SM FEW055 02/M02 A2991 RMK AO2 SLP134 T00221017=\\n',\n",
       " 'METAR KATL 271452Z 31010KT 10SM FEW055 04/M01 A2992 RMK AO2 SLP138 T00441006 52013=\\n',\n",
       " 'METAR KATL 271552Z 33015G22KT 10SM FEW026 SCT055 07/00 A2994 RMK AO2 SLP144 T00720000=\\n',\n",
       " 'METAR KATL 271652Z 33019G26KT 10SM BKN037 BKN055 09/M01 A2994 RMK AO2 PK WND 35026/1650 SLP145 T00891006=\\n',\n",
       " 'METAR KATL 271752Z 34014G22KT 10SM FEW035 BKN050 08/M01 A2995 RMK AO2 PK WND 33031/1655 SLP148 T00781006 10089 20006 51011=\\n',\n",
       " 'METAR KATL 271852Z 31017G22KT 10SM BKN037 BKN050 08/M01 A2996 RMK AO2 SLP149 T00831011=\\n',\n",
       " 'METAR KATL 271952Z 34013KT 10SM FEW040 SCT050 08/M02 A2996 RMK AO2 SLP152 T00831022=\\n',\n",
       " 'METAR KATL 272052Z 34013G17KT 10SM SCT043 SCT055 09/M02 A2998 RMK AO2 SLP158 T00891022 53009=\\n',\n",
       " 'METAR KATL 272152Z 32012G17KT 10SM FEW045 08/M02 A2999 RMK AO2 SLP161 T00831017=\\n',\n",
       " 'METAR KATL 272252Z 35011KT 10SM FEW045 07/M01 A3001 RMK AO2 SLP169 T00721011=\\n',\n",
       " 'METAR KATL 272352Z 36011KT 10SM FEW045 06/M01 A3004 RMK AO2 SLP179 T00611011 10100 20061 53019=\\n',\n",
       " 'METAR KATL 280052Z 35011KT 10SM FEW040 05/M02 A3005 RMK AO2 SLP185 T00501017=\\n',\n",
       " 'METAR KATL 280152Z 33009KT 10SM FEW040 04/M02 A3007 RMK AO2 SLP189 T00391017=\\n',\n",
       " 'METAR KATL 280252Z 34010KT 10SM FEW040 03/M02 A3008 RMK AO2 SLP193 T00331017 51013=\\n',\n",
       " 'METAR KATL 280352Z 34009KT 10SM CLR 03/M02 A3008 RMK AO2 SLP193 T00281022=\\n',\n",
       " 'METAR KATL 280452Z 34012G18KT 10SM FEW035 03/M03 A3010 RMK AO2 SLP196 T00281028 401001006=\\n',\n",
       " 'SPECI KATL 280538Z 34011G18KT 10SM BKN025 03/M03 A3010 RMK AO2=\\n',\n",
       " 'METAR KATL 280552Z 35010KT 10SM BKN025 03/M03 A3010 RMK AO2 SLP198 T00281028 10061 20022 53006=\\n',\n",
       " 'METAR KATL 280652Z 34013G20KT 10SM BKN023 02/M03 A3009 RMK AO2 SLP194 T00221033=\\n',\n",
       " 'SPECI KATL 280658Z 35015G20KT 10SM SCT023 02/M03 A3009 RMK AO2=\\n',\n",
       " 'METAR KATL 280752Z 34010KT 10SM SCT023 02/M04 A3011 RMK AO2 SLP202 T00171039=\\n',\n",
       " 'METAR KATL 280852Z 33009KT 10SM CLR 01/M04 A3013 RMK AO2 SLP207 T00111044 53008=\\n',\n",
       " 'METAR KATL 280952Z 33010KT 10SM CLR 01/M04 A3015 RMK AO2 SLP216 T00061044=\\n',\n",
       " 'METAR KATL 281052Z 33007KT 10SM CLR 00/M04 A3017 RMK AO2 SLP225 T00001044=\\n',\n",
       " 'METAR KATL 281152Z 33010KT 10SM CLR 00/M04 A3020 RMK AO2 SLP235 T00001044 10028 20000 53026=\\n',\n",
       " 'METAR KATL 281252Z 33007KT 10SM CLR 00/M04 A3023 RMK AO2 SLP245 T00001044=\\n',\n",
       " 'METAR KATL 281352Z 36009KT 10SM CLR 01/M04 A3025 RMK AO2 SLP250 T00111039=\\n',\n",
       " 'METAR KATL 281452Z 33011KT 10SM CLR 03/M04 A3027 RMK AO2 SLP257 T00331039 51021=\\n',\n",
       " 'METAR KATL 281552Z 33007KT 10SM CLR 06/M05 A3028 RMK AO2 SLP260 T00561050=\\n',\n",
       " 'METAR KATL 281652Z 35007KT 10SM FEW250 08/M05 A3029 RMK AO2 SLP261 T00781050=\\n',\n",
       " 'METAR KATL 281752Z 06005KT 10SM FEW250 09/M05 A3025 RMK AO2 SLP250 T00891050 10094 20000 58005=\\n',\n",
       " 'METAR KATL 281852Z VRB03KT 10SM FEW250 11/M06 A3023 RMK AO2 SLP241 T01061056=\\n',\n",
       " 'METAR KATL 281952Z 00000KT 10SM FEW250 12/M05 A3022 RMK AO2 SLP239 T01221050=\\n',\n",
       " 'METAR KATL 282052Z 15003KT 10SM SCT250 12/M06 A3023 RMK AO2 SLP241 T01221061 55008=\\n',\n",
       " 'METAR KATL 282152Z 00000KT 10SM FEW250 13/M06 A3022 RMK AO2 SLP239 T01281061=\\n',\n",
       " 'METAR KATL 282252Z 27003KT 10SM CLR 12/M07 A3023 RMK AO2 SLP242 T01171067=\\n',\n",
       " 'METAR KATL 282352Z 00000KT 10SM CLR 09/M05 A3024 RMK AO2 SLP245 T00941050 10128 20089 53003=\\n',\n",
       " 'METAR KATL 290052Z 15003KT 10SM CLR 08/M04 A3024 RMK AO2 SLP246 T00831044=\\n',\n",
       " 'METAR KATL 290152Z 17003KT 10SM FEW250 08/M05 A3027 RMK AO2 SLP256 T00781050=\\n',\n",
       " 'METAR KATL 290252Z 18004KT 10SM FEW250 06/M03 A3028 RMK AO2 SLP260 T00611033 53015=\\n',\n",
       " 'METAR KATL 290352Z 16005KT 10SM FEW250 06/M03 A3027 RMK AO2 SLP255 T00561033=\\n',\n",
       " 'METAR KATL 290452Z 15004KT 10SM SCT250 06/M03 A3026 RMK AO2 SLP253 T00561028 401280000=\\n',\n",
       " 'METAR KATL 290552Z 16005KT 10SM BKN250 05/M03 A3025 RMK AO2 SLP249 T00501028 10100 20044 56009=\\n',\n",
       " 'METAR KATL 290652Z 00000KT 10SM BKN250 05/M03 A3026 RMK AO2 SLP251 T00501028=\\n',\n",
       " 'METAR KATL 290752Z 00000KT 10SM FEW200 BKN250 04/M03 A3029 RMK AO2 SLP259 T00391028=\\n',\n",
       " 'METAR KATL 290852Z 12003KT 10SM BKN200 BKN250 03/M03 A3029 RMK AO2 SLP261 T00331028 51013=\\n',\n",
       " 'METAR KATL 290952Z 00000KT 10SM SCT200 BKN250 02/M02 A3027 RMK AO2 SLP256 T00221022=\\n',\n",
       " 'METAR KATL 291052Z 14005KT 10SM SCT200 BKN250 02/M02 A3026 RMK AO2 SLP251 T00221022=\\n',\n",
       " 'METAR KATL 291152Z 17004KT 10SM FEW200 SCT250 03/M02 A3027 RMK AO2 SLP257 T00281022 10056 20022 55005=\\n',\n",
       " 'METAR KATL 291252Z 18003KT 10SM BKN200 BKN250 02/M03 A3029 RMK AO2 SLP263 T00221028=\\n',\n",
       " 'METAR KATL 291352Z 19005KT 10SM FEW150 BKN200 BKN250 04/M02 A3031 RMK AO2 SLP267 T00441022=\\n',\n",
       " 'METAR KATL 291452Z 19008KT 10SM FEW150 SCT200 BKN250 05/M02 A3029 RMK AO2 SLP263 T00501022 50006=\\n',\n",
       " 'METAR KATL 291552Z 20009KT 10SM FEW150 BKN200 BKN250 08/M02 A3030 RMK AO2 SLP266 T00781022=\\n',\n",
       " 'METAR KATL 291652Z 20010KT 10SM FEW150 SCT200 BKN250 09/M02 A3027 RMK AO2 SLP255 T00941017=\\n',\n",
       " 'METAR KATL 291752Z 21008KT 10SM FEW150 BKN170 BKN250 12/M03 A3023 RMK AO2 SLP241 T01171028 10117 20022 58020=\\n',\n",
       " 'METAR KATL 291852Z 21010KT 10SM FEW130 BKN150 BKN250 13/M02 A3017 RMK AO2 SLP218 VIRGA DSNT N-NE ACC OHD-SW-NW T01331022=\\n',\n",
       " 'METAR KATL 291952Z 20010KT 10SM BKN110 BKN150 BKN250 14/M04 A3014 RMK AO2 SLP210 VIRGA DSNT E ACC E-SE-S T01441039=\\n',\n",
       " 'METAR KATL 292052Z 19010KT 10SM SCT100 BKN150 BKN250 15/M04 A3012 RMK AO2 SLP202 ACC N & SE-S-SW T01501039 56037=\\n',\n",
       " 'METAR KATL 292152Z 20009G14KT 10SM SCT100 BKN140 BKN250 14/M03 A3011 RMK AO2 SLP201 VIRGA DSNT E-SE-S-SW ACC DSNT N & SE-S-SW & NW T01441033=\\n',\n",
       " 'METAR KATL 292252Z 21005KT 10SM BKN100 BKN150 BKN250 14/M02 A3012 RMK AO2 SLP202 VIRGA DSNT NE AND SE ACC NW-N-NE T01391022=\\n',\n",
       " 'METAR KATL 292352Z 22003KT 10SM SCT100 BKN130 BKN250 12/M02 A3013 RMK AO2 SLP206 ACC SE T01221017 10156 20117 53002=\\n',\n",
       " 'METAR KATL 300052Z 22003KT 10SM OVC060 12/M01 A3013 RMK AO2 SLP208 BINOVC T01221006=\\n',\n",
       " 'METAR KATL 300152Z 21006KT 10SM BKN050 OVC075 12/00 A3012 RMK AO2 SLP202 T01220000=\\n',\n",
       " 'METAR KATL 300252Z 24004KT 10SM BKN050 BKN070 OVC090 12/01 A3011 RMK AO2 SLP200 T01220006 58004=\\n',\n",
       " 'METAR KATL 300352Z 21005KT 10SM BKN048 OVC090 12/01 A3010 RMK AO2 RAB43E51 SLP195 P0000 T01220011=\\n',\n",
       " 'METAR KATL 300452Z 23007KT 10SM BKN040 OVC055 12/02 A3009 RMK AO2 RAB40E49 SLP189 P0000 T01220022 401560022=\\n',\n",
       " 'METAR KATL 300552Z 28008KT 10SM BKN035 OVC050 13/03 A3009 RMK AO2 SLP191 60000 T01280033 10133 20117 55006=\\n',\n",
       " 'METAR KATL 300652Z 32018G24KT 10SM FEW026 OVC032 11/04 A3013 RMK AO2 PK WND 35027/0642 SLP201 T01060039=\\n',\n",
       " 'SPECI KATL 300702Z 33023G28KT 10SM BKN026 OVC034 10/03 A3013 RMK AO2 PK WND 32028/0701=\\n',\n",
       " 'METAR KATL 300752Z 34019G26KT 10SM OVC026 08/02 A3015 RMK AO2 PK WND 33029/0719 SLP211 T00830022=\\n',\n",
       " 'METAR KATL 300852Z 33020G35KT 10SM OVC024 06/M01 A3017 RMK AO2 PK WND 35035/0848 SLP219 T00611006 51026=\\n',\n",
       " 'METAR KATL 300952Z 32022G31KT 10SM BKN030 BKN250 05/M02 A3018 RMK AO2 PK WND 32031/0945 SLP223 T00501022=\\n',\n",
       " 'METAR KATL 301052Z 33022G34KT 10SM FEW032 SCT250 04/M04 A3021 RMK AO2 PK WND 32034/1047 SLP234 T00391039=\\n',\n",
       " 'METAR KATL 301152Z 33014KT 10SM FEW034 SCT200 03/M04 A3023 RMK AO2 PK WND 33029/1128 SLP240 T00331039 10128 20033 53018=\\n',\n",
       " 'METAR KATL 301252Z 34013G20KT 10SM FEW034 SCT200 SCT250 03/M04 A3024 RMK AO2 SLP245 T00331039=\\n',\n",
       " 'METAR KATL 301352Z 33021G28KT 10SM FEW034 SCT250 04/M03 A3027 RMK AO2 PK WND 33028/1351 SLP255 T00441033=\\n',\n",
       " 'METAR KATL 301452Z 33018G26KT 10SM FEW035 SCT250 06/M03 A3030 RMK AO2 PK WND 33029/1412 SLP263 T00561033 53023=\\n',\n",
       " 'METAR KATL 301552Z 32014G23KT 10SM FEW045 SCT250 07/M04 A3032 RMK AO2 PK WND 32031/1508 SLP268 T00721039=\\n',\n",
       " 'METAR KATL 301652Z 32017G27KT 10SM FEW050 SCT250 08/M04 A3032 RMK AO2 PK WND 32027/1647 SLP268 T00781044=\\n',\n",
       " 'METAR KATL 301752Z 33018G24KT 10SM FEW250 09/M05 A3029 RMK AO2 PK WND 33028/1729 SLP259 T00891050 10089 20033 58002=\\n',\n",
       " 'METAR KATL 301852Z 32016G20KT 10SM FEW250 09/M05 A3027 RMK AO2 SLP253 T00941050=\\n',\n",
       " 'METAR KATL 301952Z 34015G21KT 10SM FEW250 10/M06 A3026 RMK AO2 SLP250 T01001061=\\n',\n",
       " 'METAR KATL 302052Z 33015G21KT 10SM FEW250 10/M07 A3027 RMK AO2 SLP252 T01001067 55008=\\n',\n",
       " 'METAR KATL 302152Z 33017G23KT 10SM FEW250 09/M08 A3028 RMK AO2 SLP259 T00941078=\\n',\n",
       " 'METAR KATL 302252Z 33015G20KT 10SM FEW250 08/M07 A3029 RMK AO2 SLP263 T00781072=\\n',\n",
       " 'METAR KATL 302352Z 35011KT 10SM FEW250 07/M07 A3031 RMK AO2 SLP269 T00671067 10106 20061 51013=\\n',\n",
       " 'METAR KATL 310052Z 34011KT 10SM FEW250 06/M06 A3031 RMK AO2 SLP271 T00611061=\\n',\n",
       " 'METAR KATL 310152Z 34011KT 10SM FEW250 05/M07 A3032 RMK AO2 SLP274 T00501067=\\n',\n",
       " 'METAR KATL 310252Z 34009G15KT 10SM FEW250 04/M07 A3033 RMK AO2 SLP278 T00441072 53009=\\n',\n",
       " 'METAR KATL 310352Z 34007KT 10SM FEW250 03/M07 A3034 RMK AO2 SLP279 T00281072=\\n',\n",
       " 'METAR KATL 310452Z 33006KT 10SM FEW250 02/M07 A3034 RMK AO2 SLP280 T00221072 401330022=\\n',\n",
       " 'METAR KATL 310552Z 33009KT 10SM FEW250 02/M07 A3032 RMK AO2 SLP271 T00171067 10067 20017 58006=\\n',\n",
       " 'METAR KATL 310652Z 32007KT 10SM FEW250 01/M07 A3032 RMK AO2 SLP272 T00111067=\\n',\n",
       " 'METAR KATL 310752Z 34008KT 10SM FEW250 01/M07 A3032 RMK AO2 SLP272 T00061067=\\n',\n",
       " 'METAR KATL 310852Z 34005KT 10SM FEW250 00/M07 A3031 RMK AO2 SLP271 T00001072 58001=\\n',\n",
       " 'METAR KATL 310952Z 00000KT 10SM FEW250 M01/M07 A3031 RMK AO2 SLP271 T10061072=\\n',\n",
       " 'METAR KATL 311052Z 34005KT 10SM SCT250 M01/M07 A3031 RMK AO2 SLP271 T10111072=\\n',\n",
       " 'METAR KATL 311152Z 00000KT 10SM SCT200 BKN250 M02/M07 A3033 RMK AO2 SLP279 T10171072 10017 21017 53006=\\n',\n",
       " 'METAR KATL 311252Z 30005KT 10SM SCT200 BKN250 M01/M07 A3034 RMK AO2 SLP283 T10111067=\\n',\n",
       " 'METAR KATL 311352Z 33003KT 10SM SCT200 SCT250 01/M06 A3035 RMK AO2 SLP286 T00061061=\\n',\n",
       " 'METAR KATL 311452Z 00000KT 10SM FEW150 SCT250 05/M07 A3038 RMK AO2 SLP293 T00501072 53015=\\n',\n",
       " 'METAR KATL 311552Z 18005KT 10SM BKN150 BKN250 06/M08 A3038 RMK AO2 SLP296 T00611083=\\n',\n",
       " 'METAR KATL 311652Z 00000KT 10SM BKN180 08/M08 A3037 RMK AO2 SLP292 T00781083=\\n',\n",
       " 'METAR KATL 311752Z VRB03KT 10SM BKN140 BKN180 09/M08 A3035 RMK AO2 SLP282 T00941078 10094 21017 58009=\\n',\n",
       " 'METAR KATL 311852Z 00000KT 10SM FEW140 BKN170 11/M08 A3032 RMK AO2 SLP271 T01111083=\\n',\n",
       " 'METAR KATL 311952Z 00000KT 10SM FEW140 BKN170 12/M09 A3030 RMK AO2 SLP266 T01171089=\\n',\n",
       " 'METAR KATL 312052Z 10004KT 10SM FEW130 BKN160 BKN250 12/M09 A3029 RMK AO2 SLP261 T01221089 56019=\\n',\n",
       " 'METAR KATL 312152Z 00000KT 10SM BKN170 12/M11 A3028 RMK AO2 SLP259 T01171106=\\n',\n",
       " 'METAR KATL 312252Z 00000KT 10SM FEW120 BKN160 BKN200 OVC250 12/M11 A3028 RMK AO2 SLP259 T01171111=\\n',\n",
       " 'METAR KATL 312352Z 10004KT 10SM FEW120 BKN150 BKN200 OVC250 11/M09 A3029 RMK AO2 SLP262 VIRGA NW-NE T01111089 10133 20089 55000=\\n',\n",
       " 'METAR KATL 010052Z 11004KT 10SM BKN180 BKN250 10/M07 A3029 RMK AO2 SLP264 T01001072=\\n',\n",
       " 'METAR KATL 010152Z 14003KT 10SM BKN180 BKN250 09/M07 A3029 RMK AO2 SLP262 T00941067=\\n',\n",
       " 'METAR KATL 010252Z 00000KT 10SM BKN180 OVC250 09/M07 A3028 RMK AO2 SLP258 T00891067 58002=\\n',\n",
       " 'METAR KATL 010352Z 00000KT 10SM FEW150 OVC180 08/M06 A3027 RMK AO2 SLP255 T00831056=\\n',\n",
       " 'METAR KATL 010452Z 00000KT 10SM FEW150 BKN180 OVC250 08/M05 A3026 RMK AO2 SLP252 T00781050 401331017=\\n',\n",
       " 'METAR KATL 010552Z 15003KT 10SM BKN120 OVC180 07/M05 A3025 RMK AO2 SLP247 VIRGA NW-NE T00721050 10111 20072 58010=\\n',\n",
       " 'METAR KATL 010652Z 13003KT 10SM SCT150 SCT180 BKN200 07/M06 A3024 RMK AO2 SLP241 T00721061=\\n',\n",
       " 'METAR KATL 010752Z 11003KT 10SM SCT150 BKN200 BKN250 07/M07 A3023 RMK AO2 SLP239 T00721067=\\n',\n",
       " 'METAR KATL 010852Z 13005KT 10SM SCT150 BKN180 OVC250 06/M04 A3021 RMK AO2 SLP232 T00611044 58013=\\n',\n",
       " 'METAR KATL 010952Z 12003KT 10SM BKN150 OVC180 06/M04 A3020 RMK AO2 SLP228 T00561044=\\n',\n",
       " 'METAR KATL 011052Z 12004KT 10SM FEW150 BKN180 BKN250 06/M04 A3020 RMK AO2 SLP229 T00561039 $=\\n',\n",
       " 'METAR KATL 011152Z 12004KT 10SM FEW150 BKN180 BKN250 05/M02 A3020 RMK AO2 SLP229 VIRGA NW-N T00501022 10078 20050 56004 $=\\n',\n",
       " 'METAR KATL 011252Z 12005KT 10SM FEW150 SCT180 BKN250 04/M01 A3020 RMK AO2 SLP229 VIRGA NW-N T00441011 $=\\n',\n",
       " 'METAR KATL 011352Z 13006KT 10SM SCT180 BKN220 BKN250 06/01 A3018 RMK AO2 SLP224 T00610006 $=\\n',\n",
       " 'METAR KATL 011452Z 16008KT 10SM SCT039 BKN180 BKN250 09/03 A3017 RMK AO2 SLP220 T00940028 58008 $=\\n',\n",
       " 'METAR KATL 011552Z 20013G19KT 10SM BKN030 BKN044 12/05 A3017 RMK AO2 SLP220 T01170050 $=\\n',\n",
       " 'SPECI KATL 011604Z 19011KT 10SM BKN024 BKN028 OVC034 12/05 A3017 RMK AO2 $=\\n',\n",
       " 'SPECI KATL 011619Z 19008G15KT 10SM SCT024 BKN050 OVC120 12/05 A3016 RMK AO2 $=\\n',\n",
       " 'METAR KATL 011652Z 19006KT 10SM SCT028 BKN044 OVC120 13/06 A3014 RMK AO2 SLP208 T01280056 $=\\n',\n",
       " 'METAR KATL 011752Z 18009KT 10SM SCT023 BKN060 OVC120 13/07 A3010 RMK AO2 SLP192 T01330067 10133 20044 58025 $=\\n',\n",
       " 'METAR KATL 011852Z 17010KT 10SM SCT022 OVC080 13/07 A3003 RMK AO2 SLP171 T01330067 $=\\n',\n",
       " 'SPECI KATL 011924Z 17008KT 10SM -RA BKN022 OVC070 13/08 A3002 RMK AO2 RAB1853 P0000 $=\\n',\n",
       " 'SPECI KATL 011944Z 16009KT 6SM -RA SCT022 BKN044 OVC075 12/08 A3000 RMK AO2 RAB1853 P0001 $=\\n',\n",
       " 'METAR KATL 011952Z 16008KT 7SM -RA SCT022 SCT047 OVC080 12/08 A3000 RMK AO2 RAB1853 SLP159 P0001 T01220083 $=\\n',\n",
       " 'SPECI KATL 012005Z 17007KT 10SM -RA BKN024 OVC075 12/09 A3000 RMK AO2 P0000 $=\\n',\n",
       " 'SPECI KATL 012032Z 19005KT 6SM -RA SCT024 BKN041 OVC050 12/09 A2999 RMK AO2 P0001 $=\\n',\n",
       " 'METAR KATL 012052Z 16009KT 6SM -RA SCT026 BKN055 OVC090 12/09 A2996 RMK AO2 PRESFR SLP146 P0004 60005 T01220089 56046 $=\\n',\n",
       " 'METAR KATL 012152Z 17010KT 5SM RA BR BKN030 BKN045 OVC070 12/10 A2995 RMK AO2 SLP145 P0005 T01170100 $=\\n',\n",
       " 'METAR KATL 012252Z 17012KT 6SM -RA BR SCT031 BKN050 OVC080 12/11 A2992 RMK AO2 SLP135 P0007 T01220106 $=\\n',\n",
       " 'SPECI KATL 012312Z 18012KT 8SM -RA FEW007 SCT034 OVC070 12/11 A2992 RMK AO2 P0002 $=\\n',\n",
       " 'SPECI KATL 012330Z 18009G18KT 10SM -RA BKN008 BKN040 OVC070 13/11 A2992 RMK AO2 P0002 $=\\n',\n",
       " 'METAR KATL 012352Z 18014G20KT 6SM -RA BR BKN008 OVC048 13/11 A2990 RMK AO2 SLP129 CIG 006V010 P0004 60021 T01280111 10133 20117 58017 $=\\n',\n",
       " 'METAR KATL 020052Z 18011G19KT 9SM -RA BKN008 OVC014 13/12 A2988 RMK AO2 SLP120 CIG 006V009 P0003 T01280117 $=\\n',\n",
       " 'METAR KATL 020152Z 19015G26KT 5SM -RA BR BKN007 OVC018 13/12 A2986 RMK AO2 PK WND 20026/0149 SLP114 CIG 006V009 P0003 T01330117 $=\\n',\n",
       " 'METAR KATL 020252Z 19014G26KT 6SM -RA BR OVC008 13/12 A2983 RMK AO2 PK WND 18027/0202 SLP101 CIG 006V010 P0007 60013 T01330117 58024 $=\\n',\n",
       " 'METAR KATL 020352Z 19013G22KT 7SM -RA BKN006 OVC013 13/12 A2978 RMK AO2 SLP085 CIG 004V008 P0010 T01330117 $=\\n',\n",
       " 'METAR KATL 020452Z 25014G21KT 6SM R09R/5000VP6000FT -RA BR OVC006CB 14/12 A2980 RMK AO2 PRESRR SLP089 CB SW-NW-N MOV E P0004 T01390122 401390044 $=\\n',\n",
       " 'SPECI KATL 020454Z 25013G21KT 3/4SM R09R/5000VP6000FT +RA BR OVC006CB 14/12 A2981 RMK AO2 PRESRR CB NE-OHD-SW MOV E P0000 $=\\n',\n",
       " 'SPECI KATL 020457Z 29008G19KT 1 1/2SM R09R/5000VP6000FT +RA BR BKN006 OVC028CB 14/12 A2980 RMK AO2 WSHFT 0442 CB NE-OHD-SW MOV E P0011 $=\\n',\n",
       " 'SPECI KATL 020500Z 29008G19KT 3SM R09R/5000VP6000FT RA BR BKN006 BKN028CB OVC065 14/13 A2978 RMK AO2 WSHFT 0442 CB NE-SE-S MOV E P0013 $=\\n',\n",
       " 'SPECI KATL 020505Z 25006KT 6SM -RA BR SCT006 BKN034CB OVC065 14/12 A2978 RMK AO2 WSHFT 0442 CB NE-SE-S MOV E P0014 $=\\n',\n",
       " 'METAR KATL 020552Z 20006KT 10SM -RA FEW050 BKN085 OVC110 13/12 A2975 RMK AO2 WSHFT 0442 SLP071 P0023 60050 T01280117 10139 20128 58027 $=\\n',\n",
       " 'METAR KATL 020652Z 21007KT 7SM -RA SCT014 SCT055 OVC085 13/12 A2972 RMK AO2 SLP063 P0003 T01330122 $=\\n',\n",
       " 'SPECI KATL 020700Z 22007KT 5SM -RA BR BKN008 BKN028 OVC085 13/12 A2972 RMK AO2 CIG 006V010 P0001 $=\\n',\n",
       " 'METAR KATL 020752Z 24007KT 4SM RA BR BKN005 OVC011 14/13 A2971 RMK AO2 SLP059 CIG 004V008 P0008 T01390128 $=\\n',\n",
       " 'SPECI KATL 020814Z 29009KT 2 1/2SM RA BR BKN004 BKN009 OVC032 14/13 A2971 RMK AO2 P0008 $=\\n',\n",
       " 'SPECI KATL 020820Z 27014G20KT 6SM -RA BR SCT004 BKN034 OVC080 14/12 A2971 RMK AO2 P0009 $=\\n',\n",
       " 'METAR KATL 020852Z 27012KT 8SM -RA SCT008 BKN046 OVC075 14/12 A2971 RMK AO2 SLP060 P0010 60021 T01390117 55011 $=\\n',\n",
       " 'SPECI KATL 020901Z 32021KT 7SM BKN008 BKN018 OVC075 13/11 A2972 RMK AO2 RAE0858 P0001 $=\\n',\n",
       " 'SPECI KATL 020950Z 30012KT 10SM FEW009 BKN013 OVC028 12/09 A2973 RMK AO2 RAE46 P0001 $=\\n',\n",
       " 'METAR KATL 020952Z 29012KT 10SM FEW009 BKN013 OVC028 12/09 A2974 RMK AO2 RAE46 SLP069 P0001 T01170094 $=\\n',\n",
       " 'SPECI KATL 021001Z 29012KT 10SM FEW009 BKN015 OVC090 11/09 A2974 RMK AO2 $=\\n',\n",
       " 'SPECI KATL 021041Z 29017G23KT 10SM SCT017 BKN034 OVC100 11/06 A2975 RMK AO2 $=\\n',\n",
       " 'METAR KATL 021052Z 27014G24KT 10SM FEW018 BKN036 BKN100 BKN180 10/06 A2976 RMK AO2 SLP076 T01000056=\\n',\n",
       " 'SPECI KATL 021131Z 30014G24KT 10SM BKN022 BKN034 BKN100 OVC180 09/06 A2978 RMK AO2=\\n',\n",
       " 'METAR KATL 021152Z 31022G31KT 10SM BKN018 BKN026 OVC100 08/03 A2980 RMK AO2 PK WND 30035/1137 SLP090 60022 70093 T00780033 10139 20078 53027=\\n',\n",
       " 'SPECI KATL 021235Z 29019G28KT 10SM SCT024 OVC033 07/01 A2984 RMK AO2 PK WND 29029/1220 BINOVC=\\n',\n",
       " 'METAR KATL 021252Z 29018G25KT 10SM BKN025 OVC036 06/01 A2985 RMK AO2 PK WND 29029/1220 SLP109 BKN025 V SCT BINOVC T00610011=\\n',\n",
       " 'SPECI KATL 021330Z 31021G29KT 10SM SCT023 BKN034 OVC040 06/00 A2988 RMK AO2 PK WND 31029/1330 BINOVC=\\n',\n",
       " 'METAR KATL 021352Z 30021G28KT 10SM FEW023 OVC034 06/M01 A2989 RMK AO2 PK WND 29030/1341 SLP124 T00561006=\\n',\n",
       " 'METAR KATL 021452Z 30020G29KT 10SM FEW030 SCT035 BKN050 06/M01 A2994 RMK AO2 PK WND 31032/1414 SLP141 SHRA DSNT N-NE T00561006 51049=\\n',\n",
       " 'SPECI KATL 021522Z 31019G28KT 10SM BKN029 BKN036 BKN048 05/M01 A2996 RMK AO2 PK WND 30032/1504=\\n',\n",
       " 'SPECI KATL 021549Z 31017G30KT 10SM FEW029 BKN036 BKN045 05/M02 A2998 RMK AO2 PK WND 30032/1535=\\n',\n",
       " 'METAR KATL 021552Z 31020G25KT 10SM FEW029 BKN036 BKN045 05/M02 A2998 RMK AO2 PK WND 30032/1535 SLP155 T00501022=\\n',\n",
       " 'METAR KATL 021652Z 30019G29KT 10SM BKN038 BKN046 05/M03 A3002 RMK AO2 PK WND 33033/1618 SLP166 T00501028=\\n',\n",
       " 'METAR KATL 021752Z 32022G28KT 10SM BKN034 BKN040 06/M02 A3003 RMK AO2 PK WND 29029/1739 SLP170 T00561022 10072 20044 53015=\\n',\n",
       " 'METAR KATL 021852Z 32023G27KT 10SM SCT034 05/M03 A3004 RMK AO2 PK WND 32030/1830 SLP173 T00501028=\\n',\n",
       " 'METAR KATL 021952Z 31024G28KT 10SM BKN030 04/M03 A3005 RMK AO2 PK WND 34030/1923 SLP177 T00441028=\\n',\n",
       " 'METAR KATL 022052Z 32017G25KT 10SM SCT030 04/M04 A3007 RMK AO2 PK WND 33028/1957 SLP187 T00391039 53015=\\n',\n",
       " 'METAR KATL 022152Z 31019G23KT 10SM FEW035 04/M04 A3010 RMK AO2 SLP198 T00391044=\\n',\n",
       " 'METAR KATL 022252Z 34015G18KT 10SM FEW035 03/M06 A3013 RMK AO2 SLP207 T00281061=\\n',\n",
       " 'METAR KATL 022352Z 33014KT 10SM CLR 02/M07 A3016 RMK AO2 SLP218 T00171067 10061 20017 53027=\\n',\n",
       " 'METAR KATL 030052Z 32010KT 10SM CLR 01/M07 A3018 RMK AO2 SLP228 T00061067=\\n',\n",
       " 'METAR KATL 030152Z 33012KT 10SM CLR 00/M07 A3020 RMK AO2 SLP236 T00001067=\\n',\n",
       " 'METAR KATL 030252Z 34008KT 10SM CLR M01/M07 A3021 RMK AO2 SLP240 T10111072 51019=\\n',\n",
       " 'METAR KATL 030352Z 35010KT 10SM CLR M02/M08 A3019 RMK AO2 SLP234 T10171078=\\n',\n",
       " 'METAR KATL 030452Z 32010KT 10SM CLR M02/M08 A3024 RMK AO2 SLP249 T10221078 401391022=\\n',\n",
       " 'METAR KATL 030552Z 34012KT 10SM CLR M02/M08 A3024 RMK AO2 SLP248 T10221078 10017 21022 53007=\\n',\n",
       " 'METAR KATL 030652Z 34010KT 10SM CLR M03/M08 A3022 RMK AO2 SLP244 T10281078=\\n',\n",
       " 'METAR KATL 030752Z 33009KT 10SM CLR M03/M08 A3024 RMK AO2 SLP250 T10281078=\\n',\n",
       " 'METAR KATL 030852Z 32009KT 10SM CLR M03/M08 A3025 RMK AO2 SLP254 T10331078 53005=\\n',\n",
       " 'METAR KATL 030952Z 33009KT 10SM FEW250 M03/M08 A3026 RMK AO2 SLP257 T10331078=\\n',\n",
       " 'METAR KATL 031052Z 33008KT 10SM SCT250 M04/M08 A3027 RMK AO2 SLP260 T10391078=\\n',\n",
       " 'METAR KATL 031152Z 33005KT 10SM SCT250 M04/M08 A3029 RMK AO2 SLP267 T10391078 11022 21039 53011=\\n',\n",
       " 'METAR KATL 031252Z 33008KT 10SM BKN250 M03/M08 A3030 RMK AO2 SLP273 T10331078=\\n',\n",
       " 'METAR KATL 031352Z 33007KT 10SM BKN250 M03/M07 A3031 RMK AO2 SLP274 T10281072=\\n',\n",
       " 'METAR KATL 031452Z 32003KT 10SM BKN250 00/M07 A3034 RMK AO2 SLP284 T00001072 53017=\\n',\n",
       " 'METAR KATL 031552Z 00000KT 10SM BKN250 02/M07 A3035 RMK AO2 SLP287 T00221072=\\n',\n",
       " 'METAR KATL 031652Z 00000KT 10SM BKN250 05/M07 A3035 RMK AO2 SLP286 T00501072=\\n',\n",
       " 'METAR KATL 031752Z 00000KT 10SM BKN250 07/M08 A3033 RMK AO2 SLP279 T00671078 10072 21039 58001=\\n',\n",
       " 'METAR KATL 031852Z VRB04KT 10SM BKN250 08/M07 A3030 RMK AO2 SLP269 T00831072=\\n',\n",
       " 'METAR KATL 031952Z 34003KT 10SM BKN250 09/M09 A3029 RMK AO2 SLP264 T00891094=\\n',\n",
       " 'METAR KATL 032052Z 00000KT 10SM FEW200 BKN250 10/M10 A3027 RMK AO2 SLP259 T01001100 56019=\\n',\n",
       " 'METAR KATL 032152Z 00000KT 10SM BKN250 09/M09 A3027 RMK AO2 SLP256 T00941094=\\n',\n",
       " 'METAR KATL 032252Z 00000KT 10SM BKN250 09/M09 A3028 RMK AO2 SLP261 T00891094=\\n',\n",
       " 'METAR KATL 032352Z 00000KT 10SM OVC250 08/M07 A3028 RMK AO2 SLP263 T00781072 10106 20067 53003=\\n',\n",
       " 'METAR KATL 040052Z 21003KT 10SM OVC250 06/M07 A3030 RMK AO2 SLP268 T00611067=\\n',\n",
       " 'METAR KATL 040152Z 00000KT 10SM OVC250 06/M07 A3031 RMK AO2 SLP272 T00561067=\\n',\n",
       " 'METAR KATL 040252Z 00000KT 10SM OVC250 05/M07 A3030 RMK AO2 SLP270 T00501067 50006=\\n',\n",
       " ...]"
      ]
     },
     "execution_count": 19,
     "metadata": {},
     "output_type": "execute_result"
    }
   ],
   "source": [
    "metar_only_data"
   ]
  },
  {
   "cell_type": "code",
   "execution_count": 20,
   "metadata": {},
   "outputs": [],
   "source": [
    "# Looping through the strings to extract relevant data using Regex\n",
    "\n",
    "metar = []\n",
    "\n",
    "for i in metar_only_data:\n",
    "    \n",
    "    data={}\n",
    "    \n",
    "    try:\n",
    "        report_type = re.search('METAR|SPECI', i).group()\n",
    "    except:\n",
    "        pass\n",
    "    \n",
    "    try:\n",
    "        varywind = re.search(' \\d{3}\\D\\d{3} ', i).group()\n",
    "    except:\n",
    "        pass\n",
    "    \n",
    "    try:\n",
    "        vis = re.search('(\\d\\/\\d|\\d.)[S][M] ', i).group()\n",
    "    except:\n",
    "        pass\n",
    "    \n",
    "    try:\n",
    "        cloud = re.search('((SKC|NCD|CLR|NSC|FEW|SCT|BKN|OVC|VV)\\d* )+', i).group()\n",
    "    except:\n",
    "        pass\n",
    "    \n",
    "    try:\n",
    "        qnh = re.search('A\\d{4}', i).group()\n",
    "    except:\n",
    "        pass\n",
    "    \n",
    "    try:\n",
    "        temp = re.search('[M]*\\d{2}\\/', i).group()\n",
    "    except:\n",
    "        pass\n",
    "    \n",
    "    try:\n",
    "        dew = re.search('\\/[M]*\\d{2}', i).group()\n",
    "    except:\n",
    "        pass\n",
    "    ####\n",
    "    try:\n",
    "        TS = re.search('TS', i).group()\n",
    "    except:\n",
    "        pass\n",
    "    \n",
    "    try:\n",
    "        snow_ground = re.search('SOG', i).group()\n",
    "    except:\n",
    "        pass\n",
    "    \n",
    "    try:\n",
    "        lightning = re.search('LTG', i).group()\n",
    "    except:\n",
    "        pass\n",
    "    \n",
    "    try:\n",
    "        hail = re.search('GR|GS', i).group()\n",
    "    except:\n",
    "        pass\n",
    "    \n",
    "    try:\n",
    "        shower = re.search('SH', i).group()\n",
    "    except:\n",
    "        pass\n",
    "    \n",
    "    try:\n",
    "        rain = re.search('RA', i).group()\n",
    "    except:\n",
    "        pass\n",
    "    \n",
    "    try:\n",
    "        snow = re.search('SN', i).group()\n",
    "    except:\n",
    "        pass\n",
    "    \n",
    "    try:\n",
    "        low_intensity = re.search('-', i).group()\n",
    "    except:\n",
    "        pass\n",
    "    \n",
    "    try:\n",
    "        high_intensity = re.search('+', i).group()\n",
    "    except:\n",
    "        pass\n",
    "    \n",
    "    try:\n",
    "        vicinity = re.search('VC', i).group()\n",
    "    except:\n",
    "        pass\n",
    "    \n",
    "    try:\n",
    "        squall = re.search('SQ', i).group()\n",
    "    except:\n",
    "        pass\n",
    "    \n",
    "    # Putting in dict\n",
    "    try:\n",
    "        data['type'] = report_type\n",
    "    except:\n",
    "        pass\n",
    "    \n",
    "    try:\n",
    "        data['aerodrome'] = i[6:10]\n",
    "    except:\n",
    "        pass\n",
    "    \n",
    "    try:\n",
    "        data['DayTime'] = i[11:18]\n",
    "    except:\n",
    "        pass\n",
    "    \n",
    "    try:\n",
    "        data['winddirspd'] = i[19:26]\n",
    "    except:\n",
    "        pass\n",
    "    \n",
    "    try: \n",
    "        data['wind_variation'] = varywind\n",
    "    except:\n",
    "        pass\n",
    "    \n",
    "    try:\n",
    "        data['visibility'] = vis\n",
    "    except:\n",
    "        pass    \n",
    "    \n",
    "    try:\n",
    "        data['cloud'] = cloud\n",
    "    except:\n",
    "        pass\n",
    "        \n",
    "    try:\n",
    "        data['temp'] = temp\n",
    "    except:\n",
    "        pass\n",
    "    \n",
    "    try:\n",
    "        data['dew_point'] = dew\n",
    "    except:\n",
    "        pass\n",
    "    \n",
    "    try:\n",
    "        data['QNH'] = qnh  \n",
    "    except:\n",
    "        pass\n",
    "    \n",
    "    try:\n",
    "        data['thunderyshower'] = TS  \n",
    "    except:\n",
    "        pass\n",
    "    \n",
    "    try:\n",
    "        data['snow_on_grnd'] = snow_ground  \n",
    "    except:\n",
    "        pass\n",
    "    \n",
    "    try:\n",
    "        data['lightning'] = lightning\n",
    "    except:\n",
    "        pass\n",
    "    \n",
    "    try:\n",
    "        data['hail'] = hail\n",
    "    except:\n",
    "        pass\n",
    "    \n",
    "    try:\n",
    "        data['shower'] = shower\n",
    "    except:\n",
    "        pass\n",
    "    \n",
    "    try:\n",
    "        data['rain'] = rain\n",
    "    except:\n",
    "        pass\n",
    "    \n",
    "    try:\n",
    "        data['snow'] = snow\n",
    "    except:\n",
    "        pass\n",
    "    \n",
    "    try:\n",
    "        data['low_intensity'] = low_intensity\n",
    "    except:\n",
    "        pass\n",
    "    \n",
    "    try:\n",
    "        data['high_intensity'] = high_intensity\n",
    "    except:\n",
    "        pass\n",
    "    \n",
    "    try:\n",
    "        data['squall'] = squall\n",
    "    except:\n",
    "        pass\n",
    "    \n",
    "    try:\n",
    "        data['vicinity'] = vicinity\n",
    "    except:\n",
    "        pass\n",
    "    \n",
    "    metar.append(data)"
   ]
  },
  {
   "cell_type": "code",
   "execution_count": 21,
   "metadata": {
    "scrolled": true
   },
   "outputs": [],
   "source": [
    "df = pd.DataFrame(metar)"
   ]
  },
  {
   "cell_type": "code",
   "execution_count": 22,
   "metadata": {},
   "outputs": [
    {
     "data": {
      "text/html": [
       "<div>\n",
       "<style scoped>\n",
       "    .dataframe tbody tr th:only-of-type {\n",
       "        vertical-align: middle;\n",
       "    }\n",
       "\n",
       "    .dataframe tbody tr th {\n",
       "        vertical-align: top;\n",
       "    }\n",
       "\n",
       "    .dataframe thead th {\n",
       "        text-align: right;\n",
       "    }\n",
       "</style>\n",
       "<table border=\"1\" class=\"dataframe\">\n",
       "  <thead>\n",
       "    <tr style=\"text-align: right;\">\n",
       "      <th></th>\n",
       "      <th>type</th>\n",
       "      <th>aerodrome</th>\n",
       "      <th>DayTime</th>\n",
       "      <th>winddirspd</th>\n",
       "      <th>visibility</th>\n",
       "      <th>cloud</th>\n",
       "      <th>temp</th>\n",
       "      <th>dew_point</th>\n",
       "      <th>QNH</th>\n",
       "      <th>vicinity</th>\n",
       "      <th>low_intensity</th>\n",
       "      <th>rain</th>\n",
       "      <th>wind_variation</th>\n",
       "      <th>thunderyshower</th>\n",
       "      <th>lightning</th>\n",
       "      <th>snow</th>\n",
       "      <th>shower</th>\n",
       "      <th>squall</th>\n",
       "    </tr>\n",
       "  </thead>\n",
       "  <tbody>\n",
       "    <tr>\n",
       "      <th>0</th>\n",
       "      <td>METAR</td>\n",
       "      <td>KATL</td>\n",
       "      <td>010052Z</td>\n",
       "      <td>33005KT</td>\n",
       "      <td>10SM</td>\n",
       "      <td>FEW200 SCT250</td>\n",
       "      <td>05/</td>\n",
       "      <td>/01</td>\n",
       "      <td>A3037</td>\n",
       "      <td>NaN</td>\n",
       "      <td>NaN</td>\n",
       "      <td>NaN</td>\n",
       "      <td>NaN</td>\n",
       "      <td>NaN</td>\n",
       "      <td>NaN</td>\n",
       "      <td>NaN</td>\n",
       "      <td>NaN</td>\n",
       "      <td>NaN</td>\n",
       "    </tr>\n",
       "    <tr>\n",
       "      <th>1</th>\n",
       "      <td>METAR</td>\n",
       "      <td>KATL</td>\n",
       "      <td>010152Z</td>\n",
       "      <td>31004KT</td>\n",
       "      <td>10SM</td>\n",
       "      <td>FEW250</td>\n",
       "      <td>04/</td>\n",
       "      <td>/00</td>\n",
       "      <td>A3037</td>\n",
       "      <td>NaN</td>\n",
       "      <td>NaN</td>\n",
       "      <td>NaN</td>\n",
       "      <td>NaN</td>\n",
       "      <td>NaN</td>\n",
       "      <td>NaN</td>\n",
       "      <td>NaN</td>\n",
       "      <td>NaN</td>\n",
       "      <td>NaN</td>\n",
       "    </tr>\n",
       "    <tr>\n",
       "      <th>2</th>\n",
       "      <td>METAR</td>\n",
       "      <td>KATL</td>\n",
       "      <td>010252Z</td>\n",
       "      <td>00000KT</td>\n",
       "      <td>10SM</td>\n",
       "      <td>FEW250</td>\n",
       "      <td>04/</td>\n",
       "      <td>/00</td>\n",
       "      <td>A3036</td>\n",
       "      <td>NaN</td>\n",
       "      <td>NaN</td>\n",
       "      <td>NaN</td>\n",
       "      <td>NaN</td>\n",
       "      <td>NaN</td>\n",
       "      <td>NaN</td>\n",
       "      <td>NaN</td>\n",
       "      <td>NaN</td>\n",
       "      <td>NaN</td>\n",
       "    </tr>\n",
       "    <tr>\n",
       "      <th>3</th>\n",
       "      <td>METAR</td>\n",
       "      <td>KATL</td>\n",
       "      <td>010352Z</td>\n",
       "      <td>32005KT</td>\n",
       "      <td>10SM</td>\n",
       "      <td>FEW250</td>\n",
       "      <td>03/</td>\n",
       "      <td>/M01</td>\n",
       "      <td>A3037</td>\n",
       "      <td>NaN</td>\n",
       "      <td>NaN</td>\n",
       "      <td>NaN</td>\n",
       "      <td>NaN</td>\n",
       "      <td>NaN</td>\n",
       "      <td>NaN</td>\n",
       "      <td>NaN</td>\n",
       "      <td>NaN</td>\n",
       "      <td>NaN</td>\n",
       "    </tr>\n",
       "    <tr>\n",
       "      <th>4</th>\n",
       "      <td>METAR</td>\n",
       "      <td>KATL</td>\n",
       "      <td>010452Z</td>\n",
       "      <td>32006KT</td>\n",
       "      <td>10SM</td>\n",
       "      <td>BKN200</td>\n",
       "      <td>03/</td>\n",
       "      <td>/M01</td>\n",
       "      <td>A3035</td>\n",
       "      <td>NaN</td>\n",
       "      <td>NaN</td>\n",
       "      <td>NaN</td>\n",
       "      <td>NaN</td>\n",
       "      <td>NaN</td>\n",
       "      <td>NaN</td>\n",
       "      <td>NaN</td>\n",
       "      <td>NaN</td>\n",
       "      <td>NaN</td>\n",
       "    </tr>\n",
       "  </tbody>\n",
       "</table>\n",
       "</div>"
      ],
      "text/plain": [
       "    type aerodrome  DayTime winddirspd visibility           cloud temp  \\\n",
       "0  METAR      KATL  010052Z    33005KT      10SM   FEW200 SCT250   05/   \n",
       "1  METAR      KATL  010152Z    31004KT      10SM          FEW250   04/   \n",
       "2  METAR      KATL  010252Z    00000KT      10SM          FEW250   04/   \n",
       "3  METAR      KATL  010352Z    32005KT      10SM          FEW250   03/   \n",
       "4  METAR      KATL  010452Z    32006KT      10SM          BKN200   03/   \n",
       "\n",
       "  dew_point    QNH vicinity low_intensity rain wind_variation thunderyshower  \\\n",
       "0       /01  A3037      NaN           NaN  NaN            NaN            NaN   \n",
       "1       /00  A3037      NaN           NaN  NaN            NaN            NaN   \n",
       "2       /00  A3036      NaN           NaN  NaN            NaN            NaN   \n",
       "3      /M01  A3037      NaN           NaN  NaN            NaN            NaN   \n",
       "4      /M01  A3035      NaN           NaN  NaN            NaN            NaN   \n",
       "\n",
       "  lightning snow shower squall  \n",
       "0       NaN  NaN    NaN    NaN  \n",
       "1       NaN  NaN    NaN    NaN  \n",
       "2       NaN  NaN    NaN    NaN  \n",
       "3       NaN  NaN    NaN    NaN  \n",
       "4       NaN  NaN    NaN    NaN  "
      ]
     },
     "execution_count": 22,
     "metadata": {},
     "output_type": "execute_result"
    }
   ],
   "source": [
    "df.head()"
   ]
  },
  {
   "cell_type": "code",
   "execution_count": 23,
   "metadata": {},
   "outputs": [],
   "source": [
    "pd.set_option('display.max_rows', 10000)\n",
    "df = df.fillna(0)"
   ]
  },
  {
   "cell_type": "markdown",
   "metadata": {},
   "source": [
    "---\n",
    "### (4) Combining METAR and date\n",
    "\n",
    "Combining the METAR data and the date information\n",
    "\n",
    "---"
   ]
  },
  {
   "cell_type": "code",
   "execution_count": 24,
   "metadata": {},
   "outputs": [],
   "source": [
    "df = date.merge(df, how='left', left_index=True, right_index=True)"
   ]
  },
  {
   "cell_type": "code",
   "execution_count": 25,
   "metadata": {},
   "outputs": [],
   "source": [
    "# DayTime is now redundant and we will drop it\n",
    "\n",
    "df.drop('DayTime', axis=1, inplace=True)"
   ]
  },
  {
   "cell_type": "code",
   "execution_count": 26,
   "metadata": {},
   "outputs": [],
   "source": [
    "# We will also drop aerodrome as it is a constant (we are only looking at KATL)\n",
    "# Also dropping cloud as it (technically) does not affect the approach\n",
    "\n",
    "df.drop(['aerodrome', 'cloud'], axis=1, inplace=True)"
   ]
  },
  {
   "cell_type": "markdown",
   "metadata": {},
   "source": [
    "_Clouds in itself do not affect the approach unless it is a thunderstorm cloud in the approach path or near it. If it is a thunderstorm, it could be represented by strong winds, gusts and thunderyshowers. The cloud variable here in itself does not tell us the exact location of the cloud and as such would be of no purpose to include in our model._"
   ]
  },
  {
   "cell_type": "code",
   "execution_count": 27,
   "metadata": {},
   "outputs": [
    {
     "data": {
      "text/html": [
       "<div>\n",
       "<style scoped>\n",
       "    .dataframe tbody tr th:only-of-type {\n",
       "        vertical-align: middle;\n",
       "    }\n",
       "\n",
       "    .dataframe tbody tr th {\n",
       "        vertical-align: top;\n",
       "    }\n",
       "\n",
       "    .dataframe thead th {\n",
       "        text-align: right;\n",
       "    }\n",
       "</style>\n",
       "<table border=\"1\" class=\"dataframe\">\n",
       "  <thead>\n",
       "    <tr style=\"text-align: right;\">\n",
       "      <th></th>\n",
       "      <th>month</th>\n",
       "      <th>year</th>\n",
       "      <th>day</th>\n",
       "      <th>hour</th>\n",
       "      <th>min</th>\n",
       "      <th>type</th>\n",
       "      <th>winddirspd</th>\n",
       "      <th>visibility</th>\n",
       "      <th>temp</th>\n",
       "      <th>dew_point</th>\n",
       "      <th>QNH</th>\n",
       "      <th>vicinity</th>\n",
       "      <th>low_intensity</th>\n",
       "      <th>rain</th>\n",
       "      <th>wind_variation</th>\n",
       "      <th>thunderyshower</th>\n",
       "      <th>lightning</th>\n",
       "      <th>snow</th>\n",
       "      <th>shower</th>\n",
       "      <th>squall</th>\n",
       "    </tr>\n",
       "  </thead>\n",
       "  <tbody>\n",
       "    <tr>\n",
       "      <th>0</th>\n",
       "      <td>01</td>\n",
       "      <td>2015</td>\n",
       "      <td>01</td>\n",
       "      <td>00</td>\n",
       "      <td>52</td>\n",
       "      <td>METAR</td>\n",
       "      <td>33005KT</td>\n",
       "      <td>10SM</td>\n",
       "      <td>05/</td>\n",
       "      <td>/01</td>\n",
       "      <td>A3037</td>\n",
       "      <td>0</td>\n",
       "      <td>0</td>\n",
       "      <td>0</td>\n",
       "      <td>0</td>\n",
       "      <td>0</td>\n",
       "      <td>0</td>\n",
       "      <td>0</td>\n",
       "      <td>0</td>\n",
       "      <td>0</td>\n",
       "    </tr>\n",
       "    <tr>\n",
       "      <th>1</th>\n",
       "      <td>01</td>\n",
       "      <td>2015</td>\n",
       "      <td>01</td>\n",
       "      <td>01</td>\n",
       "      <td>52</td>\n",
       "      <td>METAR</td>\n",
       "      <td>31004KT</td>\n",
       "      <td>10SM</td>\n",
       "      <td>04/</td>\n",
       "      <td>/00</td>\n",
       "      <td>A3037</td>\n",
       "      <td>0</td>\n",
       "      <td>0</td>\n",
       "      <td>0</td>\n",
       "      <td>0</td>\n",
       "      <td>0</td>\n",
       "      <td>0</td>\n",
       "      <td>0</td>\n",
       "      <td>0</td>\n",
       "      <td>0</td>\n",
       "    </tr>\n",
       "    <tr>\n",
       "      <th>2</th>\n",
       "      <td>01</td>\n",
       "      <td>2015</td>\n",
       "      <td>01</td>\n",
       "      <td>02</td>\n",
       "      <td>52</td>\n",
       "      <td>METAR</td>\n",
       "      <td>00000KT</td>\n",
       "      <td>10SM</td>\n",
       "      <td>04/</td>\n",
       "      <td>/00</td>\n",
       "      <td>A3036</td>\n",
       "      <td>0</td>\n",
       "      <td>0</td>\n",
       "      <td>0</td>\n",
       "      <td>0</td>\n",
       "      <td>0</td>\n",
       "      <td>0</td>\n",
       "      <td>0</td>\n",
       "      <td>0</td>\n",
       "      <td>0</td>\n",
       "    </tr>\n",
       "    <tr>\n",
       "      <th>3</th>\n",
       "      <td>01</td>\n",
       "      <td>2015</td>\n",
       "      <td>01</td>\n",
       "      <td>03</td>\n",
       "      <td>52</td>\n",
       "      <td>METAR</td>\n",
       "      <td>32005KT</td>\n",
       "      <td>10SM</td>\n",
       "      <td>03/</td>\n",
       "      <td>/M01</td>\n",
       "      <td>A3037</td>\n",
       "      <td>0</td>\n",
       "      <td>0</td>\n",
       "      <td>0</td>\n",
       "      <td>0</td>\n",
       "      <td>0</td>\n",
       "      <td>0</td>\n",
       "      <td>0</td>\n",
       "      <td>0</td>\n",
       "      <td>0</td>\n",
       "    </tr>\n",
       "    <tr>\n",
       "      <th>4</th>\n",
       "      <td>01</td>\n",
       "      <td>2015</td>\n",
       "      <td>01</td>\n",
       "      <td>04</td>\n",
       "      <td>52</td>\n",
       "      <td>METAR</td>\n",
       "      <td>32006KT</td>\n",
       "      <td>10SM</td>\n",
       "      <td>03/</td>\n",
       "      <td>/M01</td>\n",
       "      <td>A3035</td>\n",
       "      <td>0</td>\n",
       "      <td>0</td>\n",
       "      <td>0</td>\n",
       "      <td>0</td>\n",
       "      <td>0</td>\n",
       "      <td>0</td>\n",
       "      <td>0</td>\n",
       "      <td>0</td>\n",
       "      <td>0</td>\n",
       "    </tr>\n",
       "  </tbody>\n",
       "</table>\n",
       "</div>"
      ],
      "text/plain": [
       "  month  year day hour min   type winddirspd visibility temp dew_point    QNH  \\\n",
       "0    01  2015  01   00  52  METAR    33005KT      10SM   05/       /01  A3037   \n",
       "1    01  2015  01   01  52  METAR    31004KT      10SM   04/       /00  A3037   \n",
       "2    01  2015  01   02  52  METAR    00000KT      10SM   04/       /00  A3036   \n",
       "3    01  2015  01   03  52  METAR    32005KT      10SM   03/      /M01  A3037   \n",
       "4    01  2015  01   04  52  METAR    32006KT      10SM   03/      /M01  A3035   \n",
       "\n",
       "  vicinity low_intensity rain wind_variation thunderyshower lightning snow  \\\n",
       "0        0             0    0              0              0         0    0   \n",
       "1        0             0    0              0              0         0    0   \n",
       "2        0             0    0              0              0         0    0   \n",
       "3        0             0    0              0              0         0    0   \n",
       "4        0             0    0              0              0         0    0   \n",
       "\n",
       "  shower squall  \n",
       "0      0      0  \n",
       "1      0      0  \n",
       "2      0      0  \n",
       "3      0      0  \n",
       "4      0      0  "
      ]
     },
     "execution_count": 27,
     "metadata": {},
     "output_type": "execute_result"
    }
   ],
   "source": [
    "pd.set_option('display.max_columns', 40)\n",
    "df.head()"
   ]
  },
  {
   "cell_type": "code",
   "execution_count": 28,
   "metadata": {},
   "outputs": [
    {
     "data": {
      "text/plain": [
       "array(['METAR', 'SPECI'], dtype=object)"
      ]
     },
     "execution_count": 28,
     "metadata": {},
     "output_type": "execute_result"
    }
   ],
   "source": [
    "df['type'].unique()"
   ]
  },
  {
   "cell_type": "code",
   "execution_count": 29,
   "metadata": {},
   "outputs": [
    {
     "data": {
      "text/html": [
       "<div>\n",
       "<style scoped>\n",
       "    .dataframe tbody tr th:only-of-type {\n",
       "        vertical-align: middle;\n",
       "    }\n",
       "\n",
       "    .dataframe tbody tr th {\n",
       "        vertical-align: top;\n",
       "    }\n",
       "\n",
       "    .dataframe thead th {\n",
       "        text-align: right;\n",
       "    }\n",
       "</style>\n",
       "<table border=\"1\" class=\"dataframe\">\n",
       "  <thead>\n",
       "    <tr style=\"text-align: right;\">\n",
       "      <th></th>\n",
       "      <th>month</th>\n",
       "      <th>year</th>\n",
       "      <th>day</th>\n",
       "      <th>hour</th>\n",
       "      <th>min</th>\n",
       "      <th>type</th>\n",
       "      <th>winddirspd</th>\n",
       "      <th>visibility</th>\n",
       "      <th>temp</th>\n",
       "      <th>dew_point</th>\n",
       "      <th>QNH</th>\n",
       "      <th>vicinity</th>\n",
       "      <th>low_intensity</th>\n",
       "      <th>rain</th>\n",
       "      <th>wind_variation</th>\n",
       "      <th>thunderyshower</th>\n",
       "      <th>lightning</th>\n",
       "      <th>snow</th>\n",
       "      <th>shower</th>\n",
       "      <th>squall</th>\n",
       "    </tr>\n",
       "  </thead>\n",
       "  <tbody>\n",
       "    <tr>\n",
       "      <th>42</th>\n",
       "      <td>01</td>\n",
       "      <td>2015</td>\n",
       "      <td>02</td>\n",
       "      <td>18</td>\n",
       "      <td>45</td>\n",
       "      <td>SPECI</td>\n",
       "      <td>09005KT</td>\n",
       "      <td>10SM</td>\n",
       "      <td>09/</td>\n",
       "      <td>/07</td>\n",
       "      <td>A3025</td>\n",
       "      <td>VC</td>\n",
       "      <td>-</td>\n",
       "      <td>RA</td>\n",
       "      <td>0</td>\n",
       "      <td>0</td>\n",
       "      <td>0</td>\n",
       "      <td>0</td>\n",
       "      <td>0</td>\n",
       "      <td>0</td>\n",
       "    </tr>\n",
       "    <tr>\n",
       "      <th>44</th>\n",
       "      <td>01</td>\n",
       "      <td>2015</td>\n",
       "      <td>02</td>\n",
       "      <td>19</td>\n",
       "      <td>22</td>\n",
       "      <td>SPECI</td>\n",
       "      <td>33007KT</td>\n",
       "      <td>1/2SM</td>\n",
       "      <td>09/</td>\n",
       "      <td>/08</td>\n",
       "      <td>A3029</td>\n",
       "      <td>VC</td>\n",
       "      <td>-</td>\n",
       "      <td>RA</td>\n",
       "      <td>0</td>\n",
       "      <td>0</td>\n",
       "      <td>0</td>\n",
       "      <td>0</td>\n",
       "      <td>0</td>\n",
       "      <td>0</td>\n",
       "    </tr>\n",
       "    <tr>\n",
       "      <th>45</th>\n",
       "      <td>01</td>\n",
       "      <td>2015</td>\n",
       "      <td>02</td>\n",
       "      <td>19</td>\n",
       "      <td>47</td>\n",
       "      <td>SPECI</td>\n",
       "      <td>04004KT</td>\n",
       "      <td>1/2SM</td>\n",
       "      <td>09/</td>\n",
       "      <td>/35</td>\n",
       "      <td>A3029</td>\n",
       "      <td>VC</td>\n",
       "      <td>-</td>\n",
       "      <td>RA</td>\n",
       "      <td>0</td>\n",
       "      <td>0</td>\n",
       "      <td>0</td>\n",
       "      <td>0</td>\n",
       "      <td>0</td>\n",
       "      <td>0</td>\n",
       "    </tr>\n",
       "    <tr>\n",
       "      <th>47</th>\n",
       "      <td>01</td>\n",
       "      <td>2015</td>\n",
       "      <td>02</td>\n",
       "      <td>20</td>\n",
       "      <td>34</td>\n",
       "      <td>SPECI</td>\n",
       "      <td>07010KT</td>\n",
       "      <td>1/2SM</td>\n",
       "      <td>09/</td>\n",
       "      <td>/07</td>\n",
       "      <td>A3025</td>\n",
       "      <td>VC</td>\n",
       "      <td>-</td>\n",
       "      <td>RA</td>\n",
       "      <td>0</td>\n",
       "      <td>0</td>\n",
       "      <td>0</td>\n",
       "      <td>0</td>\n",
       "      <td>0</td>\n",
       "      <td>0</td>\n",
       "    </tr>\n",
       "    <tr>\n",
       "      <th>49</th>\n",
       "      <td>01</td>\n",
       "      <td>2015</td>\n",
       "      <td>02</td>\n",
       "      <td>21</td>\n",
       "      <td>30</td>\n",
       "      <td>SPECI</td>\n",
       "      <td>05007KT</td>\n",
       "      <td>1/2SM</td>\n",
       "      <td>09/</td>\n",
       "      <td>/07</td>\n",
       "      <td>A3028</td>\n",
       "      <td>VC</td>\n",
       "      <td>-</td>\n",
       "      <td>RA</td>\n",
       "      <td>0</td>\n",
       "      <td>0</td>\n",
       "      <td>0</td>\n",
       "      <td>0</td>\n",
       "      <td>0</td>\n",
       "      <td>0</td>\n",
       "    </tr>\n",
       "  </tbody>\n",
       "</table>\n",
       "</div>"
      ],
      "text/plain": [
       "   month  year day hour min   type winddirspd visibility temp dew_point  \\\n",
       "42    01  2015  02   18  45  SPECI    09005KT      10SM   09/       /07   \n",
       "44    01  2015  02   19  22  SPECI    33007KT     1/2SM   09/       /08   \n",
       "45    01  2015  02   19  47  SPECI    04004KT     1/2SM   09/       /35   \n",
       "47    01  2015  02   20  34  SPECI    07010KT     1/2SM   09/       /07   \n",
       "49    01  2015  02   21  30  SPECI    05007KT     1/2SM   09/       /07   \n",
       "\n",
       "      QNH vicinity low_intensity rain wind_variation thunderyshower lightning  \\\n",
       "42  A3025       VC             -   RA              0              0         0   \n",
       "44  A3029       VC             -   RA              0              0         0   \n",
       "45  A3029       VC             -   RA              0              0         0   \n",
       "47  A3025       VC             -   RA              0              0         0   \n",
       "49  A3028       VC             -   RA              0              0         0   \n",
       "\n",
       "   snow shower squall  \n",
       "42    0      0      0  \n",
       "44    0      0      0  \n",
       "45    0      0      0  \n",
       "47    0      0      0  \n",
       "49    0      0      0  "
      ]
     },
     "execution_count": 29,
     "metadata": {},
     "output_type": "execute_result"
    }
   ],
   "source": [
    "df[df['type'] == 'SPECI'].head()"
   ]
  },
  {
   "cell_type": "markdown",
   "metadata": {},
   "source": [
    "For the purpose of predictions we will only use METAR. \n",
    "\n",
    "In a real world situation, we will only be able to get the TAF which is the weather forecast. METAR is the actual weather observed at the time while SPECI is the ammended weather observed if it fluctuates above a certain threshold. For the purpose of this project, we will not take SPECI into account for the models and will solely depend on METAR readings for our predictions. \n",
    "\n",
    "_For real life predictions, we will replace METAR reports with TAF reports and take in the inaccuracies of the TAF reports as a variance of our model_"
   ]
  },
  {
   "cell_type": "code",
   "execution_count": 30,
   "metadata": {},
   "outputs": [
    {
     "data": {
      "text/plain": [
       "(10990, 20)"
      ]
     },
     "execution_count": 30,
     "metadata": {},
     "output_type": "execute_result"
    }
   ],
   "source": [
    "df.shape"
   ]
  },
  {
   "cell_type": "code",
   "execution_count": 31,
   "metadata": {},
   "outputs": [],
   "source": [
    "df = df[df['type'] == 'METAR']"
   ]
  },
  {
   "cell_type": "code",
   "execution_count": 32,
   "metadata": {},
   "outputs": [
    {
     "data": {
      "text/plain": [
       "(8794, 20)"
      ]
     },
     "execution_count": 32,
     "metadata": {},
     "output_type": "execute_result"
    }
   ],
   "source": [
    "df.shape"
   ]
  },
  {
   "cell_type": "code",
   "execution_count": 31,
   "metadata": {},
   "outputs": [
    {
     "data": {
      "text/html": [
       "<div>\n",
       "<style scoped>\n",
       "    .dataframe tbody tr th:only-of-type {\n",
       "        vertical-align: middle;\n",
       "    }\n",
       "\n",
       "    .dataframe tbody tr th {\n",
       "        vertical-align: top;\n",
       "    }\n",
       "\n",
       "    .dataframe thead th {\n",
       "        text-align: right;\n",
       "    }\n",
       "</style>\n",
       "<table border=\"1\" class=\"dataframe\">\n",
       "  <thead>\n",
       "    <tr style=\"text-align: right;\">\n",
       "      <th></th>\n",
       "      <th>month</th>\n",
       "      <th>year</th>\n",
       "      <th>day</th>\n",
       "      <th>hour</th>\n",
       "      <th>min</th>\n",
       "      <th>QNH</th>\n",
       "      <th>dew_point</th>\n",
       "      <th>lightning</th>\n",
       "      <th>low_intensity</th>\n",
       "      <th>rain</th>\n",
       "      <th>shower</th>\n",
       "      <th>snow</th>\n",
       "      <th>squall</th>\n",
       "      <th>temp</th>\n",
       "      <th>thunderyshower</th>\n",
       "      <th>vicinity</th>\n",
       "      <th>visibility</th>\n",
       "      <th>wind_variation</th>\n",
       "      <th>winddirspd</th>\n",
       "    </tr>\n",
       "  </thead>\n",
       "  <tbody>\n",
       "    <tr>\n",
       "      <th>0</th>\n",
       "      <td>01</td>\n",
       "      <td>2015</td>\n",
       "      <td>01</td>\n",
       "      <td>00</td>\n",
       "      <td>52</td>\n",
       "      <td>A3037</td>\n",
       "      <td>/01</td>\n",
       "      <td>0</td>\n",
       "      <td>0</td>\n",
       "      <td>0</td>\n",
       "      <td>0</td>\n",
       "      <td>0</td>\n",
       "      <td>0</td>\n",
       "      <td>05/</td>\n",
       "      <td>0</td>\n",
       "      <td>0</td>\n",
       "      <td>10SM</td>\n",
       "      <td>0</td>\n",
       "      <td>33005KT</td>\n",
       "    </tr>\n",
       "    <tr>\n",
       "      <th>1</th>\n",
       "      <td>01</td>\n",
       "      <td>2015</td>\n",
       "      <td>01</td>\n",
       "      <td>01</td>\n",
       "      <td>52</td>\n",
       "      <td>A3037</td>\n",
       "      <td>/00</td>\n",
       "      <td>0</td>\n",
       "      <td>0</td>\n",
       "      <td>0</td>\n",
       "      <td>0</td>\n",
       "      <td>0</td>\n",
       "      <td>0</td>\n",
       "      <td>04/</td>\n",
       "      <td>0</td>\n",
       "      <td>0</td>\n",
       "      <td>10SM</td>\n",
       "      <td>0</td>\n",
       "      <td>31004KT</td>\n",
       "    </tr>\n",
       "    <tr>\n",
       "      <th>2</th>\n",
       "      <td>01</td>\n",
       "      <td>2015</td>\n",
       "      <td>01</td>\n",
       "      <td>02</td>\n",
       "      <td>52</td>\n",
       "      <td>A3036</td>\n",
       "      <td>/00</td>\n",
       "      <td>0</td>\n",
       "      <td>0</td>\n",
       "      <td>0</td>\n",
       "      <td>0</td>\n",
       "      <td>0</td>\n",
       "      <td>0</td>\n",
       "      <td>04/</td>\n",
       "      <td>0</td>\n",
       "      <td>0</td>\n",
       "      <td>10SM</td>\n",
       "      <td>0</td>\n",
       "      <td>00000KT</td>\n",
       "    </tr>\n",
       "    <tr>\n",
       "      <th>3</th>\n",
       "      <td>01</td>\n",
       "      <td>2015</td>\n",
       "      <td>01</td>\n",
       "      <td>03</td>\n",
       "      <td>52</td>\n",
       "      <td>A3037</td>\n",
       "      <td>/M01</td>\n",
       "      <td>0</td>\n",
       "      <td>0</td>\n",
       "      <td>0</td>\n",
       "      <td>0</td>\n",
       "      <td>0</td>\n",
       "      <td>0</td>\n",
       "      <td>03/</td>\n",
       "      <td>0</td>\n",
       "      <td>0</td>\n",
       "      <td>10SM</td>\n",
       "      <td>0</td>\n",
       "      <td>32005KT</td>\n",
       "    </tr>\n",
       "    <tr>\n",
       "      <th>4</th>\n",
       "      <td>01</td>\n",
       "      <td>2015</td>\n",
       "      <td>01</td>\n",
       "      <td>04</td>\n",
       "      <td>52</td>\n",
       "      <td>A3035</td>\n",
       "      <td>/M01</td>\n",
       "      <td>0</td>\n",
       "      <td>0</td>\n",
       "      <td>0</td>\n",
       "      <td>0</td>\n",
       "      <td>0</td>\n",
       "      <td>0</td>\n",
       "      <td>03/</td>\n",
       "      <td>0</td>\n",
       "      <td>0</td>\n",
       "      <td>10SM</td>\n",
       "      <td>0</td>\n",
       "      <td>32006KT</td>\n",
       "    </tr>\n",
       "  </tbody>\n",
       "</table>\n",
       "</div>"
      ],
      "text/plain": [
       "  month  year day hour min    QNH dew_point lightning low_intensity rain  \\\n",
       "0    01  2015  01   00  52  A3037       /01         0             0    0   \n",
       "1    01  2015  01   01  52  A3037       /00         0             0    0   \n",
       "2    01  2015  01   02  52  A3036       /00         0             0    0   \n",
       "3    01  2015  01   03  52  A3037      /M01         0             0    0   \n",
       "4    01  2015  01   04  52  A3035      /M01         0             0    0   \n",
       "\n",
       "  shower snow squall temp thunderyshower vicinity visibility wind_variation  \\\n",
       "0      0    0      0  05/              0        0      10SM               0   \n",
       "1      0    0      0  04/              0        0      10SM               0   \n",
       "2      0    0      0  04/              0        0      10SM               0   \n",
       "3      0    0      0  03/              0        0      10SM               0   \n",
       "4      0    0      0  03/              0        0      10SM               0   \n",
       "\n",
       "  winddirspd  \n",
       "0    33005KT  \n",
       "1    31004KT  \n",
       "2    00000KT  \n",
       "3    32005KT  \n",
       "4    32006KT  "
      ]
     },
     "execution_count": 31,
     "metadata": {},
     "output_type": "execute_result"
    }
   ],
   "source": [
    "# Type feature is no longer needed as SPECI is dropped\n",
    "\n",
    "df.drop('type', axis=1, inplace=True)\n",
    "df.head()"
   ]
  },
  {
   "cell_type": "markdown",
   "metadata": {},
   "source": [
    "---\n",
    "### (5) Exporting the weather data\n",
    "\n",
    "---"
   ]
  },
  {
   "cell_type": "code",
   "execution_count": 32,
   "metadata": {},
   "outputs": [],
   "source": [
    "df.to_csv('../datasets/unclean_wx.csv', index=False)"
   ]
  },
  {
   "cell_type": "code",
   "execution_count": 33,
   "metadata": {},
   "outputs": [
    {
     "data": {
      "text/plain": [
       "'VC'"
      ]
     },
     "execution_count": 33,
     "metadata": {},
     "output_type": "execute_result"
    }
   ],
   "source": [
    "# Testing regex\n",
    "\n",
    "re.search('VC', 'OVC VC VCR').group() # Gives exact 'VC'"
   ]
  },
  {
   "cell_type": "code",
   "execution_count": 34,
   "metadata": {
    "scrolled": false
   },
   "outputs": [
    {
     "data": {
      "text/html": [
       "<div>\n",
       "<style scoped>\n",
       "    .dataframe tbody tr th:only-of-type {\n",
       "        vertical-align: middle;\n",
       "    }\n",
       "\n",
       "    .dataframe tbody tr th {\n",
       "        vertical-align: top;\n",
       "    }\n",
       "\n",
       "    .dataframe thead th {\n",
       "        text-align: right;\n",
       "    }\n",
       "</style>\n",
       "<table border=\"1\" class=\"dataframe\">\n",
       "  <thead>\n",
       "    <tr style=\"text-align: right;\">\n",
       "      <th></th>\n",
       "      <th>month</th>\n",
       "      <th>year</th>\n",
       "      <th>day</th>\n",
       "      <th>hour</th>\n",
       "      <th>min</th>\n",
       "      <th>QNH</th>\n",
       "      <th>dew_point</th>\n",
       "      <th>lightning</th>\n",
       "      <th>low_intensity</th>\n",
       "      <th>rain</th>\n",
       "      <th>shower</th>\n",
       "      <th>snow</th>\n",
       "      <th>squall</th>\n",
       "      <th>temp</th>\n",
       "      <th>thunderyshower</th>\n",
       "      <th>vicinity</th>\n",
       "      <th>visibility</th>\n",
       "      <th>wind_variation</th>\n",
       "      <th>winddirspd</th>\n",
       "    </tr>\n",
       "  </thead>\n",
       "  <tbody>\n",
       "    <tr>\n",
       "      <th>20</th>\n",
       "      <td>01</td>\n",
       "      <td>2015</td>\n",
       "      <td>01</td>\n",
       "      <td>20</td>\n",
       "      <td>52</td>\n",
       "      <td>A3026</td>\n",
       "      <td>/M03</td>\n",
       "      <td>0</td>\n",
       "      <td>0</td>\n",
       "      <td>0</td>\n",
       "      <td>0</td>\n",
       "      <td>0</td>\n",
       "      <td>0</td>\n",
       "      <td>13/</td>\n",
       "      <td>0</td>\n",
       "      <td>VC</td>\n",
       "      <td>10SM</td>\n",
       "      <td>0</td>\n",
       "      <td>VRB03KT</td>\n",
       "    </tr>\n",
       "    <tr>\n",
       "      <th>21</th>\n",
       "      <td>01</td>\n",
       "      <td>2015</td>\n",
       "      <td>01</td>\n",
       "      <td>21</td>\n",
       "      <td>52</td>\n",
       "      <td>A3026</td>\n",
       "      <td>/M01</td>\n",
       "      <td>0</td>\n",
       "      <td>0</td>\n",
       "      <td>0</td>\n",
       "      <td>0</td>\n",
       "      <td>0</td>\n",
       "      <td>0</td>\n",
       "      <td>12/</td>\n",
       "      <td>0</td>\n",
       "      <td>VC</td>\n",
       "      <td>10SM</td>\n",
       "      <td>0</td>\n",
       "      <td>28005KT</td>\n",
       "    </tr>\n",
       "    <tr>\n",
       "      <th>22</th>\n",
       "      <td>01</td>\n",
       "      <td>2015</td>\n",
       "      <td>01</td>\n",
       "      <td>22</td>\n",
       "      <td>52</td>\n",
       "      <td>A3027</td>\n",
       "      <td>/M01</td>\n",
       "      <td>0</td>\n",
       "      <td>0</td>\n",
       "      <td>0</td>\n",
       "      <td>0</td>\n",
       "      <td>0</td>\n",
       "      <td>0</td>\n",
       "      <td>12/</td>\n",
       "      <td>0</td>\n",
       "      <td>VC</td>\n",
       "      <td>10SM</td>\n",
       "      <td>0</td>\n",
       "      <td>30006KT</td>\n",
       "    </tr>\n",
       "    <tr>\n",
       "      <th>23</th>\n",
       "      <td>01</td>\n",
       "      <td>2015</td>\n",
       "      <td>01</td>\n",
       "      <td>23</td>\n",
       "      <td>52</td>\n",
       "      <td>A3028</td>\n",
       "      <td>/M01</td>\n",
       "      <td>0</td>\n",
       "      <td>-</td>\n",
       "      <td>0</td>\n",
       "      <td>0</td>\n",
       "      <td>0</td>\n",
       "      <td>0</td>\n",
       "      <td>11/</td>\n",
       "      <td>0</td>\n",
       "      <td>VC</td>\n",
       "      <td>10SM</td>\n",
       "      <td>0</td>\n",
       "      <td>00000KT</td>\n",
       "    </tr>\n",
       "    <tr>\n",
       "      <th>24</th>\n",
       "      <td>01</td>\n",
       "      <td>2015</td>\n",
       "      <td>02</td>\n",
       "      <td>00</td>\n",
       "      <td>52</td>\n",
       "      <td>A3031</td>\n",
       "      <td>/01</td>\n",
       "      <td>0</td>\n",
       "      <td>-</td>\n",
       "      <td>RA</td>\n",
       "      <td>0</td>\n",
       "      <td>0</td>\n",
       "      <td>0</td>\n",
       "      <td>10/</td>\n",
       "      <td>0</td>\n",
       "      <td>VC</td>\n",
       "      <td>10SM</td>\n",
       "      <td>0</td>\n",
       "      <td>33007KT</td>\n",
       "    </tr>\n",
       "  </tbody>\n",
       "</table>\n",
       "</div>"
      ],
      "text/plain": [
       "   month  year day hour min    QNH dew_point lightning low_intensity rain  \\\n",
       "20    01  2015  01   20  52  A3026      /M03         0             0    0   \n",
       "21    01  2015  01   21  52  A3026      /M01         0             0    0   \n",
       "22    01  2015  01   22  52  A3027      /M01         0             0    0   \n",
       "23    01  2015  01   23  52  A3028      /M01         0             -    0   \n",
       "24    01  2015  02   00  52  A3031       /01         0             -   RA   \n",
       "\n",
       "   shower snow squall temp thunderyshower vicinity visibility wind_variation  \\\n",
       "20      0    0      0  13/              0       VC      10SM               0   \n",
       "21      0    0      0  12/              0       VC      10SM               0   \n",
       "22      0    0      0  12/              0       VC      10SM               0   \n",
       "23      0    0      0  11/              0       VC      10SM               0   \n",
       "24      0    0      0  10/              0       VC      10SM               0   \n",
       "\n",
       "   winddirspd  \n",
       "20    VRB03KT  \n",
       "21    28005KT  \n",
       "22    30006KT  \n",
       "23    00000KT  \n",
       "24    33007KT  "
      ]
     },
     "execution_count": 34,
     "metadata": {},
     "output_type": "execute_result"
    }
   ],
   "source": [
    "df[df['vicinity'] == 'VC'].head()"
   ]
  }
 ],
 "metadata": {
  "kernelspec": {
   "display_name": "Python 3",
   "language": "python",
   "name": "python3"
  },
  "language_info": {
   "codemirror_mode": {
    "name": "ipython",
    "version": 3
   },
   "file_extension": ".py",
   "mimetype": "text/x-python",
   "name": "python",
   "nbconvert_exporter": "python",
   "pygments_lexer": "ipython3",
   "version": "3.7.4"
  }
 },
 "nbformat": 4,
 "nbformat_minor": 2
}
